{"type":"FeatureCollection","features":[{"type":"Feature","properties":{"kind":"garden","name":"Riverside Valley Community Garden"},"geometry":{"type":"Point","coordinates":[-73.95593739952045,40.823519149999996]}},{"type":"Feature","properties":{"kind":"garden","name":"Pollinator Meadow"},"geometry":{"type":"Point","coordinates":[-73.96489307195824,40.8129749]}},{"type":"Feature","properties":{"kind":"sport","name":"Field #5"},"geometry":{"type":"Point","coordinates":[-73.97281912676537,40.801823850000005]}},{"type":"Feature","properties":{"kind":"sport","name":"101 Street Soccer Field"},"geometry":{"type":"Point","coordinates":[-73.97391473226328,40.80011465]}},{"type":"Feature","properties":{"kind":"sport","name":"Hudson Beach"},"geometry":{"type":"Point","coordinates":[-73.97228572648703,40.802746600000006]}},{"type":"Feature","properties":{"kind":"sport","name":"Swing-A-Rings"},"geometry":{"type":"Point","coordinates":[-73.9722577,40.8027515]}},{"type":"Feature","properties":{"kind":"sport","name":"Volleyball Courts"},"geometry":{"type":"Point","coordinates":[-73.99035100220291,40.77680665]}},{"type":"Feature","properties":{"kind":"sport","name":"Riverside Clay Tennis Association"},"geometry":{"type":"Point","coordinates":[-73.97706406303818,40.796717650000005]}},{"type":"Feature","properties":{"kind":"sport","name":"71st Street Riverside Soccer Field"},"geometry":{"type":"Point","coordinates":[-73.98826111344933,40.7805657]}},{"type":"Feature","properties":{"kind":"sport","name":"Neville Colman Field"},"geometry":{"type":"Point","coordinates":[-73.97133375,40.80392775]}},{"type":"Feature","properties":{"kind":"sport","name":"77th Street Baseball Fields"},"geometry":{"type":"Point","coordinates":[-73.9856093851677,40.784573699999996]}},{"type":"Feature","properties":{"kind":"playground","name":"Neufeld Playground"},"geometry":{"type":"Point","coordinates":[-73.9846732809406,40.7836051]}},{"type":"Feature","properties":{"kind":"playground","name":"Big River Playground"},"geometry":{"type":"Point","coordinates":[-73.98986060801872,40.77753525]}},{"type":"Feature","properties":{"kind":"playground","name":"Little Engine Playground"},"geometry":{"type":"Point","coordinates":[-73.98895283860858,40.77792005]}},{"type":"Feature","properties":{"kind":"playground","name":"River Run Playground"},"geometry":{"type":"Point","coordinates":[-73.9822040160804,40.7870472]}},{"type":"Feature","properties":{"kind":"playground","name":"Big River Playground"},"geometry":{"type":"Point","coordinates":[-73.98937549545269,40.77728995]}},{"type":"Feature","properties":{"kind":"playground","name":"105th Street Tot Lot"},"geometry":{"type":"Point","coordinates":[-73.9709424,40.8017629]}},{"type":"Feature","properties":{"kind":"playground","name":"Hippo Playground"},"geometry":{"type":"Point","coordinates":[-73.97821250100918,40.7930625]}},{"type":"Feature","properties":{"kind":"playground","name":"Dinosaur Playground"},"geometry":{"type":"Point","coordinates":[-73.97492135067444,40.797052199999996]}},{"type":"Feature","properties":{"kind":"playground","name":"Riverbank Playground"},"geometry":{"type":"Point","coordinates":[-73.95376894818413,40.825705049999996]}},{"type":"Feature","properties":{"kind":"playground","name":"Palisades Playground"},"geometry":{"type":"Point","coordinates":[-73.95063216951439,40.8290387]}},{"type":"Feature","properties":{"kind":"playground","name":"Claremount (Dolphin) Playground"},"geometry":{"type":"Point","coordinates":[-73.96209830548928,40.81504885]}},{"type":"Feature","properties":{"kind":"playground","name":"110th Street Tot Lot"},"geometry":{"type":"Point","coordinates":[-73.96862365491816,40.80517055]}},{"type":"Feature","properties":{"kind":"playground","name":"112th Street Tot Lot"},"geometry":{"type":"Point","coordinates":[-73.967991482244,40.8063369]}},{"type":"Feature","properties":{"kind":"playground","name":"117th St. Playground"},"geometry":{"type":"Point","coordinates":[-73.96517661809027,40.810080400000004]}},{"type":"Feature","properties":{"kind":"dogrun","name":"66th Street Dog Run"},"geometry":{"type":"Point","coordinates":[-73.9895901856815,40.776508432731546]}},{"type":"Feature","properties":{"kind":"dogrun","name":"142nd Street Dog Run"},"geometry":{"type":"Point","coordinates":[-73.95421524931677,40.825290584806766]}},{"type":"Feature","properties":{"kind":"dogrun","name":"105th Street Dog Run"},"geometry":{"type":"Point","coordinates":[-73.97144109905935,40.80247360912339]}},{"type":"Feature","properties":{"kind":"dogrun","name":"87th Street Dog Run"},"geometry":{"type":"Point","coordinates":[-73.98058359958281,40.790400717050716]}},{"type":"Feature","properties":{"kind":"dogrun","name":"72nd Street Dog Run- Upper Level"},"geometry":{"type":"Point","coordinates":[-73.9865464769454,40.781197937224555]}},{"type":"Feature","properties":{"kind":"dogrun","name":"72nd Street Dog Run- Lower Level"},"geometry":{"type":"Point","coordinates":[-73.98735575217981,40.781294703373504]}},{"type":"Feature","properties":{"kind":"sport","name":"Andy Kessler Skate Park","x":1},"geometry":{"type":"Point","coordinates":[-73.970569,40.805066]}},{"type":"Feature","properties":{"kind":"sport","name":"76th Street Basketball Courts","x":1},"geometry":{"type":"Point","coordinates":[-73.985045,40.783147]}},{"type":"Feature","properties":{"kind":"sport","name":"Over the Tracks Tennis Courts","x":1},"geometry":{"type":"Point","coordinates":[-73.965334,40.81191]}},{"type":"Feature","properties":{"kind":"sport","name":"Batting cages","x":1},"geometry":{"type":"Point","coordinates":[-73.987384,40.780919]}},{"type":"Feature","properties":{"kind":"pier","name":"A Dock","x":2},"geometry":{"type":"Point","coordinates":[-73.985784,40.786601]}},{"type":"Feature","properties":{"kind":"pier","name":"B Dock","x":2},"geometry":{"type":"Point","coordinates":[-73.985404,40.786123]}},{"type":"Feature","properties":{"kind":"pier","name":"C Dock","x":2},"geometry":{"type":"Point","coordinates":[-73.986478,40.785942]}},{"type":"Feature","properties":{"kind":"sport","name":"74th Street Track","x":2},"geometry":{"type":"Point","coordinates":[-73.9871,40.78239]}},{"type":"Feature","properties":{"kind":"rock","name":"Mount Tom","x":2},"geometry":{"type":"Point","coordinates":[-73.981759,40.787843]}},{"type":"Feature","properties":{"kind":"court","name":"Soccer","x":2},"geometry":{"type":"Point","coordinates":[-73.973118,40.801201]}},{"type":"Feature","properties":{"kind":"court","name":"Soccer","x":2},"geometry":{"type":"Point","coordinates":[-73.953697,40.826641]}},{"type":"Feature","properties":{"kind":"court","name":"Basketball","x":2},"geometry":{"type":"Point","coordinates":[-73.973563,40.800646]}},{"type":"Feature","properties":{"kind":"court","name":"Basketball","x":2},"geometry":{"type":"Point","coordinates":[-73.969608,40.806375]}},{"type":"Feature","properties":{"kind":"court","name":"Softball","x":2},"geometry":{"type":"Point","coordinates":[-73.987622,40.781514]}},{"type":"Feature","properties":{"kind":"court","name":"Pickleball","x":2},"geometry":{"type":"Point","coordinates":[-73.970135,40.805481]}}]}