{"type":"FeatureCollection","features":[{"type":"Feature","properties":{},"geometry":{"type":"LineString","coordinates":[[-73.97241755156686,40.8003057751157],[-73.97215173030192,40.8005006107375],[-73.97212620884193,40.80052052811246],[-73.97207830003872,40.80056077693352],[-73.97202508326883,40.80061013029362],[-73.97199881557518,40.800637548616606],[-73.97190130280958,40.80074944432098]]}},{"type":"Feature","properties":{},"geometry":{"type":"LineString","coordinates":[[-73.96160875969585,40.817790715898596],[-73.96153603968976,40.817759919890705]]}},{"type":"Feature","properties":{},"geometry":{"type":"LineString","coordinates":[[-73.9743697322995,40.79786759696597],[-73.97437621288661,40.797830497826986],[-73.97438185217901,40.797793319256456],[-73.97438665017354,40.79775607296101],[-73.97439060449757,40.797718769746275],[-73.97439371514795,40.79768142131874],[-73.97439597975209,40.79764403848406],[-73.9743973971223,40.79760663204791],[-73.97439796962577,40.79756921281686],[-73.97439769370447,40.797531792496684],[-73.97439657172535,40.79749438279435],[-73.97437060514527,40.7972809568232],[-73.97433068572171,40.79706835168976]]}},{"type":"Feature","properties":{},"geometry":{"type":"LineString","coordinates":[[-73.9571998770392,40.82230108889621],[-73.95699224143996,40.82252308656191],[-73.95667157358318,40.82286443728642],[-73.95652859047206,40.82302044571922]]}},{"type":"Feature","properties":{},"geometry":{"type":"LineString","coordinates":[[-73.96774656478254,40.809324687322054],[-73.96774883039333,40.809318207973085],[-73.96775034348207,40.80931161495085],[-73.96775108980263,40.80930495867926],[-73.96775106696177,40.80929828688405],[-73.96775027374886,40.809291652694235],[-73.96774871606632,40.80928510473834],[-73.96774640574156,40.80927869344757],[-73.96774335934384,40.80927246655284],[-73.96773960173904,40.809266470887],[-73.96773516016412,40.809260751482455],[-73.96773006896738,40.809255352473144],[-73.96772436605443,40.80925031439199],[-73.96771809288748,40.809245675071466],[-73.96771130041128,40.80924146964514],[-73.9677040360169,40.80923772964359],[-73.96769419301592,40.80923337568003],[-73.96768447467295,40.80922857870552],[-73.96767491890493,40.80922335584036],[-73.96766555770212,40.80921772600385],[-73.96765642660935,40.809211709917555],[-73.96764755880014,40.80920533010328],[-73.96763898626331,40.80919860818198],[-73.96763073980081,40.809191569376324],[-73.96762284902928,40.809184238908614],[-73.96761932327202,40.80917675117886],[-73.96761657269651,40.80916908266663],[-73.96761461505764,40.809161279302366],[-73.96761346336899,40.80915338791569],[-73.96761312353203,40.80914545803565],[-73.96761359670886,40.80913753648848],[-73.96761488168988,40.8091296728012],[-73.96761697015641,40.80912191289685],[-73.96761984904731,40.80911430629907],[-73.96762350056356,40.80910689712727],[-73.96772938199443,40.80895627531181],[-73.96783564291394,40.80880661703426],[-73.96795568531184,40.8086375468498],[-73.96814864015106,40.8083657831984],[-73.96836083160409,40.80807441704876],[-73.96856383570822,40.80777200968479],[-73.96876308719014,40.80747938214328],[-73.96894623262523,40.80718096240494],[-73.96913796501667,40.8067955187102],[-73.9692418707642,40.8066117881038]]}},{"type":"Feature","properties":{},"geometry":{"type":"LineString","coordinates":[[-73.94724638834874,40.83186756008264],[-73.94722022510483,40.831821558049754],[-73.94718239270716,40.83178266907714],[-73.94713222217992,40.831752798293465]]}},{"type":"Feature","properties":{},"geometry":{"type":"LineString","coordinates":[[-73.96194417533583,40.809634637057876],[-73.9620876355338,40.80969183442004]]}},{"type":"Feature","properties":{},"geometry":{"type":"LineString","coordinates":[[-73.97187367918048,40.80079972505598],[-73.97187280293608,40.80080096302846],[-73.97177889285877,40.80093355117334],[-73.97161490225399,40.80115702648255],[-73.97144328981548,40.80139126152668],[-73.9711390529265,40.80180629417717],[-73.97098200091199,40.802024802240496],[-73.97075621707965,40.80233228627028],[-73.97054880627013,40.80261866414442],[-73.97033166001205,40.8029123349689]]}},{"type":"Feature","properties":{},"geometry":{"type":"LineString","coordinates":[[-73.94988958269045,40.83226848641079],[-73.94988843461023,40.83227223106878],[-73.94988572600708,40.83228111417113],[-73.9498855394502,40.83228167509819],[-73.94988535761046,40.83228226934558],[-73.94988516032103,40.832282913113445],[-73.94988495946544,40.83228356948672],[-73.94988472652074,40.832284330303374],[-73.94988446980565,40.832285169452774],[-73.94988418219118,40.83228610764309],[-73.949883852978,40.83228718359103],[-73.94988349524257,40.83228835047653],[-73.9498830448056,40.83228981898741],[-73.94988254682843,40.832291443263145],[-73.94988195258479,40.832293379968704],[-73.94988119908137,40.83229583889189],[-73.9498802898851,40.832298806526836],[-73.94987947339108,40.8323014716359],[-73.94987860816856,40.83230429611128],[-73.94987747078304,40.832308006555046],[-73.94987591148221,40.83231309457205],[-73.94987310307619,40.832322258584966],[-73.94986962317435,40.83233360960719],[-73.94987164677876,40.83233382750595],[-73.9498765605687,40.832334357331504],[-73.949881242006,40.83233486184195],[-73.94988674971844,40.83233545586025],[-73.9498736319723,40.8323834555237],[-73.94986815799679,40.83238213842232],[-73.94986267335273,40.83238081951507],[-73.949857159075,40.83237949339069],[-73.94985166257837,40.83237817087582],[-73.94985065384024,40.83237792820413],[-73.94985059919674,40.83237807045849],[-73.94984931984872,40.8323813711152]]}},{"type":"Feature","properties":{},"geometry":{"type":"LineString","coordinates":[[-73.98682565871144,40.78181179201811],[-73.98670425078069,40.78198050868349],[-73.98657544692288,40.78215788087805],[-73.98645068233216,40.78232847352186],[-73.98623310600209,40.782628401228685],[-73.98609772257585,40.782815543428505],[-73.98590024926607,40.783089487134994],[-73.98575328374167,40.78328683918686],[-73.98565862999143,40.78341346857707]]}},{"type":"Feature","properties":{},"geometry":{"type":"LineString","coordinates":[[-73.95356459057629,40.82606878200386],[-73.95362219027065,40.82610019735599],[-73.95362435054133,40.82610137607284],[-73.95362669923485,40.82610264851696],[-73.95362850281306,40.82610363978725],[-73.95363029454678,40.82610461664481],[-73.95363209813019,40.826105600711045],[-73.95363395977914,40.82610661631799],[-73.95363525262427,40.826107321025276],[-73.95363627528698,40.82610787884311],[-73.95363726358464,40.82610841773676],[-73.95363777195334,40.82610869529376],[-73.95363822344132,40.82610894221102],[-73.95363867137486,40.82610918642537],[-73.95367497871756,40.826069624240475],[-73.95370828808643,40.82603333684302],[-73.95383248164717,40.82589802324884],[-73.95392292783947,40.82579947767838],[-73.95399790144243,40.825717790344385],[-73.9541321445044,40.82557152860253],[-73.95418833074348,40.825510306433934],[-73.95423605975212,40.8254579111409],[-73.95430977430074,40.825376990322376],[-73.95438545799087,40.82529390724423],[-73.95445879017689,40.82521340490759],[-73.9544835466007,40.825186227819216],[-73.9546344712387,40.82502456818561],[-73.95464460230082,40.82501370589003],[-73.95481051861438,40.82483598797525],[-73.9548228596873,40.82482276903216],[-73.95492941751316,40.824708822386334],[-73.95496116864882,40.82467486719453],[-73.95501707737675,40.82461508079589],[-73.95511180608054,40.82451377412346],[-73.9551319634539,40.82449222500175],[-73.95527078707339,40.82434377098159],[-73.95529140029196,40.8243211143985],[-73.95538051766094,40.824223162373116],[-73.95550829970833,40.8240827127972],[-73.9555424827825,40.82404514108887]]}},{"type":"Feature","properties":{},"geometry":{"type":"LineString","coordinates":[[-73.97505612625676,40.796189219845765],[-73.97511977243542,40.7962203296586],[-73.97522146955471,40.79626286685929],[-73.97530528895169,40.79629807277488]]}},{"type":"Feature","properties":{},"geometry":{"type":"LineString","coordinates":[[-73.96765102893349,40.809261434797385],[-73.96765781472709,40.80926475503594],[-73.96766413095726,40.80926857131678],[-73.96766991838493,40.809272844901855],[-73.96767511658662,40.80927753525197],[-73.96767967580881,40.80928259462685],[-73.96768355103943,40.80928797348659],[-73.96768670319389,40.80929361869087],[-73.96768910148543,40.80929947349982],[-73.96769072105346,40.809305480274574],[-73.9676915477043,40.80931158047891],[-73.96769157080149,40.80931771197546],[-73.96769079274391,40.809323815332064],[-73.9675997778563,40.809449002217754],[-73.96756687799132,40.809433899722286],[-73.96738060862687,40.80967525983768],[-73.96741350856843,40.8096903632862],[-73.96733862950668,40.80978982729572],[-73.96733339552469,40.809795221595685],[-73.96732751582027,40.80980021769242],[-73.96732104019353,40.80980476877405],[-73.96731402910748,40.80980883523565],[-73.967306543024,40.80981238017386],[-73.96729865069794,40.80981537299126],[-73.96729042088299,40.809817785791715],[-73.9672819282552,40.80981959788499],[-73.96727324985918,40.80982079218337],[-73.96726446036566,40.80982135880264],[-73.96725564036903,40.80982129236257],[-73.96723775778419,40.80981800406714]]}},{"type":"Feature","properties":{},"geometry":{"type":"LineString","coordinates":[[-73.97164259392775,40.80285605774891],[-73.97138699592215,40.80321250475773],[-73.97112668561195,40.80358568216644],[-73.97087795078222,40.803941884789594],[-73.9706130855846,40.80432778659236],[-73.97051416230637,40.8044736691181],[-73.97051296222773,40.80447543829085],[-73.97058885605807,40.80450647895382],[-73.97059361090325,40.80450842344272],[-73.97059450972958,40.80450720169542],[-73.97060550789556,40.80449225802506],[-73.97068775427913,40.80452487791591],[-73.97067660981969,40.80454105253838],[-73.97059220797406,40.804663547468856]]}},{"type":"Feature","properties":{},"geometry":{"type":"LineString","coordinates":[[-73.96431458785304,40.81153545431885],[-73.96431707135248,40.81153893190862],[-73.96432019858354,40.81154209632443],[-73.96432390202715,40.81154487820701],[-73.9643281011216,40.81154721809852],[-73.96433270700427,40.811549064643],[-73.9643376189535,40.81155037998842],[-73.96434273150268,40.81155113348524],[-73.96434793325119,40.811551309790424],[-73.96435311397673,40.811550906168435],[-73.96435816108136,40.81154992978847],[-73.96436296432978,40.81154840222839],[-73.964367422962,40.811546356775516],[-73.96437143739813,40.81154383662294],[-73.96437492345908,40.81154089757564],[-73.96437780525872,40.81153760174443],[-73.96438002112825,40.81153402115023],[-73.96438152243364,40.81153023232024],[-73.96438227713062,40.811526317189966],[-73.96438226858133,40.811522360400964],[-73.9643814967406,40.81151844660009],[-73.96437997934028,40.81151466224046],[-73.96437774952368,40.811511086576154],[-73.96437485347163,40.81150779796466],[-73.96437135514736,40.81150486666448],[-73.96436732918383,40.81150235753455],[-73.96436286207242,40.811500322830305],[-73.96435805216106,40.8114988067065],[-73.96435300135894,40.81149784251306],[-73.96442394978651,40.81140242609162],[-73.96456109820875,40.81120479469803],[-73.96474314268997,40.81095442482051],[-73.96492143427729,40.810713834709944],[-73.96523736607698,40.8102839013187],[-73.96554459656122,40.80986171952005],[-73.96572669967172,40.80960975867612],[-73.96587005344442,40.80941386367479],[-73.96607089261819,40.80913401219042],[-73.96609353087457,40.80910497058877]]}},{"type":"Feature","properties":{},"geometry":{"type":"LineString","coordinates":[[-73.9806303381873,40.78984771740055],[-73.98060081696002,40.78988979192891],[-73.98055506171043,40.78995500297539],[-73.98051093380316,40.790017895489186],[-73.98046898086278,40.79007768703002],[-73.98044037212374,40.79011846134759],[-73.98024283927263,40.79038969714785],[-73.98017241264358,40.79048764600516],[-73.98010023746123,40.79058802586751],[-73.98006552535374,40.79063630290568],[-73.9800654091945,40.79063645687116],[-73.98000946841626,40.79071251516158],[-73.97991511970349,40.79084077685515],[-73.9799077861435,40.79085074681883]]}},{"type":"Feature","properties":{},"geometry":{"type":"LineString","coordinates":[[-73.96697254413027,40.80834689120228],[-73.96697053910286,40.80834880688765],[-73.96691629660393,40.808400635707116],[-73.96688995481584,40.80842840850867],[-73.96686550311807,40.808454189945685]]}},{"type":"Feature","properties":{},"geometry":{"type":"LineString","coordinates":[[-73.96147777643581,40.81352413372565],[-73.96160347991224,40.813577889419705]]}},{"type":"Feature","properties":{},"geometry":{"type":"LineString","coordinates":[[-73.97386063858374,40.799698657134485],[-73.97388077685838,40.79966699834476],[-73.9738647802176,40.79966219055545],[-73.97388383116345,40.799635290657015],[-73.97390921264162,40.79960750969908],[-73.97394282878449,40.79957615921713],[-73.97397644878238,40.79955608477791],[-73.97401952868638,40.79953554240076],[-73.97407445433531,40.79952244709973],[-73.97412992752335,40.79951824882822],[-73.97416988343794,40.79951984626926],[-73.97422216058384,40.79952821730649],[-73.9742829495423,40.79954874245696],[-73.97433243913129,40.79957071756507],[-73.97438343236608,40.79961152062458],[-73.97441305168913,40.7996470509982],[-73.97443341492355,40.79968920428437],[-73.97444241292219,40.79973451399873],[-73.97443792900573,40.7997682394025],[-73.97442392088577,40.79981541525108],[-73.97439147933476,40.79990795685612]]}},{"type":"Feature","properties":{},"geometry":{"type":"LineString","coordinates":[[-73.96274677416692,40.80790306237529],[-73.96278015812827,40.80786087041361]]}},{"type":"Feature","properties":{},"geometry":{"type":"LineString","coordinates":[[-73.95026629733376,40.83008601236214],[-73.95026235734178,40.83024682734117],[-73.9502540485743,40.83033001957672],[-73.95022499673978,40.83045245723037],[-73.95019651519122,40.83054460337545],[-73.95015024177765,40.83064834109647],[-73.95009097636783,40.83074824517204]]}},{"type":"Feature","properties":{},"geometry":{"type":"LineString","coordinates":[[-73.96234902754989,40.80792588775925],[-73.9626386746524,40.808046253417096],[-73.96274677416692,40.80790306237529]]}},{"type":"Feature","properties":{},"geometry":{"type":"LineString","coordinates":[[-73.95100656678126,40.829228624899365],[-73.95087408357062,40.82947206328659],[-73.95075638727816,40.829707944570124],[-73.9506386345181,40.82995329710574],[-73.95061841473238,40.829994049351214],[-73.95056018547037,40.83014834311225],[-73.95043403094425,40.83047585476894],[-73.95041208449486,40.83053283134831],[-73.95035348277584,40.83072901494856],[-73.95033210976669,40.83080056626519],[-73.95025209517146,40.83106843527138],[-73.95024300341109,40.831099866719896],[-73.95022115295438,40.83117541420123],[-73.95021711044292,40.831189389935325],[-73.95021474745771,40.831197558203364],[-73.95021440037904,40.831198758412974],[-73.9501678941234,40.83135954416952],[-73.95016580569964,40.831366763433536],[-73.9501569587138,40.83139735121596],[-73.95013813478926,40.83145074331425],[-73.95011075427736,40.83152838923333],[-73.95009164512433,40.83158260875407],[-73.95008411266302,40.831603976033385],[-73.95008274517586,40.83160785567299],[-73.95008168540453,40.83161086016494],[-73.95008001266862,40.83161706655059],[-73.95007695846625,40.831628401555754],[-73.95007019856095,40.83165348550984],[-73.95006137595725,40.831686229078244],[-73.95005657767531,40.831704036083],[-73.95005063332039,40.83172609382631],[-73.95004740042322,40.831736983008255],[-73.9500335453112,40.831783645140696],[-73.95002161799746,40.831823867769025],[-73.95000736353026,40.83187182103389],[-73.94998721725038,40.83193967177211],[-73.94992423460569,40.832151787460546],[-73.94991806112533,40.83217257179656],[-73.94990462420748,40.83221783202175],[-73.94988958269045,40.83226848641079]]}},{"type":"Feature","properties":{},"geometry":{"type":"LineString","coordinates":[[-73.97436264713389,40.79790840422694],[-73.97436008532047,40.79791746808505],[-73.97431656642794,40.798071427600384],[-73.97428909040234,40.798152123337374],[-73.97422201664426,40.79829034402866],[-73.97409561143193,40.798507507149054],[-73.97392340387661,40.79874583231272],[-73.9737139707973,40.79901576706066],[-73.97357134820497,40.79917686169547],[-73.9733820294553,40.79939141072117]]}},{"type":"Feature","properties":{},"geometry":{"type":"LineString","coordinates":[[-73.97174353855587,40.80282509187009],[-73.97166979352353,40.80293298864591],[-73.97158460434268,40.803054522407265]]}},{"type":"Feature","properties":{},"geometry":{"type":"LineString","coordinates":[[-73.97702777630636,40.79519022255003],[-73.97709183391686,40.79511370901781],[-73.9771565346765,40.7950375089505],[-73.97722187739811,40.79496162504834],[-73.97728785733959,40.794886060911296],[-73.97735447212874,40.7948108201398],[-73.97742172057886,40.79473590453359],[-73.97748959794761,40.79466131859305],[-73.97776847866167,40.7943654756328],[-73.9777814865711,40.79435439658803],[-73.97779878823908,40.79436551029083],[-73.97787778465573,40.79427777445614],[-73.97787391244209,40.79427416450881],[-73.9779345870504,40.794213923684445],[-73.97795383987811,40.794201034909804],[-73.97796828290686,40.79419269183723],[-73.9780130338713,40.79417474351159]]}},{"type":"Feature","properties":{},"geometry":{"type":"LineString","coordinates":[[-73.95179538426946,40.829584386290925],[-73.95179544109752,40.829584492573055],[-73.95180644919591,40.82960503476226],[-73.9517794440338,40.829655970776294]]}},{"type":"Feature","properties":{},"geometry":{"type":"LineString","coordinates":[[-73.97021537611484,40.80503646332533],[-73.97039420322929,40.80477998978149],[-73.97040982499243,40.804782552108676],[-73.97041208991303,40.80477936042272],[-73.97058013577384,40.804542478661375],[-73.97058255155684,40.8045357588571]]}},{"type":"Feature","properties":{},"geometry":{"type":"LineString","coordinates":[[-73.96403434600174,40.81455587579292],[-73.96399348944337,40.81462758493562],[-73.96389910315501,40.81481932348396],[-73.96385906089573,40.81490351462106]]}},{"type":"Feature","properties":{},"geometry":{"type":"LineString","coordinates":[[-73.95363354778931,40.82611603443445],[-73.95353218371028,40.82622153440303],[-73.95338877346632,40.82637079397847],[-73.9532736629448,40.82649513192555],[-73.95275441931345,40.82705599291353],[-73.95259334219084,40.827229788141146],[-73.95258534472427,40.82723841880213],[-73.95253018576025,40.827297941361515],[-73.95250247751916,40.82732783900308],[-73.95247369610324,40.82735980103127],[-73.95246985209343,40.827364069595646],[-73.95232324071083,40.82752688075476],[-73.95212867263417,40.8277367091943],[-73.9519462358281,40.82793645140515],[-73.95177887045503,40.82813763861555],[-73.95165340914016,40.82829797237868],[-73.95146046881389,40.82853586337779],[-73.95133773659452,40.8287151092335],[-73.95119476283836,40.82894861742498],[-73.95104746940325,40.829180306398065]]}},{"type":"Feature","properties":{},"geometry":{"type":"LineString","coordinates":[[-73.97602429639416,40.79658105892465],[-73.9760287416513,40.79658276179362],[-73.9760575671132,40.796593799806345],[-73.97619212676675,40.79640227698431],[-73.97616282141851,40.79639137938359],[-73.97615780390794,40.79638951341094]]}},{"type":"Feature","properties":{},"geometry":{"type":"LineString","coordinates":[[-73.96178275166749,40.80729493488962],[-73.96182712615821,40.80731373668533],[-73.96171440343207,40.80746756653042],[-73.96165064915341,40.80755457038395],[-73.96160792125133,40.80761288052799],[-73.96160957883744,40.80761359247353],[-73.96188872801142,40.807733440540744]]}},{"type":"Feature","properties":{},"geometry":{"type":"LineString","coordinates":[[-73.96143229899313,40.81770254881279],[-73.96143433474403,40.817687240149645],[-73.96142776762849,40.817677880891914],[-73.96134455117709,40.81764224468303],[-73.96130733808818,40.81762649872308]]}},{"type":"Feature","properties":{},"geometry":{"type":"LineString","coordinates":[[-73.9613955662091,40.81678312483823],[-73.96141633506564,40.81679104625657],[-73.96143470750732,40.81676786641113],[-73.9615040118141,40.81676952217156],[-73.96157815918178,40.816756893122246],[-73.96165231592819,40.81672793892148],[-73.9617110487024,40.81668817359007]]}},{"type":"Feature","properties":{},"geometry":{"type":"LineString","coordinates":[[-73.96615227999902,40.809042572539994],[-73.96627514619719,40.80890699715975],[-73.96639117738701,40.80881550983468],[-73.96668355543945,40.80857156605028],[-73.96680529339943,40.80846530638255],[-73.96682346483917,40.808449444838296],[-73.96685300572071,40.80842096337944],[-73.9668740628023,40.80840066140051]]}},{"type":"Feature","properties":{},"geometry":{"type":"LineString","coordinates":[[-73.97224157514125,40.80211122533874],[-73.97207735912816,40.802346212287155],[-73.97207657534909,40.802347333218414],[-73.97208264539005,40.80234947697541],[-73.97199317192168,40.80247264982048],[-73.97188901760425,40.80262444137017],[-73.97183109499566,40.80270885620004],[-73.97182705387809,40.8027147453753],[-73.97174936925919,40.80282442332806],[-73.97168387121337,40.802795260813035]]}},{"type":"Feature","properties":{},"geometry":{"type":"LineString","coordinates":[[-73.95747551064225,40.82160665626682],[-73.95728789164197,40.821860823087015],[-73.95699217411821,40.82227693595415],[-73.95695123729344,40.822338220143976],[-73.95692306673338,40.822365246115915],[-73.95658296970679,40.82272249480315]]}},{"type":"Feature","properties":{},"geometry":{"type":"LineString","coordinates":[[-73.9669078412506,40.80836357598581],[-73.9669086808011,40.80836263250487],[-73.96694178611256,40.80832542081704],[-73.9670237855738,40.80823324861067],[-73.96715312413927,40.808066372816384],[-73.9673199804266,40.80782837446793],[-73.96750190891296,40.80754966499616],[-73.96767133218866,40.807279573989156],[-73.96786725681432,40.80695567183532],[-73.9680472941697,40.80666163625843],[-73.96819832297562,40.806390473149854],[-73.96850426798072,40.80580220574016],[-73.96869769011491,40.805436857777075],[-73.96894397711019,40.804958982121086],[-73.96901627852334,40.804830169054]]}},{"type":"Feature","properties":{},"geometry":{"type":"LineString","coordinates":[[-73.98480772946574,40.782815821835094],[-73.9847977713536,40.78282453917834],[-73.98478834152564,40.78283362579606],[-73.98477946249623,40.782843059178845],[-73.98477115441007,40.782852817717504],[-73.98476343859686,40.78286287890234],[-73.9847563340178,40.78287321662154],[-73.98474985489449,40.782883808364474],[-73.98474401900364,40.78289462711859],[-73.98473884056774,40.78290564767178],[-73.98473433025508,40.782916843911075],[-73.98473049873425,40.78292818972334],[-73.9847273566744,40.78293965629409],[-73.9847208435438,40.782964167984105],[-73.98471521060424,40.782988810363136],[-73.98471046260077,40.783013560018894],[-73.98470660664768,40.78303839443992],[-73.98470364393609,40.78306329021332],[-73.98470548132472,40.78307391007211],[-73.98470662091762,40.783084582067296],[-73.98470706035167,40.783095277382614],[-73.98470679844814,40.78310596900279],[-73.98470583521366,40.78311662631084],[-73.98470417302327,40.78312722319249],[-73.98470181780694,40.783137729931944],[-73.98469877430962,40.783148118614264],[-73.98469280197315,40.7831596955695],[-73.98468638656148,40.78317126075904],[-73.98467954348203,40.78318278536879],[-73.98467228932675,40.783194241485276],[-73.98466464305764,40.783205598494014],[-73.98465662363584,40.78321682938226],[-73.984578458183,40.783331180842225],[-73.98457026497849,40.78334069624561],[-73.98456149844596,40.78334991800811],[-73.98455218110004,40.78335882181904],[-73.98454234019492,40.78336738156742],[-73.98453200179868,40.783375576545076],[-73.98452119434988,40.78338338154163],[-73.9845099474705,40.7833907776504],[-73.98449829078301,40.78339774326325],[-73.98448625746352,40.78340425947389],[-73.9844741593967,40.78340900258713],[-73.98446247584087,40.78341431126991],[-73.98445125181902,40.78342016571744],[-73.98444053235505,40.783426542522825],[-73.98443035773468,40.7834334155772],[-73.98442076942831,40.78344075967215],[-73.98441180416837,40.78344854599689],[-73.98440349750321,40.7834567430387],[-73.98439588142752,40.783465318384046],[-73.98430417421848,40.78356405042199],[-73.98429760289523,40.78357317520891],[-73.98429159900759,40.78358244775502],[-73.98428618033381,40.78359183654531],[-73.98428136583607,40.783601312766365],[-73.98427716973829,40.783610845803196],[-73.98427360626422,40.783620405941235],[-73.98427068489877,40.78362996346527],[-73.98426841631192,40.7836394868593],[-73.98426680761929,40.783648946407695],[-73.9842668551682,40.78365327962733],[-73.9842670176176,40.783657679499726],[-73.98426729261601,40.783662070382455],[-73.98426767544288,40.783666374831775],[-73.98426816019263,40.783670517204776],[-73.98426873858915,40.78367442636063],[-73.98426939880197,40.78367803205863],[-73.98427013018366,40.78368127126229]]}},{"type":"Feature","properties":{},"geometry":{"type":"LineString","coordinates":[[-73.96737965757048,40.809806968181086],[-73.9674521955653,40.809703310766444],[-73.96755019384865,40.809571284885905],[-73.96770448133395,40.80938245958923],[-73.96774656478254,40.809324687322054]]}},{"type":"Feature","properties":{},"geometry":{"type":"LineString","coordinates":[[-73.95739108367252,40.821574440468595],[-73.95739633137296,40.82157624610136],[-73.95742075664839,40.821584651349056],[-73.95742224397114,40.82158516338004],[-73.95742512380772,40.82158615408864],[-73.9574378555301,40.82159053519994],[-73.95744583374481,40.82159328105568],[-73.95745313525809,40.82159579343273],[-73.95745999946332,40.8215981552651],[-73.95747894950638,40.821604677344006],[-73.95747969731643,40.821604934261124],[-73.9574806003766,40.82160524526533],[-73.95748134226096,40.82160550037929],[-73.95748138966576,40.821605516605686],[-73.95748153441946,40.82160530144052],[-73.95748444016702,40.821600990936474],[-73.95749211684375,40.82158960339124],[-73.9574946773169,40.82158580604245],[-73.95749852989138,40.82158009201365],[-73.9575102489757,40.821562709553355],[-73.95752063410626,40.821568232520406],[-73.95752163185617,40.82156876328016],[-73.95752257983743,40.82156926700673],[-73.95752354440823,40.821569779744316],[-73.95752445683964,40.82157026544787],[-73.95752538467642,40.821570758361034],[-73.95752628999847,40.82157123955942],[-73.95752646655949,40.821571334176525],[-73.95752672403027,40.821570952461],[-73.95752911364822,40.82156740268498],[-73.957533701857,40.82156058581815],[-73.9575449878723,40.821543820034655],[-73.95755825059364,40.82152411845967],[-73.95757335950259,40.821501674651174],[-73.95757358849795,40.82150133344742],[-73.95757354465105,40.82150131452084],[-73.95757318557884,40.8215011622049],[-73.95755494994731,40.82149339501817],[-73.95755871424602,40.821488539127564],[-73.95756279292628,40.8214832799303],[-73.95756346202887,40.821482417501215],[-73.95756652400517,40.821478468151504],[-73.95757204528879,40.821471348159236],[-73.95759639990231,40.82143993970801],[-73.95761379892197,40.821417501238564],[-73.95761673751171,40.82141371122993],[-73.95762985735516,40.82139679122641],[-73.95764390017125,40.82137868110446],[-73.95764832406635,40.82137297538479],[-73.95765616227202,40.82136286569157]]}},{"type":"Feature","properties":{},"geometry":{"type":"LineString","coordinates":[[-73.9619443125849,40.80963503962573],[-73.96194417533583,40.809634637057876],[-73.96194320394497,40.80963178576102],[-73.96194190244701,40.809627965419445],[-73.9619250764629,40.8095785675559],[-73.96191050918758,40.809535799901084],[-73.96190985844096,40.80953388882961],[-73.96190944669658,40.80953267842441],[-73.96190906334816,40.80953155177492],[-73.96190879121816,40.80953075204287],[-73.96190847412763,40.8095298199228],[-73.96190821737689,40.80952906882274],[-73.96190794524686,40.809528269090734],[-73.96190769796249,40.80952754410821],[-73.9619030114026,40.8095137865541]]}},{"type":"Feature","properties":{},"geometry":{"type":"LineString","coordinates":[[-73.98007621724672,40.791986346689725],[-73.98008645833595,40.7920047609897],[-73.98008637039085,40.79202545627286],[-73.98007431227578,40.792056700649404],[-73.97999981976666,40.79215798502673],[-73.97996279427757,40.79214211808413],[-73.97995971134016,40.79214587533588],[-73.9799580803819,40.79214786335697],[-73.97995625622171,40.792150085474475],[-73.9799540338039,40.792152793792866],[-73.97995399943393,40.7921528244039],[-73.97989246505415,40.792227822658454],[-73.97983321223452,40.792300019822115],[-73.97978682805538,40.792356539701345],[-73.97978082097084,40.792363858814426],[-73.97976573094994,40.7923822470833],[-73.97978891675234,40.79239235116238],[-73.97979637919154,40.79239560327666],[-73.9797976314218,40.79239614919931],[-73.97979842754181,40.79239649603145],[-73.9797989867214,40.79239673926453],[-73.97979953168438,40.79239697709215],[-73.97979997594776,40.79239717077754],[-73.9798003278044,40.79239732392427],[-73.97980179683518,40.79239796443739],[-73.9797991370505,40.79240113193119],[-73.97979825045542,40.7924021880626],[-73.97979710072659,40.79240355752197],[-73.9797957755748,40.79240513676716],[-73.97978197882452,40.79242156847771],[-73.9797329955641,40.79247990868975],[-73.97970365497272,40.79250676004637],[-73.97967726299892,40.79252353531758],[-73.97965529490948,40.79252990698375],[-73.97963465836631,40.792529296402115]]}},{"type":"Feature","properties":{},"geometry":{"type":"LineString","coordinates":[[-73.97510191136118,40.79788857338968],[-73.9748963577013,40.79818186020931],[-73.97471824281686,40.79843691116159],[-73.97453799375934,40.798719478817496],[-73.97449625255042,40.798779776033285],[-73.97448323128681,40.79880037117426],[-73.974463160574,40.798830323642186],[-73.97445513379917,40.79885132511092],[-73.9744532324811,40.79886529143472],[-73.974445209665,40.79889756895658]]}},{"type":"Feature","properties":{},"geometry":{"type":"LineString","coordinates":[[-73.9806303381873,40.78984771740055],[-73.98070460661141,40.789742916987784],[-73.98090134502337,40.7894729796603],[-73.980912500915,40.78945732270214],[-73.98098089405055,40.78936133073021],[-73.98100199439912,40.78933171494147],[-73.98101330101827,40.78931083509402],[-73.98102536037736,40.789288563195264],[-73.98103500027172,40.7892707609825],[-73.98107778985877,40.78919426507746],[-73.98109347986325,40.78916621525404],[-73.98110430733374,40.78914685806524],[-73.98114360586878,40.78906366453793],[-73.9811528683658,40.789031123757454],[-73.98116360621032,40.78899339723345],[-73.98117475601813,40.78893171115204],[-73.9811999711681,40.788792208789616],[-73.98122488361984,40.78865437499736],[-73.98123553848413,40.788595428149684],[-73.98123840897024,40.7885795446834],[-73.98124474411819,40.788512001850684],[-73.9812521416475,40.78843311918288],[-73.98125879762419,40.788362151795404],[-73.98126218680895,40.78832600984507]]}},{"type":"Feature","properties":{},"geometry":{"type":"LineString","coordinates":[[-73.98003669704131,40.79215846418261],[-73.98001852280504,40.792149734284905]]}},{"type":"Feature","properties":{},"geometry":{"type":"LineString","coordinates":[[-73.97021537611484,40.80503646332533],[-73.970074451486,40.80523496693292],[-73.96991532158171,40.80549957480453],[-73.96946265854982,40.806231583478436],[-73.96930091074398,40.80650886247977],[-73.96926349064103,40.80657355781288],[-73.96926016487299,40.80657943808037]]}},{"type":"Feature","properties":{},"geometry":{"type":"LineString","coordinates":[[-73.97053652808464,40.795098198982686],[-73.97036206846468,40.79527346447677],[-73.97022294802356,40.79540621633279]]}},{"type":"Feature","properties":{},"geometry":{"type":"LineString","coordinates":[[-73.9733921977594,40.80034610703883],[-73.97355628413325,40.80011505509756],[-73.97354898902654,40.80011274994689],[-73.97375040703326,40.79982268125852],[-73.97380291029015,40.799744766700215],[-73.97382412874187,40.79975073102444],[-73.97386063858374,40.799698657134485]]}},{"type":"Feature","properties":{},"geometry":{"type":"LineString","coordinates":[[-73.97638482181681,40.79539209274502],[-73.97650673552225,40.795239726966756],[-73.9766001900863,40.795109507579326],[-73.97671321811649,40.79494092086787],[-73.9768050187911,40.79478726276198],[-73.97688698309437,40.79462024909338],[-73.97696929162835,40.79439890466471],[-73.9770248991489,40.794226031468035],[-73.97706537835005,40.794068540273855],[-73.97710083848031,40.79383095578763],[-73.97711505888368,40.79373268523737]]}},{"type":"Feature","properties":{},"geometry":{"type":"LineString","coordinates":[[-73.9733820294553,40.79939141072117],[-73.9733244118819,40.79946268182608],[-73.97319505548109,40.79960665245815],[-73.97296750361839,40.79984576021254],[-73.97275818116172,40.80004462310635],[-73.97260131768581,40.80016780393483],[-73.97245688742946,40.800277631315325]]}},{"type":"Feature","properties":{},"geometry":{"type":"LineString","coordinates":[[-73.96112006647607,40.816668922210816],[-73.96109811795898,40.816661632489726],[-73.96111512247356,40.81663469806182],[-73.96109257241874,40.81661020054263],[-73.96107217799513,40.816574275541214],[-73.96105852629958,40.81652080753271],[-73.96105691343156,40.81648786951441]]}},{"type":"Feature","properties":{},"geometry":{"type":"LineString","coordinates":[[-73.96901627852334,40.804830169054],[-73.96913248173085,40.80464072993116],[-73.9693933809448,40.80424173364234],[-73.96963439908417,40.80387845608625],[-73.96991877361066,40.80348861200856],[-73.97012194333192,40.803211204075254],[-73.9703380167408,40.80291467790159]]}},{"type":"Feature","properties":{},"geometry":{"type":"LineString","coordinates":[[-73.97536341118298,40.79599947589376],[-73.97544539392204,40.79603726935277],[-73.97549640487101,40.79605985753824],[-73.97553006498552,40.79607282468152],[-73.9755471579292,40.79607816286954],[-73.97558141196802,40.796087196740814]]}},{"type":"Feature","properties":{},"geometry":{"type":"LineString","coordinates":[[-73.95192687812175,40.82945889597292],[-73.95187360044979,40.82950704122743],[-73.95184900472098,40.82951488147568]]}},{"type":"Feature","properties":{},"geometry":{"type":"LineString","coordinates":[[-73.94980618239424,40.833505150389236],[-73.94982562072279,40.833440402627055],[-73.9498510003437,40.83335586984963],[-73.94986314968017,40.83331258026177],[-73.94987944426984,40.83325451986304],[-73.94991806326007,40.833125782146816],[-73.94993869335684,40.833066249511184],[-73.94994478862728,40.833048667301405],[-73.94994512369193,40.83304769671381],[-73.94994692732205,40.833042492638725],[-73.9499473999311,40.833041499598515],[-73.94995727247505,40.8330207492868],[-73.94997002697559,40.83299394169778],[-73.94997870492374,40.832975700543905],[-73.95002691092003,40.83288067155048],[-73.95004026314378,40.832858273033],[-73.95005059069267,40.832840949291274],[-73.9500610666201,40.83282337707633]]}},{"type":"Feature","properties":{},"geometry":{"type":"LineString","coordinates":[[-73.96147293617481,40.81352576741141],[-73.96157210353252,40.81338838821991]]}},{"type":"Feature","properties":{},"geometry":{"type":"LineString","coordinates":[[-73.9551794993216,40.81986873839158],[-73.95520806884673,40.81982960581552],[-73.9552754206586,40.819737349988536],[-73.95538136816425,40.81959222650919],[-73.95547907103106,40.8194579309174]]}},{"type":"Feature","properties":{},"geometry":{"type":"LineString","coordinates":[[-73.95564165741088,40.81942905972779],[-73.95551074877771,40.81960759754766],[-73.95526353384695,40.819945654506505]]}},{"type":"Feature","properties":{},"geometry":{"type":"LineString","coordinates":[[-73.96099456722658,40.811905414509006],[-73.96074500848624,40.8122458646489],[-73.96047672928232,40.81261184682239]]}},{"type":"Feature","properties":{},"geometry":{"type":"LineString","coordinates":[[-73.96049384908164,40.812780727473566],[-73.96081446865288,40.81234114380138],[-73.96106155712121,40.81200120686625]]}},{"type":"Feature","properties":{},"geometry":{"type":"LineString","coordinates":[[-73.97460052695925,40.79567937894299],[-73.97501423948259,40.79585988179975]]}},{"type":"Feature","properties":{},"geometry":{"type":"LineString","coordinates":[[-73.96786880113916,40.8054259849371],[-73.96783399110092,40.80549539825644],[-73.96781367833769,40.80553764667492],[-73.96780463191755,40.805558499692424],[-73.96779797830737,40.8055766725938],[-73.96779557220385,40.80558477190499],[-73.96779393819051,40.80559164225146],[-73.96779290407231,40.80559802109338],[-73.96779258758407,40.80560306019415],[-73.96779277308946,40.805606655035675],[-73.96779346285986,40.80561145938744],[-73.96779602697355,40.805622146318505],[-73.96780020997308,40.80563518850499],[-73.9678074450075,40.80565472593824],[-73.96781327236029,40.80566893292782],[-73.96782767582819,40.80570117929395]]}},{"type":"Feature","properties":{},"geometry":{"type":"LineString","coordinates":[[-73.98682080712047,40.78087394315907],[-73.9867678633446,40.78085215035003],[-73.98663633265234,40.780798010507496],[-73.98658190830473,40.780775608701774]]}},{"type":"Feature","properties":{},"geometry":{"type":"LineString","coordinates":[[-73.98695019002456,40.781842399833],[-73.98700662983404,40.781777121636146],[-73.98708672496271,40.78169370905847]]}},{"type":"Feature","properties":{},"geometry":{"type":"LineString","coordinates":[[-73.98710775759983,40.781669066481584],[-73.98714586249186,40.78163201869319],[-73.98705392433159,40.7815816154227]]}},{"type":"Feature","properties":{},"geometry":{"type":"LineString","coordinates":[[-73.98248489469037,40.78796160015818],[-73.982501726082,40.78799160920524],[-73.98250863090843,40.78802797157831],[-73.98250254835695,40.78807712269403],[-73.98247732914801,40.78812190167095],[-73.98244599988769,40.788158026798826],[-73.98244587426247,40.78815817176036],[-73.98244565623168,40.78815828789175],[-73.98239055011685,40.78818761420096],[-73.98236647234229,40.78819432645491],[-73.98235427764264,40.7881977257802],[-73.98232776074225,40.78819864653157],[-73.98213234976231,40.78847151948287],[-73.98209682729444,40.788524840727696],[-73.98206125261778,40.78857824029662],[-73.98201014251444,40.78865496040063],[-73.98189208652616,40.788828184754344],[-73.98177832014073,40.78900118363515],[-73.981656236837,40.789187825462506],[-73.98152310686636,40.78940450878919],[-73.9814451122502,40.78954494644866],[-73.98139554218383,40.78963420058534],[-73.98137898643512,40.789665288597114],[-73.98126637350659,40.789876742115375],[-73.98122206010515,40.7899613549466]]}},{"type":"Feature","properties":{},"geometry":{"type":"LineString","coordinates":[[-73.96206171696103,40.81258219099274],[-73.96205443734581,40.812561409618866],[-73.96211132501004,40.81247889053349],[-73.96214186527214,40.8124775074963]]}},{"type":"Feature","properties":{},"geometry":{"type":"LineString","coordinates":[[-73.96248995831066,40.81257060393532],[-73.96230945993504,40.81249999469807],[-73.96227928882202,40.812487854229865],[-73.96225940423724,40.81247985310622],[-73.96223785836273,40.81247118416638],[-73.96216817527895,40.812443144144915],[-73.96214186527214,40.8124775074963]]}},{"type":"Feature","properties":{},"geometry":{"type":"LineString","coordinates":[[-73.96206171696103,40.81258219099274],[-73.96203638063471,40.8126152822368],[-73.96164907009627,40.813145825269075],[-73.96163535209692,40.81316461678633],[-73.96162111810808,40.81318411412004],[-73.96161891895606,40.81318712645208],[-73.96157979266394,40.8132417051712],[-73.96155170292305,40.81324543827427],[-73.96149482449401,40.81332400299302],[-73.96150331745571,40.81334110087027],[-73.9615476003352,40.8133611922354]]}},{"type":"Feature","properties":{},"geometry":{"type":"LineString","coordinates":[[-73.97615780390794,40.79638951341094],[-73.97619960878495,40.79633496077271],[-73.97626659525349,40.79625503092072],[-73.97628940630517,40.796228389828215],[-73.97630871422713,40.796206393689275],[-73.97633464570471,40.79617820977237],[-73.97636918492165,40.796142052788795],[-73.97638135141578,40.79612960227142],[-73.9764133465229,40.796096862149575],[-73.97647268975003,40.79603701805882],[-73.97652099347185,40.795989120420224],[-73.97657928914148,40.795932342261956],[-73.9766371209504,40.79587686700293],[-73.97666510379742,40.79585052404757],[-73.97668537973117,40.795831437555094],[-73.9767202109375,40.795799570504485],[-73.97676542031242,40.795758960782145],[-73.97681962576907,40.79571085979246],[-73.97686977256467,40.795666864241646],[-73.97687048254123,40.79566625654677],[-73.97691923619779,40.79562455426763],[-73.97703210384522,40.79552949843969]]}},{"type":"Feature","properties":{},"geometry":{"type":"LineString","coordinates":[[-73.97602429639416,40.79658105892465],[-73.97598925201967,40.796636817774285],[-73.97597420944265,40.79666262386105],[-73.97595593172476,40.79669569900475],[-73.9759347532267,40.79673543633684],[-73.97591436040994,40.79677491538558],[-73.97590318064495,40.796797512888816],[-73.9758890952919,40.796826966187545],[-73.97584267595617,40.79692652651505],[-73.97583840329288,40.79693569000431],[-73.97580824583682,40.79699967588423],[-73.97579635985207,40.79702531511582],[-73.97578903709429,40.79704111104286],[-73.97577321835614,40.79707628663725],[-73.97576174306685,40.79710316864076],[-73.97575335775414,40.79712449430997],[-73.97574320349455,40.79715183224216],[-73.97572850936534,40.797193103548246],[-73.9757059414812,40.797256491263965],[-73.97568190520104,40.79732043787511],[-73.97562720721618,40.797461923621064]]}},{"type":"Feature","properties":{},"geometry":{"type":"LineString","coordinates":[[-73.9879868963171,40.77703924272039],[-73.98766537947468,40.77769874296872],[-73.98744145780302,40.77815509062704],[-73.98723759297863,40.77858226287118],[-73.987171565136,40.778716893219986],[-73.98702610837098,40.778657081790975],[-73.98701684424397,40.77865327252394]]}},{"type":"Feature","properties":{},"geometry":{"type":"LineString","coordinates":[[-73.96501346286873,40.813229693318696],[-73.96495837370195,40.813303370587555],[-73.96495641071073,40.81330609309481],[-73.9649402299662,40.81332852946905],[-73.96492635571593,40.81334863425458],[-73.96490515922234,40.81338197682161],[-73.96487633884034,40.81342964127277],[-73.96486071500152,40.813456751385985],[-73.96484190640057,40.813490638568965],[-73.96481966744136,40.813531760197606],[-73.96479809355684,40.81357253263188],[-73.96478303145477,40.8136018824422],[-73.96476410923653,40.813639782192766],[-73.96469571802443,40.81377954185788],[-73.96460408864463,40.8139639130843],[-73.96456742614997,40.81403842697228],[-73.96453752962091,40.8141005700975],[-73.96447881100332,40.81422340685343],[-73.9644485622709,40.81428558496466],[-73.96443204143714,40.81431819947872],[-73.96441056875237,40.81435941941369],[-73.9643264107177,40.81450857696699]]}}]}