{"type":"FeatureCollection","features":[{"type":"Feature","geometry":{"type":"MultiLineString","coordinates":[[[-74.020184,40.770143],[-74.020548,40.768916],[-74.020811,40.76796]],[[-74.019475,40.767397],[-74.01895,40.767921],[-74.017829,40.768734],[-74.017061,40.769518],[-74.016128,40.770655],[-74.015808,40.771079],[-74.015555,40.771629],[-74.015329,40.77265],[-74.015153,40.773114],[-74.013677,40.775579],[-74.013205,40.776595],[-74.013135,40.776972],[-74.013274,40.777468],[-74.012974,40.777858],[-74.012518,40.778159],[-74.01204,40.778719],[-74.011681,40.779353],[-74.01123,40.780482],[-74.010919,40.780945],[-74.010576,40.781307],[-74.010292,40.781814],[-74.0099,40.782558],[-74.00946,40.783114],[-74.008999,40.783573],[-74.008296,40.784097],[-74.007148,40.784097],[-74.006606,40.784186],[-74.006048,40.784515],[-74.005104,40.785299],[-74.004364,40.78588],[-74.003854,40.786437],[-74.003665,40.786753],[-74.00335,40.787237],[-74.002951,40.787522],[-74.002692,40.787908],[-74.002165,40.788435],[-74.001714,40.788845],[-74.001188,40.789783],[-74.000662,40.790539],[-73.999611,40.792358],[-73.999139,40.792878],[-73.998479,40.793528],[-73.998179,40.794036],[-73.998098,40.794377],[-73.998222,40.794755],[-73.998189,40.795185],[-73.998007,40.796135],[-73.99776,40.796623],[-73.997208,40.797305],[-73.99628,40.798414],[-73.995373,40.799413],[-73.995143,40.799806],[-73.994847,40.800748],[-73.994579,40.801114],[-73.994257,40.801626],[-73.994182,40.801898],[-73.994322,40.802462],[-73.994762,40.803477],[-73.994788,40.803956],[-73.994697,40.804363],[-73.994381,40.804696],[-73.994166,40.804992],[-73.994096,40.805304],[-73.994155,40.805499],[-73.994198,40.805853],[-73.99408,40.806417],[-73.993705,40.807038],[-73.992578,40.808159],[-73.99223,40.808719],[-73.991618,40.809881],[-73.99142,40.810181],[-73.990958,40.810429],[-73.990256,40.810575],[-73.989842,40.810851],[-73.989429,40.811379],[-73.988941,40.812106],[-73.988491,40.81284],[-73.988051,40.813709],[-73.987809,40.813924],[-73.987407,40.81403],[-73.986645,40.813847],[-73.986307,40.813847],[-73.985969,40.814002],[-73.984955,40.815155],[-73.984634,40.815309],[-73.983968,40.815382],[-73.983598,40.815556],[-73.983191,40.816007],[-73.982971,40.816446],[-73.982659,40.81725],[-73.982177,40.818301],[-73.981415,40.819791],[-73.980782,40.820838],[-73.97943,40.822904],[-73.97825,40.82506],[-73.977531,40.826018],[-73.976828,40.827272],[-73.975578,40.829383],[-73.974876,40.830507],[-73.974087,40.831814],[-73.973658,40.832979],[-73.973561,40.833718],[-73.973679,40.834785],[-73.973894,40.836141],[-73.973508,40.837326],[-73.973038,40.838685],[-73.972843,40.838814],[-73.972752,40.839111],[-73.972846,40.839532],[-73.972653,40.839951],[-73.972413,40.841007],[-73.971603,40.841995],[-73.971381,40.842243],[-73.970887,40.843106],[-73.970241,40.84356],[-73.969248,40.844623],[-73.968739,40.845402],[-73.968379,40.846161],[-73.968234,40.846762],[-73.967995,40.847395],[-73.967696,40.847498],[-73.96646,40.847189],[-73.966334,40.847394],[-73.966191,40.847483],[-73.965983,40.847757],[-73.965925,40.847859],[-73.965837,40.847886],[-73.965696,40.847901],[-73.96522,40.848259],[-73.965043,40.84819],[-73.965332,40.84752],[-73.965397,40.847107],[-73.965306,40.846855],[-73.965053,40.846676],[-73.964758,40.846636],[-73.964388,40.846745],[-73.964018,40.846993],[-73.963589,40.84748],[-73.963042,40.848523],[-73.962264,40.849813],[-73.961373,40.851095],[-73.960848,40.852086],[-73.960596,40.852731],[-73.960349,40.853395]]]},"properties":{"name":"Palisades"}},{"type":"Feature","geometry":{"type":"LineString","coordinates":[[-74.021707,40.768338],[-74.021495,40.76865],[-74.021181,40.769818],[-74.021106,40.770002],[-74.021038,40.770437],[-74.020929,40.77065],[-74.020776,40.770871]]},"properties":{"name":"Palisades"}},{"type":"Feature","geometry":{"type":"LineString","coordinates":[[-73.986206,40.7711],[-73.986093,40.771073],[-73.986042,40.771145],[-73.986104,40.771198],[-73.986122,40.771274],[-73.986088,40.771321]]},"properties":{"name":""}},{"type":"Feature","geometry":{"type":"LineString","coordinates":[[-73.934646,40.839382],[-73.934521,40.839511],[-73.9345,40.839597],[-73.934525,40.839645],[-73.934433,40.83983],[-73.934358,40.839952],[-73.93418,40.840067],[-73.934163,40.840211],[-73.934052,40.840256],[-73.934067,40.840378],[-73.934014,40.840514],[-73.934029,40.84062],[-73.933953,40.840708],[-73.933922,40.840873],[-73.933791,40.840972],[-73.933698,40.841097],[-73.933566,40.8413],[-73.933322,40.84146],[-73.933234,40.841576],[-73.933057,40.841723],[-73.932942,40.84184]]},"properties":{"name":""}},{"type":"Feature","geometry":{"type":"LineString","coordinates":[[-73.934787,40.837103],[-73.934941,40.837253],[-73.935171,40.837364],[-73.935293,40.837606],[-73.935361,40.837919]]},"properties":{"name":""}},{"type":"Feature","geometry":{"type":"LineString","coordinates":[[-73.934079,40.839118],[-73.933964,40.839268],[-73.933937,40.839334],[-73.933949,40.839386],[-73.934008,40.839463],[-73.934111,40.839549]]},"properties":{"name":""}},{"type":"Feature","geometry":{"type":"LineString","coordinates":[[-73.933832,40.839951],[-73.933743,40.839964],[-73.933674,40.840039],[-73.933716,40.840091]]},"properties":{"name":""}},{"type":"Feature","geometry":{"type":"LineString","coordinates":[[-73.956985,40.810812],[-73.957281,40.810933]]},"properties":{"name":""}}]}