{"type":"FeatureCollection","features":[{"type":"Feature","properties":{"i":0},"geometry":{"type":"Polygon","coordinates":[[[-74.00249551686524,40.7731887033774],[-74.00328017404635,40.77380368177762],[-74.00369554509528,40.774600122056846],[-74.00367838202706,40.775456777476464],[-74.00338069638939,40.776060111549086],[-73.95871249358126,40.837259638439946],[-73.95819641580012,40.8377710950062],[-73.95750706721208,40.83814674665354],[-73.95670381628092,40.83835424004208],[-73.95585584394706,40.83837570438933],[-73.95478164708403,40.83811409693041],[-73.95175100895645,40.836836622780595],[-73.95238033672314,40.83631477401943],[-73.95262893026025,40.83594681095273],[-73.95291040024257,40.83514869449511],[-73.95615684139943,40.830152269250426],[-73.95719846013057,40.83005603868616],[-73.9581771896125,40.82964629680909],[-73.95890975155483,40.828939494676426],[-73.9595611209605,40.8284864458242],[-73.95986104966221,40.82812587787402],[-73.96237339952835,40.82423387345106],[-73.962465328651,40.82340683461609],[-73.96235578308976,40.822998351423685],[-73.96214658641026,40.8226129571199],[-73.96172700131714,40.822172135232194],[-73.96263747262655,40.82142901048017],[-73.9634506354888,40.82129784402231],[-73.96442626293761,40.820829656732116],[-73.96510586071523,40.820104204843915],[-73.9653613998828,40.81937619950175],[-73.96535134864641,40.81836532405381],[-73.9669382454663,40.816459393187806],[-73.97138378456579,40.80982489029408],[-73.97477331444236,40.805312680569216],[-73.98638383583707,40.788774904157506],[-73.98686673192611,40.78866835926573],[-73.98772193521991,40.78827253244383],[-73.9888661102464,40.787222136548955],[-73.98961285799113,40.7863234795377],[-73.9899584676438,40.78563525768171],[-73.99001303847689,40.78522966996883],[-73.98968401136968,40.784014393448786],[-73.99096688645537,40.78197980300326],[-73.9921847912046,40.78187329918416],[-73.9927235428427,40.781715509924155],[-73.99362546649488,40.7811744905206],[-73.99408210345945,40.78063367134565],[-73.99430643628189,40.780233869810935],[-73.99442655523572,40.77937367156622],[-73.9941002930838,40.77854495653874],[-73.99377701280119,40.77817878358743],[-73.99516350304475,40.776175688807],[-73.99575309490406,40.776281324370736],[-73.9968704684665,40.77621723594743],[-73.99739570545158,40.776063228928],[-73.99828027473502,40.77554031934178],[-73.99869130282754,40.7750778791237],[-73.99904676449341,40.774271133185486],[-73.99983454161327,40.77320762536932],[-73.99995482436175,40.77278406123839],[-73.99989804186914,40.772082061528785],[-74.00249551686524,40.7731887033774]]]}},{"type":"Feature","properties":{"i":1},"geometry":{"type":"Polygon","coordinates":[[[-74.00370580612095,40.77465885872982],[-74.00367838202706,40.775456777476464],[-74.00338069638939,40.776060111549086],[-73.95871249358126,40.837259638439946],[-73.95819641580012,40.8377710950062],[-73.95750706721208,40.83814674665354],[-73.95670381628092,40.83835424004208],[-73.95575244074051,40.83836278595938],[-73.95665661205696,40.83716771187238],[-73.95697247391787,40.83635925552281],[-73.9591664039594,40.83298150392277],[-73.95980730607228,40.832771955245335],[-73.96096495019506,40.83216908497843],[-73.96298462574117,40.830507829301325],[-73.96373441779863,40.82960638596897],[-73.96605172979471,40.82609808868628],[-73.96654709210846,40.82512620763452],[-73.96679171212773,40.82410072408143],[-73.96678438121575,40.82358896145334],[-73.9674269860119,40.82320702598219],[-73.96836750926323,40.822368847577174],[-73.96904133800722,40.82148619991844],[-73.96946424099926,40.820597150678175],[-73.96968079124784,40.81938467023313],[-73.97075071339138,40.81802752758733],[-73.97513579858261,40.81148326414968],[-73.97860418393704,40.80685379502446],[-73.98951252420967,40.79133396223444],[-73.99058326522882,40.79074617112364],[-73.9914511187358,40.790055665882484],[-73.99241751359457,40.78910954254344],[-73.99327517069564,40.78808708069627],[-73.99392991943245,40.787047475828686],[-73.99428462557887,40.785926874178855],[-73.99432005460143,40.784759975274575],[-73.99589459645873,40.784064971728036],[-73.9969326424008,40.78330259663586],[-73.9977504712799,40.78239853078445],[-73.99844074273554,40.781219800803086],[-73.99873151834063,40.78015589463963],[-73.99873992737778,40.779182489143246],[-73.99934150694394,40.77900609384754],[-74.00053144218154,40.77843473854428],[-74.0015529636346,40.77769877031318],[-74.00245256097217,40.77671274516491],[-74.00370580612095,40.77465885872982]]]}}]}