{"type":"FeatureCollection","features":[{"type":"Feature","properties":{"name":"66th Street Dog Run"},"geometry":{"type":"MultiPolygon","coordinates":[[[[-73.98972380242506,40.776385238918],[-73.9896473911496,40.77636447909841],[-73.98963625018222,40.77638003517761],[-73.98962938173959,40.7763894574175],[-73.98957816726951,40.77646136152062],[-73.98951192638482,40.77655550394247],[-73.98944918552507,40.77665102171266],[-73.98943678956297,40.776669296273866],[-73.98949459978151,40.77670437342688],[-73.98972380242506,40.776385238918]]]]}},{"type":"Feature","properties":{"name":"142nd Street Dog Run"},"geometry":{"type":"MultiPolygon","coordinates":[[[[-73.9543480890588,40.82524920626319],[-73.95439822509506,40.82519551063759],[-73.95440701805222,40.82518609312947],[-73.95433945476464,40.82514312536349],[-73.95427139120768,40.82519862745434],[-73.95415969498387,40.82526776458165],[-73.95412867581283,40.82528616828206],[-73.95411305385795,40.82529500133146],[-73.95399806909748,40.825367253607844],[-73.95398462388587,40.8253756525687],[-73.95398701287874,40.8253786206549],[-73.95399254869452,40.82538408076731],[-73.95399887454634,40.82538877757434],[-73.95400599869737,40.82539276150698],[-73.9540402546836,40.82540801335097],[-73.95404597866238,40.825410518109315],[-73.9540753298784,40.82542319437185],[-73.95408106801311,40.825425803591536],[-73.95408720724002,40.825427817743126],[-73.9540921808647,40.82542855993064],[-73.95409841686005,40.825429491724435],[-73.95410116088841,40.82542990074117],[-73.95410162314192,40.82543000358164],[-73.95411281490458,40.82543178831539],[-73.95412594011339,40.82543360083207],[-73.95413648209532,40.82543389318387],[-73.95414698921203,40.82543317246337],[-73.95415950670346,40.8254309397085],[-73.95417142297494,40.82542727222392],[-73.95418245582994,40.82542225634524],[-73.95419234201637,40.82541601173407],[-73.9541966246372,40.825411425410245],[-73.95420167430213,40.82540675114237],[-73.9543480890588,40.82524920626319]]]]}},{"type":"Feature","properties":{"name":"105th Street Dog Run"},"geometry":{"type":"MultiPolygon","coordinates":[[[[-73.97143914448156,40.80270899118493],[-73.97177797400893,40.8022287476438],[-73.9717247730191,40.802214970481145],[-73.97166939831904,40.802207656540816],[-73.9716132007555,40.802206984451104],[-73.97155755020431,40.802212968956795],[-73.97150380594493,40.802225465414345],[-73.97145327637121,40.80224416888133],[-73.9714071964739,40.80226862311528],[-73.97136668873145,40.8022982304691],[-73.97133274177197,40.80233227079522],[-73.97130618429821,40.8023699113443],[-73.97128766374415,40.80241023557475],[-73.97127763204587,40.80245226025817],[-73.97127633378,40.80249495798861],[-73.97128380140771,40.802537289598654],[-73.97129985171047,40.8025782203679],[-73.97132409288406,40.802616753343024],[-73.97135593400893,40.80265194825137],[-73.97139459925864,40.80268294671875],[-73.97143914448156,40.80270899118493]]]]}},{"type":"Feature","properties":{"name":"87th Street Dog Run"},"geometry":{"type":"MultiPolygon","coordinates":[[[[-73.98051603308897,40.79038282781085],[-73.98048818873833,40.79041860629058],[-73.98041156398162,40.79051871634581],[-73.98039307650565,40.79055710784326],[-73.9803811382979,40.79059697096985],[-73.98037594505557,40.790637661903055],[-73.98037782549841,40.79064529036308],[-73.98038085173413,40.79065270199743],[-73.9803868879261,40.790662464450335],[-73.98039490422158,40.790671365460724],[-73.9804047492347,40.790678481989445],[-73.9804159512533,40.79068432453972],[-73.98042822951616,40.79068874538135],[-73.98044127362996,40.790691634600265],[-73.98045475541824,40.790692917399035],[-73.9804693680418,40.79069246782491],[-73.98048366605303,40.79069013434857],[-73.98049284919475,40.79068767663631],[-73.98050157404907,40.790684393086835],[-73.98050971145543,40.79068033140491],[-73.98051952850177,40.79067374320188],[-73.98052780678317,40.790666030913435],[-73.98053432704674,40.79065739891645],[-73.98074581568802,40.790242250563125],[-73.98075479650032,40.790222199716396],[-73.98078456059363,40.7901557441381],[-73.98079740195212,40.79012598653506],[-73.98080056986359,40.790118786660166],[-73.98080124778025,40.79011398260244],[-73.98080086173528,40.7901091603575],[-73.98079942116873,40.79010445410146],[-73.98079696751103,40.79009999711524],[-73.98079356826082,40.79009591457967],[-73.98078932054064,40.79009231997391],[-73.98078434280285,40.790089315074134],[-73.98077359722741,40.79008681169145],[-73.9807624638323,40.79008564098392],[-73.98075122696476,40.79008583181492],[-73.98074017453612,40.79008737973001],[-73.98072958617426,40.79009024515405],[-73.98071973322307,40.79009435519187],[-73.98071086689392,40.79009960452726],[-73.98070631026029,40.79010308329887],[-73.98069520448092,40.79011290680111],[-73.9806855344543,40.79012357161043],[-73.98068044961623,40.79013034882612],[-73.98067542176578,40.79013672172634],[-73.98066266641655,40.79015162917507],[-73.98063288530918,40.79019062845664],[-73.98060691646945,40.79023117092926],[-73.98057047368327,40.79030046101151],[-73.98052719032978,40.790367440142035],[-73.98051603308897,40.79038282781085]]]]}},{"type":"Feature","properties":{"name":"72nd Street Dog Run- Upper Level"},"geometry":{"type":"MultiPolygon","coordinates":[[[[-73.98634344626137,40.7811676808043],[-73.98636052733957,40.78118757851441],[-73.98639362900853,40.781216989214734],[-73.98643206605337,40.78124237439013],[-73.98647500103041,40.78126318102889],[-73.986521499329,40.78127895606434],[-73.98654453385237,40.78129081656393],[-73.98656503153124,40.78130511712301],[-73.9865825469956,40.78132154881901],[-73.98658491354696,40.781352949592105],[-73.98656484805097,40.78137486726908],[-73.98658129236954,40.78139831194812],[-73.98660621936634,40.78139583846804],[-73.98662251796223,40.78139584036122],[-73.98663551072178,40.781398961206946],[-73.9866689012784,40.781424436667926],[-73.98669146969297,40.781421580183306],[-73.98671278359042,40.78142444173596],[-73.98673230997221,40.78142065467421],[-73.9867524032832,40.78141949353753],[-73.98677245815561,40.78142099337572],[-73.98679186923783,40.78142510819379],[-73.98687140051607,40.781316632030226],[-73.98688783149922,40.78129396917115],[-73.98689419485846,40.78128519180349],[-73.98688664418776,40.78127734847434],[-73.98687749757333,40.78127055674904],[-73.98686700494189,40.781265003059616],[-73.98685545295133,40.781260837822195],[-73.98684315551371,40.78125817543602],[-73.98683045024228,40.78125708797959],[-73.98681768186653,40.78125760520874],[-73.98680520104786,40.78125971365611],[-73.9867933454253,40.78126335482781],[-73.98678244198403,40.78126843060694],[-73.9867727857319,40.78127480144974],[-73.98674917647804,40.781257665790115],[-73.98674226674048,40.78123786476167],[-73.98672705922594,40.7812082959347],[-73.98670955215272,40.78117947065486],[-73.98668816323061,40.781149330191255],[-73.98666426262963,40.78112030155266],[-73.98663153735339,40.78108627049841],[-73.98657469490355,40.781034404890256],[-73.98657066544285,40.781030727671734],[-73.98654884034548,40.78101396138408],[-73.98652410997228,40.780999715257174],[-73.98649697181921,40.7809882784086],[-73.98647892117845,40.78098263194658],[-73.98646028032866,40.7809782326074],[-73.98644193532543,40.780975403775244],[-73.98642323804275,40.780974724396536],[-73.98640462205934,40.78097621163187],[-73.9863845744676,40.78098035607601],[-73.98636573115486,40.780987008556714],[-73.98634863117695,40.780995978232156],[-73.98633865392236,40.78100214728841],[-73.98633127112677,40.78100800687894],[-73.98633097964795,40.78100826708942],[-73.98632237007293,40.78101733322091],[-73.98631570788561,40.78102730188582],[-73.98631076794862,40.781049956124306],[-73.98630937481408,40.781072895342504],[-73.98631154750586,40.78109579986462],[-73.98631555286481,40.78111294319365],[-73.98632155918406,40.781129745469734],[-73.98633119358199,40.78114914972568],[-73.98634344626137,40.7811676808043]]]]}},{"type":"Feature","properties":{"name":"72nd Street Dog Run- Lower Level"},"geometry":{"type":"MultiPolygon","coordinates":[[[[-73.98772926764407,40.78113544925195],[-73.98743783444495,40.78097891693654],[-73.98741758244074,40.78096803846582],[-73.98700310242441,40.78153766881783],[-73.9870516126142,40.78155947632688],[-73.98718992829488,40.78146716513972],[-73.98731406276914,40.78140809064644],[-73.98746452829657,40.7813375825134],[-73.9875986977809,40.781251824233614],[-73.98771907898568,40.78114509704363],[-73.98772926764407,40.78113544925195]]]]}}]}