{"type":"FeatureCollection","features":[{"type":"Feature","properties":{"k":0},"geometry":{"type":"Polygon","coordinates":[[[-74.025006,40.769728],[-73.963107,40.854558],[-73.919332,40.836102],[-73.98127,40.751295],[-74.025006,40.769728]],[[-73.92175,40.835577],[-73.962414,40.852722],[-74.022591,40.770255],[-73.981962,40.753132],[-73.92175,40.835577]]]}},{"type":"Feature","properties":{"k":1},"geometry":{"type":"Polygon","coordinates":[[[-74.022591,40.770255],[-73.962414,40.852722],[-73.92175,40.835577],[-73.981962,40.753132],[-74.022591,40.770255]],[[-73.924491,40.834982],[-73.96163,40.85064],[-74.019854,40.770852],[-73.982746,40.755213],[-73.924491,40.834982]]]}},{"type":"Feature","properties":{"k":2},"geometry":{"type":"Polygon","coordinates":[[[-74.019854,40.770852],[-73.96163,40.85064],[-73.924491,40.834982],[-73.982746,40.755213],[-74.019854,40.770852]],[[-73.927715,40.834283],[-73.960706,40.848192],[-74.016633,40.771555],[-73.983668,40.757661],[-73.927715,40.834283]]]}},{"type":"Feature","properties":{"k":3},"geometry":{"type":"Polygon","coordinates":[[[-74.016633,40.771555],[-73.960706,40.848192],[-73.927715,40.834283],[-73.983668,40.757661],[-74.016633,40.771555]],[[-73.931584,40.833442],[-73.959599,40.845253],[-74.012769,40.772398],[-73.984776,40.7606],[-73.931584,40.833442]]]}},{"type":"Feature","properties":{"k":4},"geometry":{"type":"Polygon","coordinates":[[[-74.012769,40.772398],[-73.959599,40.845253],[-73.931584,40.833442],[-73.984776,40.7606],[-74.012769,40.772398]],[[-73.936259,40.832427],[-73.958261,40.841703],[-74.008099,40.773416],[-73.986114,40.76415],[-73.936259,40.832427]]]}}]}