{"type":"FeatureCollection","features":[{"type":"Feature","geometry":{"type":"Polygon","coordinates":[[[-73.962654,40.8072653],[-73.9630842,40.8066821],[-73.9632448,40.8067508],[-73.9632615,40.8067284],[-73.963471,40.8068181],[-73.9633819,40.8069374],[-73.9633941,40.8069426],[-73.9631245,40.8073034],[-73.9631023,40.8072939],[-73.9630103,40.8074171],[-73.962654,40.8072653]]]},"properties":{"kind":"lawn"}},{"type":"Feature","geometry":{"type":"Polygon","coordinates":[[[-73.9621327,40.8070468],[-73.9622249,40.8069204],[-73.9621964,40.8069085],[-73.9625437,40.8064323],[-73.9627577,40.8065217],[-73.9627432,40.8065416],[-73.9629086,40.8066107],[-73.9624835,40.8071934],[-73.9621327,40.8070468]]]},"properties":{"kind":"lawn"}},{"type":"Feature","geometry":{"type":"Polygon","coordinates":[[[-73.9634169,40.807364],[-73.9632259,40.8072827],[-73.9634562,40.806973],[-73.9636472,40.8070544],[-73.9634169,40.807364]]]},"properties":{"kind":"lawn"}},{"type":"Feature","geometry":{"type":"Polygon","coordinates":[[[-73.9626287,40.8072257],[-73.96254,40.8071883],[-73.962891,40.8067142],[-73.9629751,40.8067494],[-73.9626287,40.8072257]]]},"properties":{"kind":"lawn"}},{"type":"Feature","geometry":{"type":"Polygon","coordinates":[[[-73.9561122,40.8260594],[-73.9563124,40.8257654],[-73.9565767,40.8258685],[-73.9563765,40.8261625],[-73.9561122,40.8260594]]]},"properties":{"kind":"lawn"}},{"type":"Feature","geometry":{"type":"Polygon","coordinates":[[[-73.961599,40.8098414],[-73.9616811,40.8097288],[-73.9618251,40.8097889],[-73.961743,40.8099015],[-73.961599,40.8098414]]]},"properties":{"kind":"lawn"}},{"type":"Feature","geometry":{"type":"Polygon","coordinates":[[[-73.949461,40.8208362],[-73.9494942,40.8208538],[-73.9494882,40.8208635],[-73.9494367,40.8208694],[-73.9494161,40.8208986],[-73.9494305,40.8209343],[-73.9494031,40.8209675],[-73.9493873,40.8209603],[-73.9493379,40.8209709],[-73.9493178,40.8209628],[-73.949419,40.8208287],[-73.949461,40.8208362]]]},"properties":{"kind":"lawn"}},{"type":"Feature","geometry":{"type":"Polygon","coordinates":[[[-73.9494845,40.8210323],[-73.9494647,40.8210242],[-73.9494513,40.8209869],[-73.9494352,40.8209801],[-73.9494594,40.8209455],[-73.9495087,40.8209333],[-73.9495257,40.8209055],[-73.9495114,40.8208722],[-73.9495194,40.8208634],[-73.9495562,40.8208763],[-73.9495858,40.8209],[-73.9494845,40.8210323]]]},"properties":{"kind":"lawn"}},{"type":"Feature","geometry":{"type":"Polygon","coordinates":[[[-73.9493133,40.8212142],[-73.9492797,40.8211971],[-73.9492855,40.8211873],[-73.9493305,40.8211793],[-73.949353,40.8211539],[-73.9493413,40.8211156],[-73.9493678,40.821082],[-73.9493838,40.8210889],[-73.9494276,40.8210817],[-73.949447,40.8210902],[-73.9493555,40.821221],[-73.9493133,40.8212142]]]},"properties":{"kind":"lawn"}},{"type":"Feature","geometry":{"type":"Polygon","coordinates":[[[-73.9492802,40.8210218],[-73.9492998,40.8210306],[-73.9493206,40.8210613],[-73.9493369,40.8210678],[-73.9493136,40.8211028],[-73.9492659,40.821112],[-73.9492436,40.8211404],[-73.9492636,40.8211768],[-73.9492558,40.8211857],[-73.9492187,40.8211734],[-73.9491885,40.8211501],[-73.9492802,40.8210218]]]},"properties":{"kind":"lawn"}},{"type":"Feature","geometry":{"type":"Polygon","coordinates":[[[-73.9496158,40.8207608],[-73.9496507,40.8207645],[-73.949839,40.820837],[-73.9498296,40.8208636],[-73.9497952,40.8208499],[-73.949785,40.8208614],[-73.9497489,40.8208498],[-73.9495873,40.8210723],[-73.9495277,40.8210475],[-73.9496437,40.8208866],[-73.9496144,40.8208734],[-73.9495538,40.8208403],[-73.9496158,40.8207608]]]},"properties":{"kind":"lawn"}},{"type":"Feature","geometry":{"type":"Polygon","coordinates":[[[-73.9487783,40.8208396],[-73.9487845,40.820862],[-73.9488213,40.8208898],[-73.9486806,40.821092],[-73.9486371,40.8211018],[-73.948623,40.8210971],[-73.9487,40.8209907],[-73.94865836778409,40.82097326971818],[-73.94876196639524,40.82083137896918],[-73.9487783,40.8208396]]]},"properties":{"kind":"lawn"}},{"type":"Feature","geometry":{"type":"Polygon","coordinates":[[[-73.9492494,40.8203114],[-73.949123,40.8204811],[-73.9491114,40.8204797],[-73.9491006,40.8204851],[-73.9490863,40.820498],[-73.9490827,40.8205163],[-73.9490909,40.8205275],[-73.9489284,40.8207414],[-73.9488876,40.820738],[-73.9488532,40.8207417],[-73.94883335576928,40.82073360264148],[-73.94916652241116,40.820277290883695],[-73.9492494,40.8203114]]]},"properties":{"kind":"lawn"}},{"type":"Feature","geometry":{"type":"Polygon","coordinates":[[[-73.9492373,40.8210134],[-73.9491264,40.8211666],[-73.9491454,40.8211751],[-73.9492104,40.8212131],[-73.9491522,40.8212962],[-73.9491117,40.8212904],[-73.9489112,40.8212061],[-73.9490938,40.8209532],[-73.9492373,40.8210134]]]},"properties":{"kind":"lawn"}},{"type":"Feature","geometry":{"type":"Polygon","coordinates":[[[-73.9493324,40.8206254],[-73.9495328,40.8207098],[-73.9495606,40.8207328],[-73.9494987,40.8208161],[-73.9494212,40.8207923],[-73.9494022,40.8207827],[-73.9492843,40.8209449],[-73.9491486,40.8208911],[-73.9493324,40.8206254]]]},"properties":{"kind":"lawn"}},{"type":"Feature","geometry":{"type":"Polygon","coordinates":[[[-73.9493269,40.8212579],[-73.9493575,40.8212693],[-73.9494817,40.8211135],[-73.9495389,40.8211351],[-73.9493497,40.8213921],[-73.9492259,40.8213402],[-73.9492028,40.82132],[-73.9492644,40.8212442],[-73.9493269,40.8212579]]]},"properties":{"kind":"lawn"}},{"type":"Feature","geometry":{"type":"Polygon","coordinates":[[[-73.9493011,40.8201099],[-73.94929164864288,40.820105915471025],[-73.94934388791827,40.820034367504974],[-73.9494135,40.8200627],[-73.9493832,40.8201131],[-73.9493011,40.8201099]]]},"properties":{"kind":"lawn"}},{"type":"Feature","geometry":{"type":"Polygon","coordinates":[[[-73.9492565,40.8201637],[-73.9493046,40.8202141],[-73.9492651,40.8202607],[-73.94919880439262,40.820233076830256],[-73.94925105579748,40.820161512251474],[-73.9492565,40.8201637]]]},"properties":{"kind":"lawn"}},{"type":"Feature","geometry":{"type":"Polygon","coordinates":[[[-73.9748343,40.7862999],[-73.9750049,40.7860635],[-73.9755542,40.7862908],[-73.9753835,40.7865272],[-73.9748343,40.7862999]]]},"properties":{"kind":"lawn"}},{"type":"Feature","geometry":{"type":"Polygon","coordinates":[[[-73.9852138,40.7832563],[-73.9851659,40.7833583],[-73.9850945,40.7834657],[-73.9849018,40.783396],[-73.9847454,40.7833395],[-73.9848156,40.7832196],[-73.9848868,40.7830889],[-73.9849252,40.7830139],[-73.9849694,40.7829061],[-73.9849987,40.7828157],[-73.9850908,40.7828588],[-73.9851503,40.7829026],[-73.9851986,40.7829568],[-73.9852257,40.7830271],[-73.9852392,40.7831012],[-73.9852303,40.7831922],[-73.9852138,40.7832563]]]},"properties":{"kind":"lawn"}},{"type":"Feature","geometry":{"type":"Polygon","coordinates":[[[-73.9616134,40.81641],[-73.961584,40.816429],[-73.961536,40.8164605],[-73.9614805,40.8165015],[-73.9614292,40.8165415],[-73.9613854,40.8165769],[-73.9613574,40.8166028],[-73.9613519,40.8166041],[-73.9613435,40.8166047],[-73.9613367,40.8166036],[-73.9613284,40.8166],[-73.9613252,40.8165971],[-73.9613301,40.8165671],[-73.9613357,40.8165261],[-73.9613383,40.8164876],[-73.9613403,40.8164558],[-73.9613398,40.8164204],[-73.9613385,40.8163917],[-73.9613363,40.8163577],[-73.9613329,40.8163279],[-73.9613289,40.8163044],[-73.9613338,40.8162995],[-73.9613393,40.8162951],[-73.9613459,40.8162911],[-73.9613526,40.8162884],[-73.9613609,40.8162871],[-73.96137,40.8162874],[-73.9613802,40.8162887],[-73.9613994,40.8163004],[-73.9614614,40.8163261],[-73.9615322,40.8163445],[-73.9615821,40.8163509],[-73.9616162,40.8163535],[-73.961635,40.8163611],[-73.9616453,40.8163745],[-73.9616426,40.8163906],[-73.9616134,40.81641]]]},"properties":{"kind":"lawn"}},{"type":"Feature","geometry":{"type":"Polygon","coordinates":[[[-73.9614812,40.8097871],[-73.9613333,40.8097267],[-73.9614116,40.809617],[-73.9615595,40.8096774],[-73.9614812,40.8097871]]]},"properties":{"kind":"lawn"}},{"type":"Feature","geometry":{"type":"Polygon","coordinates":[[[-73.9615122,40.8095969],[-73.9614426,40.809568],[-73.9614826,40.8095127],[-73.9615522,40.8095416],[-73.9615122,40.8095969]]]},"properties":{"kind":"lawn"}},{"type":"Feature","geometry":{"type":"Polygon","coordinates":[[[-73.9616493,40.8087657],[-73.9613483,40.808638],[-73.9614445,40.808508],[-73.9617456,40.8086357],[-73.9616493,40.8087657]]]},"properties":{"kind":"lawn"}},{"type":"Feature","geometry":{"type":"Polygon","coordinates":[[[-73.9628943,40.8075638],[-73.9625098,40.8074001],[-73.9625476,40.8073492],[-73.9629321,40.8075129],[-73.9628943,40.8075638]]]},"properties":{"kind":"lawn"}},{"type":"Feature","geometry":{"type":"Polygon","coordinates":[[[-73.9620232,40.8072077],[-73.9620625,40.8071518],[-73.962443,40.8073051],[-73.9624036,40.807361],[-73.9620232,40.8072077]]]},"properties":{"kind":"lawn"}},{"type":"Feature","geometry":{"type":"Polygon","coordinates":[[[-73.9623271,40.8074616],[-73.9619459,40.8073033],[-73.9619829,40.8072523],[-73.962364,40.8074106],[-73.9623271,40.8074616]]]},"properties":{"kind":"lawn"}},{"type":"Feature","geometry":{"type":"Polygon","coordinates":[[[-73.9628181,40.807668],[-73.9624332,40.8075045],[-73.9624698,40.8074551],[-73.9628547,40.8076186],[-73.9628181,40.807668]]]},"properties":{"kind":"lawn"}},{"type":"Feature","geometry":{"type":"Polygon","coordinates":[[[-73.9467881,40.8337148],[-73.9469407,40.8337711],[-73.9469561,40.8337782],[-73.9469388,40.8338017],[-73.9469026442443,40.8338506509644],[-73.94674266989031,40.83378320798335],[-73.9467881,40.8337148]]]},"properties":{"kind":"lawn"}},{"type":"Feature","geometry":{"type":"Polygon","coordinates":[[[-73.9631793,40.809765],[-73.9632592,40.8095913],[-73.9631136,40.8095303],[-73.9633752,40.8091695],[-73.9635016,40.8092224],[-73.9634572,40.8092843],[-73.963623,40.8093497],[-73.9632984,40.8098145],[-73.9631793,40.809765]]]},"properties":{"kind":"lawn"}},{"type":"Feature","geometry":{"type":"Polygon","coordinates":[[[-73.9605393,40.8074714],[-73.9607556,40.8071718],[-73.9608357,40.8072049],[-73.9606194,40.8075046],[-73.9605393,40.8074714]]]},"properties":{"kind":"lawn"}},{"type":"Feature","geometry":{"type":"Polygon","coordinates":[[[-73.9621843,40.8068169],[-73.9619316,40.8067135],[-73.9621373,40.8064255],[-73.96239,40.8065289],[-73.9621843,40.8068169]]]},"properties":{"kind":"lawn"}},{"type":"Feature","geometry":{"type":"Polygon","coordinates":[[[-73.9631764,40.809972],[-73.963072,40.8099305],[-73.9631034,40.8098853],[-73.9632077,40.8099268],[-73.9631764,40.809972]]]},"properties":{"kind":"lawn"}},{"type":"Feature","geometry":{"type":"Polygon","coordinates":[[[-73.963129,40.8100381],[-73.9630352,40.8100017],[-73.9630681,40.8099531],[-73.9631619,40.8099895],[-73.963129,40.8100381]]]},"properties":{"kind":"lawn"}},{"type":"Feature","geometry":{"type":"Polygon","coordinates":[[[-73.9629878,40.8100733],[-73.9630205,40.8100232],[-73.9631118,40.8100574],[-73.9630791,40.8101074],[-73.9629878,40.8100733]]]},"properties":{"kind":"lawn"}},{"type":"Feature","geometry":{"type":"Polygon","coordinates":[[[-73.9630353,40.8101673],[-73.9629524,40.8101364],[-73.9629819,40.810091],[-73.9630648,40.8101219],[-73.9630353,40.8101673]]]},"properties":{"kind":"lawn"}},{"type":"Feature","geometry":{"type":"Polygon","coordinates":[[[-73.9925845,40.7746365],[-73.992598,40.7746307],[-73.9926368,40.7746485],[-73.992643,40.7747006],[-73.9926405,40.7747427],[-73.992635,40.7747749],[-73.9926053,40.7748108],[-73.9925706,40.7748451],[-73.9925185,40.7748492],[-73.9924664,40.7748502],[-73.9924402,40.7748482],[-73.9924286,40.7748357],[-73.9924724,40.7748062],[-73.9924608,40.7747899],[-73.9924083,40.7747967],[-73.9924282,40.774774],[-73.9924652,40.7747357],[-73.9925121,40.7746919],[-73.9925615,40.7746504],[-73.9925845,40.7746365]]]},"properties":{"kind":"lawn"}},{"type":"Feature","geometry":{"type":"Polygon","coordinates":[[[-73.9928738,40.7743773],[-73.992871,40.774339],[-73.992871,40.7743028],[-73.9928823,40.7742815],[-73.9929385,40.7742794],[-73.992961,40.774322],[-73.9929385,40.7743624],[-73.9928879,40.7743986],[-73.9928738,40.7743773]]]},"properties":{"kind":"lawn"}},{"type":"Feature","geometry":{"type":"Polygon","coordinates":[[[-73.9926687,40.7744816],[-73.9927277,40.7744646],[-73.9928457,40.7744411],[-73.9928401,40.7744965],[-73.9928176,40.7745305],[-73.9927642,40.7745859],[-73.9927024,40.7745923],[-73.9926321,40.7745944],[-73.9925872,40.7745752],[-73.9926687,40.7744816]]]},"properties":{"kind":"lawn"}},{"type":"Feature","geometry":{"type":"Polygon","coordinates":[[[-73.9518768,40.8167009],[-73.9519001,40.8167357],[-73.9519213,40.8167965],[-73.9519301,40.8168645],[-73.9519279,40.8169037],[-73.9519162,40.8169512],[-73.9519045,40.8169717],[-73.9518863,40.8169816],[-73.9518585,40.8169833],[-73.9517841,40.8169645],[-73.9517052,40.8169429],[-73.95162264186246,40.81691334010573],[-73.95181777308636,40.81664608444269],[-73.9518768,40.8167009]]]},"properties":{"kind":"lawn"}},{"type":"Feature","geometry":{"type":"Polygon","coordinates":[[[-73.9516781,40.8169681],[-73.9517609,40.8169908],[-73.9518719,40.8170206],[-73.951896,40.8170333],[-73.9519004,40.8170455],[-73.951896,40.8170577],[-73.9518777,40.8170687],[-73.9514929,40.8171483],[-73.95144306985539,40.81715928555131],[-73.95160266392433,40.816940702293024],[-73.9516781,40.8169681]]]},"properties":{"kind":"lawn"}},{"type":"Feature","geometry":{"type":"Polygon","coordinates":[[[-73.9508749,40.8182632],[-73.9508633,40.8182017],[-73.9508619,40.8180984],[-73.9508822,40.8179512],[-73.95089115149105,40.817915204083754],[-73.95110879798534,40.8176171110519],[-73.9511504,40.8177852],[-73.9511633,40.817793],[-73.9511756,40.8177926],[-73.9512538,40.817759],[-73.9512756,40.8177666],[-73.9512567,40.8178062],[-73.9512785,40.8178655],[-73.9513104,40.817893],[-73.9514367,40.8179391],[-73.9514556,40.8179732],[-73.9508749,40.8182632]]]},"properties":{"kind":"lawn"}},{"type":"Feature","geometry":{"type":"Polygon","coordinates":[[[-73.9619097,40.8077466],[-73.961611,40.8076218],[-73.9617186,40.8074743],[-73.9618017,40.8075091],[-73.9617729,40.8075485],[-73.961789,40.807586],[-73.9619713,40.8076622],[-73.9619097,40.8077466]]]},"properties":{"kind":"lawn"}},{"type":"Feature","geometry":{"type":"Polygon","coordinates":[[[-73.9619487,40.8076422],[-73.9618694,40.8076082],[-73.9619128,40.8075504],[-73.9619544,40.8075682],[-73.9619746,40.8076076],[-73.9619487,40.8076422]]]},"properties":{"kind":"lawn"}},{"type":"Feature","geometry":{"type":"Polygon","coordinates":[[[-73.9618078,40.807583],[-73.9617944,40.8075453],[-73.9618192,40.8075107],[-73.9618994,40.8075436],[-73.9618568,40.8076031],[-73.9618078,40.807583]]]},"properties":{"kind":"lawn"}},{"type":"Feature","geometry":{"type":"Polygon","coordinates":[[[-73.9626477,40.8080551],[-73.9623491,40.8079336],[-73.9624066,40.8078525],[-73.962587,40.8079241],[-73.9626326,40.8079149],[-73.9626636,40.8078712],[-73.9627526,40.8079074],[-73.9626477,40.8080551]]]},"properties":{"kind":"lawn"}},{"type":"Feature","geometry":{"type":"Polygon","coordinates":[[[-73.9625319,40.8078879],[-73.9625732,40.8078277],[-73.9626534,40.8078601],[-73.962627,40.8078966],[-73.9625816,40.807908],[-73.9625319,40.8078879]]]},"properties":{"kind":"lawn"}},{"type":"Feature","geometry":{"type":"Polygon","coordinates":[[[-73.9624381,40.8078474],[-73.962463,40.8078115],[-73.9624679,40.8078126],[-73.9624724,40.8078132],[-73.9624767,40.8078137],[-73.9624794,40.8078138],[-73.9624829,40.8078139],[-73.962487,40.8078137],[-73.9624911,40.8078134],[-73.9624936,40.8078131],[-73.9624975,40.8078124],[-73.9625008,40.8078117],[-73.9625045,40.8078107],[-73.9625093,40.807809],[-73.9625124,40.8078078],[-73.9625163,40.807806],[-73.9625191,40.8078044],[-73.9625599,40.8078212],[-73.9625185,40.8078799],[-73.9624381,40.8078474]]]},"properties":{"kind":"lawn"}},{"type":"Feature","geometry":{"type":"Polygon","coordinates":[[[-73.9626605,40.8078227],[-73.9625979,40.8077964],[-73.9626405,40.8077384],[-73.962703,40.8077646],[-73.9626605,40.8078227]]]},"properties":{"kind":"lawn"}},{"type":"Feature","geometry":{"type":"Polygon","coordinates":[[[-73.9625426,40.8077729],[-73.9625429,40.8077697],[-73.9625429,40.8077656],[-73.9625423,40.8077611],[-73.9625412,40.8077567],[-73.9625404,40.8077546],[-73.9625387,40.8077509],[-73.9625372,40.8077483],[-73.9625354,40.8077456],[-73.9625325,40.807742],[-73.9625294,40.8077389],[-73.9625268,40.8077366],[-73.9625248,40.8077351],[-73.9625216,40.8077329],[-73.9625455,40.8076994],[-73.9626229,40.8077308],[-73.9625816,40.8077891],[-73.9625426,40.8077729]]]},"properties":{"kind":"lawn"}},{"type":"Feature","geometry":{"type":"Polygon","coordinates":[[[-73.9626943,40.8078317],[-73.9627423,40.8077664],[-73.9628192,40.8077989],[-73.9627711,40.8078641],[-73.9626943,40.8078317]]]},"properties":{"kind":"lawn"}},{"type":"Feature","geometry":{"type":"Polygon","coordinates":[[[-73.9611504,40.807456],[-73.9612358,40.8073413],[-73.9612739,40.8073576],[-73.9612592,40.8073778],[-73.9612875,40.8073898],[-73.9613764,40.8074252],[-73.9613905,40.8074063],[-73.9614353,40.8074254],[-73.9614272,40.8074362],[-73.9616207,40.8075185],[-73.9615425,40.8076238],[-73.9611504,40.807456]]]},"properties":{"kind":"lawn"}},{"type":"Feature","geometry":{"type":"Polygon","coordinates":[[[-73.9609402,40.8076937],[-73.961101,40.8074782],[-73.9611291,40.8074764],[-73.961198,40.8075058],[-73.9613143,40.807556],[-73.961444,40.8076093],[-73.9614402,40.8076153],[-73.9614351,40.8076226],[-73.9613495,40.8075879],[-73.9613219,40.8076269],[-73.9612779,40.8076891],[-73.9613033,40.8076994],[-73.9612772,40.8077364],[-73.9613371,40.8077606],[-73.9613295,40.8077714],[-73.9613745,40.8077893],[-73.9613286,40.8078568],[-73.9609402,40.8076937]]]},"properties":{"kind":"lawn"}},{"type":"Feature","geometry":{"type":"Polygon","coordinates":[[[-73.9612791,40.8079754],[-73.9612668,40.8079557],[-73.9612719,40.8079354],[-73.9613191,40.807869],[-73.961449,40.8079218],[-73.9614483,40.8079577],[-73.9614006,40.8080248],[-73.9612791,40.8079754]]]},"properties":{"kind":"lawn"}},{"type":"Feature","geometry":{"type":"Polygon","coordinates":[[[-73.9604687,40.8083216],[-73.9607614,40.8079187],[-73.9609469,40.8079961],[-73.9606537,40.8083986],[-73.9604687,40.8083216]]]},"properties":{"kind":"lawn"}},{"type":"Feature","geometry":{"type":"Polygon","coordinates":[[[-73.9628847,40.8057002],[-73.9627508,40.8056435],[-73.9627935,40.8055854],[-73.9627841,40.8055814],[-73.9627917,40.805571],[-73.962935,40.8056317],[-73.9628847,40.8057002]]]},"properties":{"kind":"lawn"}},{"type":"Feature","geometry":{"type":"Polygon","coordinates":[[[-73.9631758,40.8057468],[-73.9631625,40.8057411],[-73.9631196,40.8057996],[-73.9629882,40.805744],[-73.9630311,40.8056855],[-73.9630196,40.8056806],[-73.9630269,40.8056706],[-73.9631832,40.8057367],[-73.9631758,40.8057468]]]},"properties":{"kind":"lawn"}},{"type":"Feature","geometry":{"type":"Polygon","coordinates":[[[-73.9599691,40.8089512],[-73.9600067,40.8089023],[-73.9600492,40.8088434],[-73.9602226,40.8086028],[-73.9604472,40.8086962],[-73.9602556,40.8089595],[-73.9601932,40.8090453],[-73.9599691,40.8089512]]]},"properties":{"kind":"lawn"}},{"type":"Feature","geometry":{"type":"Polygon","coordinates":[[[-73.9947317,40.7710445],[-73.99475619362157,40.7708562681959],[-73.99478094912291,40.770866701811784],[-73.9947586,40.7710468],[-73.9947317,40.7710445]]]},"properties":{"kind":"lawn"}},{"type":"Feature","geometry":{"type":"Polygon","coordinates":[[[-73.9942825,40.770867],[-73.9942638,40.7709919],[-73.9942275,40.7711382],[-73.9941739,40.7713179],[-73.9941417,40.7714063],[-73.9941337,40.7713667],[-73.9941094,40.7713137],[-73.9940814,40.7712824],[-73.9940405,40.7712513],[-73.9941852,40.7710801],[-73.9942363,40.7709954],[-73.9942569,40.7708681],[-73.9942676,40.7707043],[-73.9942919,40.7707045],[-73.9942825,40.770867]]]},"properties":{"kind":"lawn"}},{"type":"Feature","geometry":{"type":"Polygon","coordinates":[[[-73.9947935,40.7714134],[-73.9948377,40.7712783],[-73.9948914,40.7709442],[-73.99489480562863,40.77091468852106],[-73.99492412371404,40.77092704511353],[-73.9949221,40.770944],[-73.9948685,40.7712832],[-73.994823,40.7714205],[-73.9947935,40.7714134]]]},"properties":{"kind":"lawn"}},{"type":"Feature","geometry":{"type":"Polygon","coordinates":[[[-73.994481,40.7710508],[-73.9944614,40.7711698],[-73.9944256,40.7712946],[-73.9943523,40.7714977],[-73.9942423,40.7717191],[-73.9941632,40.7718644],[-73.9941349,40.771852],[-73.9942153,40.7717118],[-73.9943313,40.7714883],[-73.9944041,40.7712873],[-73.9944366,40.7711641],[-73.9944569,40.7710458],[-73.9944938,40.7708421],[-73.9945165,40.7708436],[-73.994481,40.7710508]]]},"properties":{"kind":"lawn"}},{"type":"Feature","geometry":{"type":"Polygon","coordinates":[[[-73.9941538,40.7723814],[-73.9938065,40.7728698],[-73.993778,40.7728765],[-73.9937756,40.7728668],[-73.994127,40.7723793],[-73.9941441,40.7723717],[-73.9941672,40.772358],[-73.9941686,40.7723712],[-73.9941538,40.7723814]]]},"properties":{"kind":"lawn"}},{"type":"Feature","geometry":{"type":"Polygon","coordinates":[[[-73.963735,40.8071488],[-73.9638181,40.8071841],[-73.9636535,40.807406],[-73.9635704,40.8073707],[-73.963735,40.8071488]]]},"properties":{"kind":"lawn"}},{"type":"Feature","geometry":{"type":"Polygon","coordinates":[[[-73.9856681,40.7716197],[-73.9856926,40.7715866],[-73.9858891,40.7716696],[-73.9858647,40.7717032],[-73.9856681,40.7716197]]]},"properties":{"kind":"lawn"}},{"type":"Feature","geometry":{"type":"Polygon","coordinates":[[[-73.9887174,40.7712638],[-73.9887538,40.7712433],[-73.9887891,40.7712142],[-73.9888192,40.7711827],[-73.9888463,40.7711457],[-73.9888639,40.7711048],[-73.9888691,40.7710639],[-73.9891081,40.7711646],[-73.9889606,40.7713677],[-73.9887174,40.7712638]]]},"properties":{"kind":"lawn"}},{"type":"Feature","geometry":{"type":"Polygon","coordinates":[[[-73.9620544,40.8074939],[-73.9620306,40.8075267],[-73.9619757,40.8075344],[-73.9619374,40.8075185],[-73.9619782,40.8074622],[-73.9620544,40.8074939]]]},"properties":{"kind":"lawn"}},{"type":"Feature","geometry":{"type":"Polygon","coordinates":[[[-73.9619211,40.8075095],[-73.9618603,40.8074853],[-73.9619009,40.807428],[-73.9619617,40.8074537],[-73.9619211,40.8075095]]]},"properties":{"kind":"lawn"}},{"type":"Feature","geometry":{"type":"Polygon","coordinates":[[[-73.9872007,40.7714987],[-73.9872136,40.7714817],[-73.9872269,40.7714642],[-73.9871693,40.7714408],[-73.9873283,40.7712194],[-73.9876352,40.7713497],[-73.9875579,40.7714597],[-73.9876136,40.771483],[-73.9876608,40.7715027],[-73.9876748,40.7715085],[-73.9876997,40.7714753],[-73.9878708,40.7715463],[-73.9877451,40.7717209],[-73.9876984,40.7717857],[-73.9871547,40.7715593],[-73.9872007,40.7714987]]]},"properties":{"kind":"lawn"}},{"type":"Feature","geometry":{"type":"Polygon","coordinates":[[[-73.9847596,40.7724283],[-73.9848279,40.7723352],[-73.9848841,40.7723587],[-73.9848803,40.7723846],[-73.9849449,40.7724122],[-73.9849714,40.7723967],[-73.9850132,40.7724145],[-73.9850094,40.7724381],[-73.9850777,40.7724663],[-73.9851005,40.7724519],[-73.9851423,40.7724686],[-73.9851377,40.7724939],[-73.9852045,40.7725215],[-73.9852288,40.7725065],[-73.9852721,40.7725243],[-73.9852675,40.7725479],[-73.9853336,40.7725766],[-73.9853609,40.7725605],[-73.9854042,40.7725795],[-73.9853389,40.7726732],[-73.9847596,40.7724283]]]},"properties":{"kind":"lawn"}},{"type":"Feature","geometry":{"type":"Polygon","coordinates":[[[-73.9623326,40.8085792],[-73.9622223,40.8085337],[-73.9623726,40.8083251],[-73.9624829,40.8083707],[-73.9623326,40.8085792]]]},"properties":{"kind":"lawn"}},{"type":"Feature","geometry":{"type":"Polygon","coordinates":[[[-73.9623121,40.806221],[-73.9623701,40.8061421],[-73.9625185,40.8062046],[-73.9624605,40.8062835],[-73.9623121,40.806221]]]},"properties":{"kind":"lawn"}},{"type":"Feature","geometry":{"type":"Polygon","coordinates":[[[-73.9620448,40.8138485],[-73.9620443,40.8138412],[-73.9620473,40.813835],[-73.9620636,40.8138204],[-73.9620875,40.8138012],[-73.9621099,40.8137854],[-73.9621388,40.813767],[-73.9621515,40.8137631],[-73.9621642,40.813762],[-73.9621719,40.8137631],[-73.9621764,40.8137658],[-73.9621774,40.8137704],[-73.962152,40.8138427],[-73.9621449,40.813857],[-73.9621383,40.8138639],[-73.9621292,40.8138697],[-73.9621231,40.8138716],[-73.9621134,40.8138689],[-73.9621027,40.8138654],[-73.962087,40.8138593],[-73.9620758,40.813857],[-73.9620656,40.813857],[-73.9620545,40.813857],[-73.9620468,40.8138547],[-73.9620448,40.8138485]]]},"properties":{"kind":"lawn"}},{"type":"Feature","geometry":{"type":"Polygon","coordinates":[[[-73.9918926,40.7732181],[-73.9915535,40.773029],[-73.9914958,40.7729482],[-73.991619,40.7728929],[-73.9922308,40.7731477],[-73.9922246,40.773231],[-73.9921689,40.7732081],[-73.9921034,40.7732747],[-73.9921357,40.7733102],[-73.9921018,40.7733185],[-73.9920815,40.7733234],[-73.9918926,40.7732181]]]},"properties":{"kind":"lawn"}},{"type":"Feature","geometry":{"type":"Polygon","coordinates":[[[-73.9617323,40.8078771],[-73.9617214,40.80789],[-73.9617125,40.8078947],[-73.9616961,40.8078972],[-73.9616094,40.8078631],[-73.961604,40.8078559],[-73.9616046,40.8078456],[-73.9616791,40.8077381],[-73.9616866,40.8077329],[-73.9616961,40.8077303],[-73.9617077,40.8077344],[-73.9617883,40.807766],[-73.9617951,40.8077711],[-73.9617979,40.807782],[-73.9617931,40.8077903],[-73.9617323,40.8078771]]]},"properties":{"kind":"lawn"}},{"type":"Feature","geometry":{"type":"Polygon","coordinates":[[[-73.9618525,40.8079217],[-73.9618278,40.8079113],[-73.9618109,40.8079052],[-73.9617851,40.8079438],[-73.9617707,40.8079622],[-73.9617608,40.8079667],[-73.961746,40.8079273],[-73.9618391,40.8077893],[-73.9618649,40.8077994],[-73.9618589,40.8078099],[-73.9618917,40.8078234],[-73.9618981,40.807814],[-73.9619239,40.8078234],[-73.9618525,40.8079217]]]},"properties":{"kind":"lawn"}},{"type":"Feature","geometry":{"type":"Polygon","coordinates":[[[-73.9624757,40.8080648],[-73.9623814,40.8081917],[-73.9622918,40.8081531],[-73.9622788,40.8081353],[-73.9622809,40.8081203],[-73.9623569,40.8080127],[-73.9623689,40.8080135],[-73.9624689,40.8080549],[-73.9624757,40.8080648]]]},"properties":{"kind":"lawn"}},{"type":"Feature","geometry":{"type":"Polygon","coordinates":[[[-73.9622324,40.8081274],[-73.9621395,40.8081455],[-73.9621339,40.8081311],[-73.9621841,40.8080621],[-73.9621721,40.8080571],[-73.9622434,40.8079583],[-73.9622673,40.8079682],[-73.962259,40.807982],[-73.9622918,40.8079954],[-73.9623022,40.8079823],[-73.962322,40.8079914],[-73.9623246,40.8079973],[-73.9623194,40.8080052],[-73.9622324,40.8081274]]]},"properties":{"kind":"lawn"}},{"type":"Feature","geometry":{"type":"Polygon","coordinates":[[[-73.9623852,40.8082905],[-73.9625348,40.8080924],[-73.9625448,40.8080867],[-73.9629674,40.8082696],[-73.9628121,40.8084752],[-73.9623852,40.8082905]]]},"properties":{"kind":"lawn"}},{"type":"Feature","geometry":{"type":"Polygon","coordinates":[[[-73.9626743,40.8081126],[-73.9627635,40.8079913],[-73.9630642,40.808118],[-73.962975,40.8082392],[-73.9626743,40.8081126]]]},"properties":{"kind":"lawn"}},{"type":"Feature","geometry":{"type":"Polygon","coordinates":[[[-73.9617736,40.8088245],[-73.9618739,40.8086873],[-73.9619986,40.8087395],[-73.9618983,40.8088767],[-73.9617736,40.8088245]]]},"properties":{"kind":"lawn"}},{"type":"Feature","geometry":{"type":"Polygon","coordinates":[[[-73.9619001,40.8086549],[-73.9619649,40.8085671],[-73.9620791,40.8086154],[-73.9620143,40.8087031],[-73.9619001,40.8086549]]]},"properties":{"kind":"lawn"}},{"type":"Feature","geometry":{"type":"Polygon","coordinates":[[[-73.961094,40.8085369],[-73.9611933,40.8083998],[-73.9613095,40.808448],[-73.9612101,40.8085851],[-73.961094,40.8085369]]]},"properties":{"kind":"lawn"}},{"type":"Feature","geometry":{"type":"Polygon","coordinates":[[[-73.961225,40.8083645],[-73.9612905,40.8082797],[-73.9613992,40.8083279],[-73.9613337,40.8084126],[-73.961225,40.8083645]]]},"properties":{"kind":"lawn"}},{"type":"Feature","geometry":{"type":"Polygon","coordinates":[[[-73.9611718,40.8080753],[-73.961232,40.8079942],[-73.9613763,40.8080556],[-73.9613162,40.8081367],[-73.9611718,40.8080753]]]},"properties":{"kind":"lawn"}},{"type":"Feature","geometry":{"type":"Polygon","coordinates":[[[-73.9615835,40.8099298],[-73.9615976,40.8099101],[-73.9616697,40.8099397],[-73.961674,40.8099337],[-73.9617081,40.8099477],[-73.9616897,40.8099734],[-73.9615835,40.8099298]]]},"properties":{"kind":"lawn"}},{"type":"Feature","geometry":{"type":"Polygon","coordinates":[[[-73.9612944,40.8097763],[-73.9613285,40.8097903],[-73.9613242,40.8097963],[-73.9613963,40.8098259],[-73.9613822,40.8098456],[-73.961276,40.809802],[-73.9612944,40.8097763]]]},"properties":{"kind":"lawn"}},{"type":"Feature","geometry":{"type":"Polygon","coordinates":[[[-73.9600727,40.8065632],[-73.9600353,40.8066153],[-73.9599994,40.8066005],[-73.9598853,40.8067594],[-73.9597764,40.8067146],[-73.959868,40.8065872],[-73.9598961,40.8065987],[-73.9599561,40.8065152],[-73.9600727,40.8065632]]]},"properties":{"kind":"lawn"}},{"type":"Feature","geometry":{"type":"Polygon","coordinates":[[[-73.9596519,40.8068983],[-73.9597498,40.8067636],[-73.9598476,40.8068043],[-73.9597763,40.8069024],[-73.9598047,40.8069142],[-73.9597781,40.8069509],[-73.9597625,40.8069444],[-73.9596519,40.8068983]]]},"properties":{"kind":"lawn"}},{"type":"Feature","geometry":{"type":"Polygon","coordinates":[[[-73.9650382,40.8086645],[-73.9649563,40.8086831],[-73.9648667,40.8087175],[-73.9647723,40.8087616],[-73.9647613,40.8087551],[-73.9648866,40.8085938],[-73.9650391,40.8086541],[-73.9650382,40.8086645]]]},"properties":{"kind":"lawn"}},{"type":"Feature","geometry":{"type":"Polygon","coordinates":[[[-73.9847747,40.7855675],[-73.984762,40.7855097],[-73.984754,40.7854536],[-73.9847494,40.7853788],[-73.9847892,40.7854003],[-73.9848189,40.785421],[-73.9848527,40.7854493],[-73.9848771,40.7854798],[-73.9849027,40.7855202],[-73.9849141,40.7855612],[-73.984919,40.7855936],[-73.9849162,40.7856291],[-73.9849105,40.7856633],[-73.984897,40.7856929],[-73.9848844,40.7857184],[-73.9848673,40.7857462],[-73.9848192,40.7857278],[-73.9847747,40.7855675]]]},"properties":{"kind":"lawn"}},{"type":"Feature","geometry":{"type":"Polygon","coordinates":[[[-73.9846285,40.7852975],[-73.9845873,40.7852648],[-73.9845373,40.7852461],[-73.984466,40.7852373],[-73.9843775,40.7852363],[-73.9844631,40.7851168],[-73.9848541,40.7845707],[-73.9848788,40.784579],[-73.984815,40.7847166],[-73.9847601,40.7848609],[-73.984721,40.7849829],[-73.9846881,40.7850878],[-73.9846662,40.785187],[-73.9846538,40.7852638],[-73.9846447,40.7853357],[-73.9846285,40.7852975]]]},"properties":{"kind":"lawn"}},{"type":"Feature","geometry":{"type":"Polygon","coordinates":[[[-73.9848529,40.7853518],[-73.9848839,40.7853435],[-73.9849171,40.7853317],[-73.9849481,40.78532],[-73.9849543,40.7853187],[-73.9849575,40.7853221],[-73.9849301,40.7853822],[-73.9848529,40.7853518]]]},"properties":{"kind":"lawn"}},{"type":"Feature","geometry":{"type":"Polygon","coordinates":[[[-73.9847011,40.7859911],[-73.9846777,40.7860216],[-73.9846408,40.7860605],[-73.9846043,40.7860906],[-73.9845631,40.7861129],[-73.9845126,40.7861321],[-73.984456,40.7861448],[-73.984406,40.7861505],[-73.9843503,40.7861494],[-73.9842961,40.7861413],[-73.9842404,40.7861267],[-73.9842548,40.7861184],[-73.9843278,40.7860815],[-73.9844064,40.7860506],[-73.9844983,40.7860179],[-73.9845893,40.7859889],[-73.9846505,40.7859694],[-73.9847011,40.7859911]]]},"properties":{"kind":"lawn"}},{"type":"Feature","geometry":{"type":"Polygon","coordinates":[[[-73.9838789,40.7860315],[-73.9839123,40.7860546],[-73.9839752,40.7860798],[-73.9840587,40.7860895],[-73.9841221,40.7860843],[-73.9840259,40.7861452],[-73.9839308,40.7862176],[-73.9838357,40.7863029],[-73.983736,40.7864089],[-73.983631,40.7865317],[-73.9835502,40.7866512],[-73.9835095,40.7867136],[-73.9834855,40.7867083],[-73.9835441,40.7865798],[-73.9836079,40.7864262],[-73.983688,40.7862717],[-73.9837822,40.7861022],[-73.9838553,40.7859831],[-73.9838789,40.7860315]]]},"properties":{"kind":"lawn"}},{"type":"Feature","geometry":{"type":"Polygon","coordinates":[[[-73.987118,40.7826546],[-73.9870899,40.7826841],[-73.9870531,40.7827054],[-73.9870098,40.7827218],[-73.9869644,40.7827218],[-73.9869092,40.7827087],[-73.986867,40.7826792],[-73.9868507,40.7826407],[-73.9868432,40.7825784],[-73.9868523,40.7825143],[-73.9868814,40.7824399],[-73.9869142,40.7823634],[-73.9869524,40.7823035],[-73.9870079,40.7822228],[-73.9870853,40.7821429],[-73.9871681,40.7820761],[-73.9872263,40.7820382],[-73.9872764,40.7820175],[-73.9873264,40.7820154],[-73.9873728,40.7820223],[-73.9874156,40.7820389],[-73.9874438,40.7820623],[-73.987462,40.7820954],[-73.987462,40.7821333],[-73.9874474,40.7821732],[-73.9874129,40.7822277],[-73.9872144,40.7825095],[-73.987118,40.7826546]]]},"properties":{"kind":"lawn"}},{"type":"Feature","geometry":{"type":"Polygon","coordinates":[[[-73.9891027,40.7783932],[-73.9891428,40.7783356],[-73.9891882,40.7782802],[-73.9892349,40.7782342],[-73.98929,40.7781811],[-73.9893584,40.778114],[-73.9894069,40.7780643],[-73.9894634,40.7780004],[-73.9895244,40.7779294],[-73.9895775,40.7778588],[-73.9896301,40.7777888],[-73.9896573,40.7777466],[-73.9896797,40.7777051],[-73.9897104,40.7776993],[-73.9897383,40.7776985],[-73.9897683,40.7777051],[-73.9898108,40.7777183],[-73.9894834,40.7781638],[-73.9892659,40.7784624],[-73.9891027,40.7783932]]]},"properties":{"kind":"lawn"}},{"type":"Feature","geometry":{"type":"Polygon","coordinates":[[[-73.9887902,40.7800858],[-73.9887327,40.7800641],[-73.9886699,40.7800316],[-73.9887735,40.7798944],[-73.9888216,40.7798925],[-73.9888415,40.7800992],[-73.9887902,40.7800858]]]},"properties":{"kind":"lawn"}},{"type":"Feature","geometry":{"type":"Polygon","coordinates":[[[-73.9843402,40.7862375],[-73.9843093,40.7862651],[-73.9842744,40.7862933],[-73.9842579,40.7862915],[-73.9842584,40.7862729],[-73.9842642,40.7862383],[-73.9842662,40.7862071],[-73.9843402,40.7862375]]]},"properties":{"kind":"lawn"}},{"type":"Feature","geometry":{"type":"Polygon","coordinates":[[[-73.9845478,40.7865697],[-73.9845058,40.7866303],[-73.984484,40.7866768],[-73.9844759,40.7866858],[-73.9844573,40.7866916],[-73.9844358,40.7866913],[-73.984414,40.7866769],[-73.984384,40.7866451],[-73.9843602,40.7866074],[-73.9843538,40.7865654],[-73.984356,40.7865261],[-73.9843708,40.7864785],[-73.9843805,40.7864822],[-73.9844145,40.786481],[-73.9844888,40.7864963],[-73.9845147,40.7865158],[-73.9845608,40.7865207],[-73.9846036,40.7864981],[-73.9845478,40.7865697]]]},"properties":{"kind":"lawn"}},{"type":"Feature","geometry":{"type":"Polygon","coordinates":[[[-73.9843332,40.7864642],[-73.9843166,40.7865014],[-73.9843069,40.7865256],[-73.9843007,40.786533],[-73.9842927,40.7865325],[-73.9842721,40.7865139],[-73.9842327,40.786485],[-73.9842076,40.7864686],[-73.9842042,40.7864634],[-73.9842088,40.786453],[-73.9842287,40.7864491],[-73.984275,40.7864366],[-73.9843269,40.7864193],[-73.9843475,40.7864102],[-73.9843566,40.7864098],[-73.9843583,40.7864215],[-73.9843332,40.7864642]]]},"properties":{"kind":"lawn"}},{"type":"Feature","geometry":{"type":"Polygon","coordinates":[[[-73.9927096,40.774668],[-73.9927,40.7746845],[-73.9926833,40.7746966],[-73.9926737,40.7746894],[-73.9926621,40.7746316],[-73.9926762,40.7746239],[-73.9927173,40.7746209],[-73.9927224,40.7746331],[-73.9927096,40.774668]]]},"properties":{"kind":"lawn"}},{"type":"Feature","geometry":{"type":"Polygon","coordinates":[[[-73.9836929,40.7853425],[-73.9836154,40.7853086],[-73.9835486,40.7852618],[-73.9835057,40.7852112],[-73.9834869,40.7851661],[-73.9834812,40.7851244],[-73.9834853,40.7850846],[-73.9835057,40.7850413],[-73.9835292,40.7850039],[-73.9835428,40.7850068],[-73.9835946,40.7849536],[-73.9836491,40.7849138],[-73.9836729,40.7849018],[-73.9837021,40.7849297],[-73.9837271,40.7849653],[-73.9837429,40.7850016],[-73.9837551,40.7850379],[-73.9837628,40.7850927],[-73.9837638,40.7851298],[-73.9837638,40.7851753],[-73.9837709,40.7852321],[-73.9837842,40.7852765],[-73.9838041,40.785314],[-73.9838393,40.7853703],[-73.9838775,40.7854136],[-73.983876,40.785419],[-73.9836929,40.7853425]]]},"properties":{"kind":"lawn"}},{"type":"Feature","geometry":{"type":"Polygon","coordinates":[[[-73.9834456,40.7852259],[-73.9834379,40.7852279],[-73.9834258,40.7852243],[-73.9830453,40.7850666],[-73.9830453,40.785056],[-73.9830506,40.78505],[-73.9830633,40.7850465],[-73.9830831,40.7850395],[-73.9831145,40.7850319],[-73.983195,40.7850122],[-73.9832675,40.7849931],[-73.9833373,40.7849729],[-73.9833952,40.7849543],[-73.9834438,40.7849346],[-73.983497,40.7849145],[-73.9835211,40.7849397],[-73.983497,40.7849669],[-73.9834704,40.7849966],[-73.9834464,40.7850329],[-73.9834345,40.7850656],[-73.9834338,40.7851064],[-73.9834344,40.7851466],[-73.9834398,40.7851865],[-73.9834504,40.7852187],[-73.9834456,40.7852259]]]},"properties":{"kind":"lawn"}},{"type":"Feature","geometry":{"type":"Polygon","coordinates":[[[-73.983901,40.7853997],[-73.9838709,40.7853721],[-73.9838368,40.7853283],[-73.9838131,40.7852785],[-73.9837925,40.7852341],[-73.9837901,40.7851939],[-73.9837893,40.7851393],[-73.9837853,40.7850811],[-73.9837774,40.7850259],[-73.9837544,40.78496],[-73.9837362,40.7849162],[-73.9837207,40.7848777],[-73.983778,40.7848571],[-73.9838318,40.7848452],[-73.9838823,40.7848442],[-73.9839177,40.7848504],[-73.9839147,40.7848183],[-73.9839635,40.7848215],[-73.9840286,40.7848325],[-73.9840845,40.7848562],[-73.9841293,40.7848922],[-73.9841556,40.7849265],[-73.9841712,40.7849633],[-73.9841763,40.7850036],[-73.9841712,40.7850434],[-73.9841388,40.7851069],[-73.984058,40.7852295],[-73.9839375,40.7854143],[-73.983901,40.7853997]]]},"properties":{"kind":"lawn"}},{"type":"Feature","geometry":{"type":"Polygon","coordinates":[[[-73.9836312,40.7858445],[-73.9835785,40.7859066],[-73.9835286,40.7859414],[-73.9834739,40.7859611],[-73.9834353,40.7859722],[-73.983384,40.7859752],[-73.9833407,40.7859717],[-73.9832994,40.7859661],[-73.9832614,40.7859495],[-73.9832294,40.7859343],[-73.9831975,40.7859126],[-73.9831808,40.7858955],[-73.9832128,40.7858761],[-73.9831882,40.7858637],[-73.9831636,40.7858426],[-73.9831429,40.7858157],[-73.983133,40.7857888],[-73.9831237,40.7857527],[-73.9831232,40.7857437],[-73.9832341,40.7857189],[-73.9833427,40.7856937],[-73.9834047,40.7856796],[-73.9834619,40.7856579],[-73.9835532,40.7856201],[-73.9836445,40.7855863],[-73.9837144,40.7855656],[-73.9837657,40.785558],[-73.983801,40.7855646],[-73.9838198,40.7855779],[-73.9836312,40.7858445]]]},"properties":{"kind":"lawn"}},{"type":"Feature","geometry":{"type":"Polygon","coordinates":[[[-73.9837411,40.7855379],[-73.9836791,40.785554],[-73.9835899,40.7855812],[-73.9834933,40.7856216],[-73.983424,40.7856463],[-73.9833494,40.785669],[-73.9832787,40.7856882],[-73.9831955,40.7857043],[-73.98312,40.7857129],[-73.9831205,40.7856898],[-73.9831237,40.7856555],[-73.9831308,40.7856129],[-73.9831407,40.7855826],[-73.9831527,40.7855595],[-73.9831349,40.785552],[-73.9831482,40.7855222],[-73.9831775,40.7854915],[-73.9832121,40.7854607],[-73.9832494,40.7854365],[-73.9832827,40.7854234],[-73.983328,40.7854133],[-73.9833707,40.7854091],[-73.9834126,40.7854067],[-73.9834659,40.7854123],[-73.9835399,40.7854284],[-73.9836591,40.7854753],[-73.9837897,40.7855303],[-73.9837411,40.7855379]]]},"properties":{"kind":"lawn"}},{"type":"Feature","geometry":{"type":"Polygon","coordinates":[[[-73.9833491,40.7853544],[-73.9833459,40.7853613],[-73.9833388,40.7853643],[-73.9833221,40.7853681],[-73.9832897,40.7853777],[-73.983242,40.7853947],[-73.9832017,40.7854176],[-73.9831513,40.7854557],[-73.9831143,40.7854914],[-73.9830925,40.7855266],[-73.9830779,40.7855631],[-73.983067,40.7855906],[-73.9830331,40.7855898],[-73.9830241,40.7855185],[-73.9830062,40.7854231],[-73.9829709,40.7852899],[-73.9829564,40.7852299],[-73.9829418,40.7851936],[-73.9829463,40.7851843],[-73.982958,40.7851817],[-73.9829788,40.7851902],[-73.9833462,40.785348],[-73.9833491,40.7853544]]]},"properties":{"kind":"lawn"}},{"type":"Feature","geometry":{"type":"Polygon","coordinates":[[[-73.98423,40.7849659],[-73.9842218,40.7849482],[-73.9842016,40.7849085],[-73.9841707,40.7848703],[-73.9841347,40.7848392],[-73.9840918,40.7848134],[-73.9840356,40.7847905],[-73.983975,40.7847761],[-73.9839182,40.7847713],[-73.9838817,40.7847756],[-73.9838594,40.7847489],[-73.9839624,40.7846968],[-73.9840754,40.7846318],[-73.9841732,40.784573],[-73.9842692,40.7845118],[-73.9843935,40.7844262],[-73.9845943,40.784279],[-73.9847281,40.7841676],[-73.9848134,40.7840902],[-73.9848272,40.7840849],[-73.9848401,40.7840911],[-73.9848008,40.784153],[-73.9842419,40.7849642],[-73.98423,40.7849659]]]},"properties":{"kind":"lawn"}},{"type":"Feature","geometry":{"type":"Polygon","coordinates":[[[-73.9829732,40.7871198],[-73.9829909,40.7870371],[-73.9830111,40.7869028],[-73.9830306,40.7867489],[-73.9830489,40.7865926],[-73.9830647,40.7863507],[-73.9830685,40.786105],[-73.9830603,40.7859272],[-73.9830597,40.7858942],[-73.983097,40.7858878],[-73.9831304,40.7859215],[-73.9831828,40.7859583],[-73.9832364,40.785987],[-73.9833021,40.7860061],[-73.9833722,40.7860137],[-73.9834429,40.7860094],[-73.9834959,40.7859951],[-73.9835275,40.7860018],[-73.9835243,40.7860104],[-73.9834486,40.7861481],[-73.9833596,40.7863268],[-73.9831727,40.7867221],[-73.9830685,40.7869788],[-73.9830112,40.7871287],[-73.9829732,40.7871198]]]},"properties":{"kind":"lawn"}},{"type":"Feature","geometry":{"type":"Polygon","coordinates":[[[-73.9960678,40.772392],[-73.9960772,40.7723556],[-73.9960673,40.772275],[-73.9963938,40.772321],[-73.9964275,40.7723374],[-73.9964947,40.7724368],[-73.9964524,40.7725108],[-73.9964264,40.7725058],[-73.996409,40.7725428],[-73.9962517,40.7725058],[-73.9961997,40.7724549],[-73.9960478,40.7724253],[-73.9960678,40.772392]]]},"properties":{"kind":"lawn"}},{"type":"Feature","geometry":{"type":"Polygon","coordinates":[[[-73.9879314,40.7708318],[-73.9878649,40.7708056],[-73.9878805,40.770783],[-73.9878614,40.7707755],[-73.987886,40.7707398],[-73.9879069,40.7707481],[-73.9879222,40.7707259],[-73.9879893,40.7707523],[-73.9879785,40.7707691],[-73.9879579,40.7707752],[-73.9879471,40.7707835],[-73.9879382,40.7707968],[-73.9879366,40.7708101],[-73.9879405,40.7708212],[-73.9879314,40.7708318]]]},"properties":{"kind":"lawn"}},{"type":"Feature","geometry":{"type":"Polygon","coordinates":[[[-73.9890405,40.7708936],[-73.989089,40.7708266],[-73.9891377,40.7708469],[-73.9891878,40.7707776],[-73.9895567,40.7709306],[-73.9895046,40.7710027],[-73.9896173,40.7710495],[-73.9895708,40.7711137],[-73.9890405,40.7708936]]]},"properties":{"kind":"lawn"}},{"type":"Feature","geometry":{"type":"Polygon","coordinates":[[[-73.9892413,40.7707673],[-73.9893222,40.7706572],[-73.9895961,40.7707727],[-73.9895152,40.7708827],[-73.9892413,40.7707673]]]},"properties":{"kind":"lawn"}},{"type":"Feature","geometry":{"type":"Polygon","coordinates":[[[-73.9892539,40.770596],[-73.9893307,40.7704911],[-73.9898622,40.7707144],[-73.9897854,40.7708192],[-73.9892539,40.770596]]]},"properties":{"kind":"lawn"}},{"type":"Feature","geometry":{"type":"Polygon","coordinates":[[[-73.962379,40.8087878],[-73.9623307,40.8088548],[-73.9620667,40.8087418],[-73.9622029,40.8085578],[-73.9626321,40.8087398],[-73.9625456,40.8088567],[-73.962379,40.8087878]]]},"properties":{"kind":"lawn"}},{"type":"Feature","geometry":{"type":"Polygon","coordinates":[[[-73.962357,40.8091003],[-73.9621025,40.8089952],[-73.96214,40.8089432],[-73.9619749,40.808875],[-73.9620506,40.8087699],[-73.9623119,40.8088802],[-73.9622757,40.8089269],[-73.9624333,40.8089944],[-73.962357,40.8091003]]]},"properties":{"kind":"lawn"}},{"type":"Feature","geometry":{"type":"Polygon","coordinates":[[[-73.9936179,40.7734857],[-73.9935773,40.7735325],[-73.9935861,40.7735365],[-73.9935634,40.7735595],[-73.993557,40.7735557],[-73.9935111,40.7735972],[-73.9935174,40.7736017],[-73.9934683,40.7736386],[-73.9934616,40.7736341],[-73.9934053,40.7736683],[-73.9934102,40.7736736],[-73.9933832,40.7736894],[-73.9933773,40.7736829],[-73.9933181,40.7737138],[-73.9933218,40.7737199],[-73.9931487,40.7738175],[-73.993213,40.7738742],[-73.9932199,40.7738924],[-73.9932174,40.7739184],[-73.9932113,40.7739405],[-73.9931688,40.7740199],[-73.993069,40.7741581],[-73.9929933,40.7742521],[-73.9929182,40.7742467],[-73.992807,40.7741866],[-73.9928035,40.7741779],[-73.9928056,40.7741695],[-73.9928364,40.7741363],[-73.9928507,40.7741152],[-73.9928524,40.7740951],[-73.9930557,40.7738868],[-73.9930403,40.7738706],[-73.9929697,40.7738276],[-73.9933407,40.7733246],[-73.9935631,40.7732455],[-73.9936276,40.7732773],[-73.9936775,40.7733557],[-73.9936737,40.7734123],[-73.9936253,40.7734883],[-73.9936179,40.7734857]],[[-73.993538,40.7734708],[-73.9935489,40.7734705],[-73.9935569,40.7734658],[-73.9935626,40.7734593],[-73.993565,40.7734506],[-73.9935622,40.7734403],[-73.9935504,40.7734204],[-73.9935453,40.7734107],[-73.9935428,40.7734046],[-73.9935153,40.7733726],[-73.9934458,40.7734132],[-73.9934552,40.7734219],[-73.9934621,40.7734337],[-73.9934795,40.7734362],[-73.993538,40.7734708]]]},"properties":{"kind":"lawn"}}]}