{"type":"FeatureCollection","features":[{"type":"Feature","properties":{"name":"LINCOLN SQUARE"},"geometry":{"type":"Point","coordinates":[-73.98682892992228,40.7741772597478]}},{"type":"Feature","properties":{"name":"UPPER WEST SIDE"},"geometry":{"type":"Point","coordinates":[-73.97775427748016,40.78708820141679]}},{"type":"Feature","properties":{"name":"UPPER WEST SIDE"},"geometry":{"type":"Point","coordinates":[-73.96814368912241,40.798935927517135]}},{"type":"Feature","properties":{"name":"MORNINGSIDE HEIGHTS"},"geometry":{"type":"Point","coordinates":[-73.96315940081347,40.80682358588947]}},{"type":"Feature","properties":{"name":"MANHATTANVILLE"},"geometry":{"type":"Point","coordinates":[-73.95649471445515,40.81738569656609]}},{"type":"Feature","properties":{"name":"HAMILTON HEIGHTS"},"geometry":{"type":"Point","coordinates":[-73.94804644766191,40.826299455605366]}}]}