{"type":"FeatureCollection","features":[{"type":"Feature","properties":{"name":"Firemen's Memorial"},"geometry":{"type":"Point","coordinates":[-73.9732326,40.7986199]}},{"type":"Feature","properties":{"name":"Joan of Arc"},"geometry":{"type":"Point","coordinates":[-73.9764799,40.7941111]}},{"type":"Feature","properties":{"name":"West Harlem Piers"},"geometry":{"type":"Point","coordinates":[-73.9618999,40.8181055]}},{"type":"Feature","properties":{"name":"Riverbank State Park"},"geometry":{"type":"Point","coordinates":[-73.9549815,40.8273768]}},{"type":"Feature","properties":{"name":"Grant's Tomb"},"geometry":{"type":"Point","coordinates":[-73.9630467,40.8134395]}},{"type":"Feature","properties":{"name":"Eleanor Roosevelt Monument"},"geometry":{"type":"Point","coordinates":[-73.9857836,40.7806464]}},{"type":"Feature","properties":{"name":"Pier I"},"geometry":{"type":"Point","coordinates":[-73.9904624602539,40.77973405]}},{"type":"Feature","properties":{"name":"Sakura Park"},"geometry":{"type":"Point","coordinates":[-73.96215146973141,40.8129879]}},{"type":"Feature","properties":{"name":"Riverside Church"},"geometry":{"type":"Point","coordinates":[-73.96314461762454,40.8117872]}},{"type":"Feature","properties":{"name":"Soldiers' and Sailors' Monument"},"geometry":{"type":"Point","coordinates":[-73.97892752347826,40.792091049999996]}},{"type":"Feature","properties":{"name":"79th Street Boat Basin"},"geometry":{"type":"Point","coordinates":[-73.9860010931234,40.7856757]}}]}