{"type":"FeatureCollection","features":[{"type":"Feature","geometry":{"type":"Polygon","coordinates":[[[-73.9953107,40.7711977],[-73.9951239,40.7714594],[-73.9950023,40.7714494],[-73.9949785,40.7714521],[-73.9949592,40.7714617],[-73.9949441,40.7714759],[-73.9949358,40.7714928],[-73.9949353,40.7715085],[-73.9949377,40.7715309],[-73.9950076,40.771599],[-73.995022,40.7716115],[-73.9949779,40.7716623],[-73.9970852,40.7725347],[-73.9968652,40.7728343],[-73.9965127,40.7726807],[-73.9959701,40.7724514],[-73.9947747,40.7719351],[-73.9944522,40.7723825],[-73.9962345,40.7731387],[-73.9961294,40.7732796],[-73.994237,40.7724949],[-73.993895,40.7729587],[-73.9939688,40.7729454],[-73.9940005,40.772899],[-73.9940286,40.7728912],[-73.9943801,40.7730436],[-73.9942903,40.7731645],[-73.9950176,40.7734848],[-73.9950878,40.7733931],[-73.9950111,40.773361],[-73.995054,40.7733017],[-73.9962316,40.7738033],[-73.9961911,40.7738577],[-73.9961451,40.7738376],[-73.9960973,40.7739027],[-73.9961454,40.773924],[-73.9961179,40.7739598],[-73.9961839,40.7739879],[-73.9960986,40.7741013],[-73.9939457,40.7731851],[-73.9938717,40.7732498],[-73.99385,40.7733033],[-73.9938188,40.7733468],[-73.9937575,40.773382],[-73.9937518,40.7734494],[-73.9937283,40.7735013],[-73.9936896,40.7735645],[-73.9936354,40.7736194],[-73.993585,40.7736624],[-73.9934922,40.7737536],[-73.9933877,40.773864],[-73.9933192,40.7739678],[-73.9932521,40.7740613],[-73.9931068,40.7742835],[-73.9929799,40.7744635],[-73.9926232,40.7749669],[-73.992512,40.7749771],[-73.9924744,40.7750394],[-73.9924589,40.7751125],[-73.9924516,40.7751938],[-73.9924596,40.7752634],[-73.9924698,40.7753484],[-73.992457,40.7754402],[-73.9924111,40.7755264],[-73.9923551,40.7756067],[-73.992121,40.7759205],[-73.9920229,40.7760529],[-73.9918772,40.7762496],[-73.9918607,40.7762723],[-73.9917931,40.7763657],[-73.9913311,40.7770032],[-73.9909283,40.7775591],[-73.9903936,40.7775806],[-73.9888616,40.7797199],[-73.9892222,40.7797068],[-73.9892657,40.7797282],[-73.9893137,40.7797391],[-73.9894116,40.7797453],[-73.9895059,40.7797315],[-73.9895952,40.7796963],[-73.9897266,40.7796741],[-73.9898499,40.7796749],[-73.9899479,40.7797017],[-73.9900795,40.7797116],[-73.9901865,40.7796951],[-73.9902849,40.7796731],[-73.9904075,40.779669],[-73.9905426,40.7796789],[-73.9906599,40.7796853],[-73.9907562,40.779677],[-73.9908577,40.7796496],[-73.9909548,40.7796375],[-73.9910571,40.7796513],[-73.991165,40.7796747],[-73.9912548,40.7796671],[-73.9912787,40.7796384],[-73.9913278,40.7796382],[-73.9913547,40.7795926],[-73.9915503,40.7795765],[-73.9914208,40.7797557],[-73.988885,40.7798859],[-73.9889051,40.7801052],[-73.9889065,40.7801162],[-73.9889073,40.7801288],[-73.9889166,40.7802304],[-73.9882223,40.7812276],[-73.9881472,40.781378],[-73.9880798,40.7815131],[-73.9880405,40.7815946],[-73.988018,40.7816431],[-73.9880025,40.7816773],[-73.9879357,40.7818277],[-73.9878942,40.7818869],[-73.9876405,40.7822486],[-73.9869408,40.7832625],[-73.9860918,40.7844976],[-73.9859158,40.7847408],[-73.9857527,40.7849775],[-73.9854782,40.7853757],[-73.9855448,40.7854424],[-73.9859701,40.7849604],[-73.985956,40.7849517],[-73.9861841,40.7846631],[-73.9869498,40.7850015],[-73.9870188,40.7849085],[-73.9870421,40.7849187],[-73.9868943,40.7851226],[-73.9868762,40.7851154],[-73.9868626,40.78511],[-73.9869257,40.7850248],[-73.9861909,40.7846973],[-73.9859993,40.7849357],[-73.9860205,40.7849449],[-73.9859319,40.7850455],[-73.9866669,40.785409],[-73.9867443,40.7853172],[-73.9867629,40.7853256],[-73.9866694,40.7854369],[-73.9859123,40.7850648],[-73.9855613,40.7854565],[-73.9861756,40.7860704],[-73.9864552,40.785925],[-73.9870743,40.7851874],[-73.9871243,40.78521],[-73.9864987,40.7859571],[-73.9861675,40.7861284],[-73.9861258,40.7862447],[-73.9860735,40.786245],[-73.9860291,40.7862355],[-73.9860968,40.7860627],[-73.9854479,40.785419],[-73.9850878,40.7859324],[-73.9852022,40.7859776],[-73.9851901,40.7859954],[-73.9851755,40.7860166],[-73.9852258,40.7860365],[-73.9856875,40.7862319],[-73.9857212,40.7861869],[-73.9857683,40.7862071],[-73.9856858,40.7863173],[-73.9856386,40.7862971],[-73.985673,40.7862512],[-73.9852126,40.7860572],[-73.9852174,40.7860498],[-73.9851668,40.7860292],[-73.9851367,40.7860727],[-73.9851209,40.7860664],[-73.9850224,40.7860274],[-73.9847162,40.7864723],[-73.9847885,40.7865437],[-73.9857464,40.7865808],[-73.985896,40.7864392],[-73.9859378,40.7864645],[-73.9859411,40.7865033],[-73.9858145,40.7866234],[-73.9846368,40.7865799],[-73.9844804,40.7868151],[-73.984363,40.7869822],[-73.9840943,40.7873648],[-73.9835893,40.7880976],[-73.9832848,40.7885399],[-73.9831259,40.7887706],[-73.982699,40.7893638],[-73.9825791,40.7895387],[-73.9820776,40.7902533],[-73.9819211,40.7904706],[-73.9817689,40.7907281],[-73.98166,40.7908502],[-73.9816105,40.7909057],[-73.9806832,40.792207],[-73.980479,40.7925006],[-73.9804271,40.7925844],[-73.9803555,40.7926999],[-73.9801074,40.7930555],[-73.9788245,40.7948573],[-73.977426,40.7968137],[-73.9769366,40.797513],[-73.9764437,40.7982386],[-73.9758665,40.7990343],[-73.9752586,40.79994],[-73.9740534,40.8016588],[-73.9733677,40.8026374],[-73.9722195,40.8042852],[-73.9720047,40.8045774],[-73.9719616,40.8046141],[-73.9718962,40.8046591],[-73.9718476,40.8047142],[-73.9715529,40.8051561],[-73.9712526,40.8055926],[-73.9703797,40.8067654],[-73.9696305,40.8077745],[-73.9690772,40.8084921],[-73.9690198,40.8085609],[-73.9688905,40.8087075],[-73.9685318,40.8092369],[-73.9684911,40.8093033],[-73.9680455,40.8099837],[-73.967742,40.8104686],[-73.9675863,40.8106939],[-73.9675109,40.8108425],[-73.9671013,40.8114583],[-73.9667745,40.8119184],[-73.9666125,40.8121854],[-73.9664954,40.812374],[-73.9664009,40.8124913],[-73.966189,40.8128034],[-73.9659625,40.8131246],[-73.9655445,40.8136568],[-73.9653507,40.8139514],[-73.9651916,40.8141507],[-73.9648452,40.8147366],[-73.9643967,40.8154139],[-73.9641769,40.8157223],[-73.963839,40.8161481],[-73.9634745,40.8165576],[-73.9631297,40.8169283],[-73.96292,40.8171787],[-73.9620853,40.8180299],[-73.9619779,40.8181562],[-73.9615715,40.8186124],[-73.9615417,40.8186479],[-73.9613417,40.8188804],[-73.961188,40.8190591],[-73.9611707,40.8190724],[-73.9611551,40.8190851],[-73.9605236,40.8198029],[-73.9604069,40.8199354],[-73.9604312,40.8199545],[-73.9603322,40.8200144],[-73.960004,40.8203832],[-73.9598263,40.8203005],[-73.9596995,40.8204718],[-73.9596787,40.8204618],[-73.9586676,40.8217773],[-73.9582766,40.8222451],[-73.9581787,40.8223733],[-73.9581714,40.8224351],[-73.9581513,40.8224949],[-73.9581149,40.8225569],[-73.9579453,40.8227757],[-73.9582337,40.8228973],[-73.9581498,40.8230204],[-73.959591,40.8236389],[-73.9580261,40.826011],[-73.9572789,40.8271388],[-73.9569686,40.8270244],[-73.9563188,40.8279644],[-73.9550126,40.8274618],[-73.9546914,40.8279332],[-73.9545942,40.8278884],[-73.9546149,40.8278598],[-73.9545637,40.8278744],[-73.9545332,40.8279188],[-73.9544739,40.8280194],[-73.9543766,40.8281581],[-73.9543076,40.8282282],[-73.9542378,40.8283281],[-73.9541707,40.8283938],[-73.9540424,40.8284686],[-73.9540117,40.8284971],[-73.9539383,40.8285984],[-73.953446,40.8293651],[-73.9532286,40.8297426],[-73.9525781,40.8307109],[-73.9522913,40.8311318],[-73.9510589,40.8329458],[-73.9510305,40.8330664],[-73.9509333,40.8332484],[-73.9508311,40.8334107],[-73.9507417,40.8335752],[-73.9505025,40.8338989],[-73.9504219,40.8340085],[-73.9504079,40.8340434],[-73.9503885,40.8340907],[-73.9503621,40.8341332],[-73.9503245,40.8341664],[-73.9502983,40.8341973],[-73.9502851,40.8342316],[-73.9502622,40.8342732],[-73.950201,40.8343293],[-73.9501551,40.8344141],[-73.9501292,40.8344737],[-73.9501226,40.8345331],[-73.9501097,40.8346029],[-73.9500962,40.8346597],[-73.9500745,40.8347157],[-73.95005,40.8347812],[-73.9500261,40.8348415],[-73.9499934,40.8349385],[-73.94994389118963,40.835132798727464],[-73.94263494780874,40.83205144901315],[-73.94248433391598,40.83198038036531],[-73.94234361677043,40.831898440725276],[-73.94221415158243,40.831806419254725],[-73.94209718517949,40.83170520221015],[-73.94199384399838,40.83159576440616],[-73.94190512323742,40.83147915982609],[-73.94183187727351,40.83135651146998],[-73.94177481143605,40.83122900053832],[-73.94173447521682,40.83109785505511],[-73.94171125698138,40.830964338040594],[-73.94170538023243,40.830829735346825],[-73.9417169014613,40.83069534327396],[-73.94174570960797,40.830562456086035],[-73.94179152713458,40.830432353546605],[-73.94185391270219,40.830306288594535],[-73.94193226542448,40.830185475278206],[-73.98661114489472,40.76899238009972],[-73.98670454739668,40.76887794454194],[-73.9868122531703,40.76877102029652],[-73.98693322492271,40.76867263706422],[-73.98706629762273,40.76858374228992],[-73.98721018972107,40.76850519203972],[-73.98736351549167,40.76843774275802],[-73.9875247983759,40.76838204398401],[-73.98769248520048,40.76833863209757],[-73.98786496113283,40.768307925154765],[-73.9880405652295,40.76829021886276],[-73.98821760642839,40.76828568373244],[-73.98839437983078,40.76829436343698],[-73.98856918311625,40.76831617439115],[-73.9887403329331,40.76835090655617],[-73.98890618110609,40.76839822546202],[-73.98906513050571,40.76845767542772],[-73.99537160065184,40.77111564167714],[-73.9953107,40.7711977]]]},"properties":{}}]}