{"type":"FeatureCollection","features":[{"type":"Feature","properties":{"kind":"bikepark","x":2},"geometry":{"type":"Point","coordinates":[-73.985918,40.780332]}},{"type":"Feature","properties":{"kind":"bikepark","x":2},"geometry":{"type":"Point","coordinates":[-73.966295,40.808296]}},{"type":"Feature","properties":{"kind":"bikepark","x":2},"geometry":{"type":"Point","coordinates":[-73.964895,40.809965]}},{"type":"Feature","properties":{"kind":"bikepark","x":2},"geometry":{"type":"Point","coordinates":[-73.9619,40.818106]}},{"type":"Feature","properties":{"kind":"gate","x":2},"geometry":{"type":"Point","coordinates":[-73.962962,40.812486]}},{"type":"Feature","properties":{"kind":"gate","x":2},"geometry":{"type":"Point","coordinates":[-73.965695,40.811386]}},{"type":"Feature","properties":{"kind":"gate","x":2},"geometry":{"type":"Point","coordinates":[-73.958638,40.82174]}},{"type":"Feature","properties":{"kind":"gate","x":2},"geometry":{"type":"Point","coordinates":[-73.986576,40.781393]}},{"type":"Feature","properties":{"kind":"bench","x":2},"geometry":{"type":"Point","coordinates":[-73.99146,40.779654]}},{"type":"Feature","properties":{"kind":"bench","x":2},"geometry":{"type":"Point","coordinates":[-73.990949,40.779675]}},{"type":"Feature","properties":{"kind":"bench","x":2},"geometry":{"type":"Point","coordinates":[-73.991,40.779675]}},{"type":"Feature","properties":{"kind":"bench","x":2},"geometry":{"type":"Point","coordinates":[-73.991038,40.779678]}},{"type":"Feature","properties":{"kind":"bench","x":2},"geometry":{"type":"Point","coordinates":[-73.991434,40.77969]}},{"type":"Feature","properties":{"kind":"bench","x":2},"geometry":{"type":"Point","coordinates":[-73.990369,40.779697]}},{"type":"Feature","properties":{"kind":"bench","x":2},"geometry":{"type":"Point","coordinates":[-73.990328,40.779699]}},{"type":"Feature","properties":{"kind":"bench","x":2},"geometry":{"type":"Point","coordinates":[-73.990287,40.779703]}},{"type":"Feature","properties":{"kind":"bench","x":2},"geometry":{"type":"Point","coordinates":[-73.991203,40.779749]}},{"type":"Feature","properties":{"kind":"bench","x":2},"geometry":{"type":"Point","coordinates":[-73.991137,40.779752]}},{"type":"Feature","properties":{"kind":"bench","x":2},"geometry":{"type":"Point","coordinates":[-73.991015,40.779757]}},{"type":"Feature","properties":{"kind":"bench","x":2},"geometry":{"type":"Point","coordinates":[-73.990953,40.779763]}},{"type":"Feature","properties":{"kind":"bench","x":2},"geometry":{"type":"Point","coordinates":[-73.990812,40.779768]}},{"type":"Feature","properties":{"kind":"bench","x":2},"geometry":{"type":"Point","coordinates":[-73.990624,40.779777]}},{"type":"Feature","properties":{"kind":"bench","x":2},"geometry":{"type":"Point","coordinates":[-73.990281,40.779795]}},{"type":"Feature","properties":{"kind":"bench","x":2},"geometry":{"type":"Point","coordinates":[-73.99023,40.779799]}},{"type":"Feature","properties":{"kind":"bench","x":2},"geometry":{"type":"Point","coordinates":[-73.990042,40.779808]}},{"type":"Feature","properties":{"kind":"bench","x":2},"geometry":{"type":"Point","coordinates":[-73.989892,40.779817]}},{"type":"Feature","properties":{"kind":"bench","x":2},"geometry":{"type":"Point","coordinates":[-73.9898,40.779823]}},{"type":"Feature","properties":{"kind":"bench","x":2},"geometry":{"type":"Point","coordinates":[-73.989526,40.779834]}},{"type":"Feature","properties":{"kind":"bikepark","x":2},"geometry":{"type":"Point","coordinates":[-73.965768,40.81133]}},{"type":"Feature","properties":{"kind":"bench","x":2},"geometry":{"type":"Point","coordinates":[-73.961961,40.815525]}},{"type":"Feature","properties":{"kind":"gate","x":2},"geometry":{"type":"Point","coordinates":[-73.970644,40.801316]}},{"type":"Feature","properties":{"kind":"bench","x":2},"geometry":{"type":"Point","coordinates":[-73.989383,40.778702]}},{"type":"Feature","properties":{"kind":"gate","x":2},"geometry":{"type":"Point","coordinates":[-73.956004,40.823008]}},{"type":"Feature","properties":{"kind":"bikepark","x":2},"geometry":{"type":"Point","coordinates":[-73.985004,40.786023]}},{"type":"Feature","properties":{"kind":"bikepark","x":2},"geometry":{"type":"Point","coordinates":[-73.989578,40.777164]}},{"type":"Feature","properties":{"kind":"bikepark","x":2},"geometry":{"type":"Point","coordinates":[-73.985211,40.785614]}},{"type":"Feature","properties":{"kind":"bikepark","x":2},"geometry":{"type":"Point","coordinates":[-73.976698,40.797695]}},{"type":"Feature","properties":{"kind":"bench","x":2},"geometry":{"type":"Point","coordinates":[-73.989791,40.776247]}},{"type":"Feature","properties":{"kind":"bench","x":2},"geometry":{"type":"Point","coordinates":[-73.989685,40.777116]}},{"type":"Feature","properties":{"kind":"bench","x":2},"geometry":{"type":"Point","coordinates":[-73.989755,40.777014]}},{"type":"Feature","properties":{"kind":"bikepark","x":2},"geometry":{"type":"Point","coordinates":[-73.988907,40.779428]}},{"type":"Feature","properties":{"kind":"bench","x":2},"geometry":{"type":"Point","coordinates":[-73.986173,40.783676]}},{"type":"Feature","properties":{"kind":"bench","x":2},"geometry":{"type":"Point","coordinates":[-73.98627,40.783598]}},{"type":"Feature","properties":{"kind":"bench","x":2},"geometry":{"type":"Point","coordinates":[-73.986562,40.783139]}},{"type":"Feature","properties":{"kind":"bench","x":2},"geometry":{"type":"Point","coordinates":[-73.986519,40.783239]}},{"type":"Feature","properties":{"kind":"bench","x":2},"geometry":{"type":"Point","coordinates":[-73.986304,40.783264]}},{"type":"Feature","properties":{"kind":"bench","x":2},"geometry":{"type":"Point","coordinates":[-73.986185,40.783449]}},{"type":"Feature","properties":{"kind":"bench","x":2},"geometry":{"type":"Point","coordinates":[-73.985806,40.780746]}},{"type":"Feature","properties":{"kind":"bench","x":2},"geometry":{"type":"Point","coordinates":[-73.985922,40.780603]}},{"type":"Feature","properties":{"kind":"bench","x":2},"geometry":{"type":"Point","coordinates":[-73.985655,40.78084]}},{"type":"Feature","properties":{"kind":"bench","x":2},"geometry":{"type":"Point","coordinates":[-73.985606,40.780957]}},{"type":"Feature","properties":{"kind":"bench","x":2},"geometry":{"type":"Point","coordinates":[-73.985557,40.781074]}},{"type":"Feature","properties":{"kind":"bench","x":2},"geometry":{"type":"Point","coordinates":[-73.985506,40.781195]}},{"type":"Feature","properties":{"kind":"bench","x":2},"geometry":{"type":"Point","coordinates":[-73.985461,40.781297]}},{"type":"Feature","properties":{"kind":"bench","x":2},"geometry":{"type":"Point","coordinates":[-73.985412,40.781428]}},{"type":"Feature","properties":{"kind":"bench","x":2},"geometry":{"type":"Point","coordinates":[-73.985368,40.781549]}},{"type":"Feature","properties":{"kind":"bench","x":2},"geometry":{"type":"Point","coordinates":[-73.98533,40.78167]}},{"type":"Feature","properties":{"kind":"bench","x":2},"geometry":{"type":"Point","coordinates":[-73.985217,40.782039]}},{"type":"Feature","properties":{"kind":"bench","x":2},"geometry":{"type":"Point","coordinates":[-73.985183,40.782149]}},{"type":"Feature","properties":{"kind":"bench","x":2},"geometry":{"type":"Point","coordinates":[-73.985144,40.782273]}},{"type":"Feature","properties":{"kind":"bench","x":2},"geometry":{"type":"Point","coordinates":[-73.985108,40.782399]}},{"type":"Feature","properties":{"kind":"bench","x":2},"geometry":{"type":"Point","coordinates":[-73.985069,40.782524]}},{"type":"Feature","properties":{"kind":"bench","x":2},"geometry":{"type":"Point","coordinates":[-73.985031,40.782638]}},{"type":"Feature","properties":{"kind":"bench","x":2},"geometry":{"type":"Point","coordinates":[-73.984109,40.78389]}},{"type":"Feature","properties":{"kind":"bench","x":2},"geometry":{"type":"Point","coordinates":[-73.983927,40.784048]}},{"type":"Feature","properties":{"kind":"bench","x":2},"geometry":{"type":"Point","coordinates":[-73.983708,40.784212]}},{"type":"Feature","properties":{"kind":"gate","x":2},"geometry":{"type":"Point","coordinates":[-73.98219,40.787384]}},{"type":"Feature","properties":{"kind":"gate","x":2},"geometry":{"type":"Point","coordinates":[-73.981961,40.787328]}},{"type":"Feature","properties":{"kind":"bench","x":2},"geometry":{"type":"Point","coordinates":[-73.984672,40.78316]}},{"type":"Feature","properties":{"kind":"bench","x":2},"geometry":{"type":"Point","coordinates":[-73.984543,40.783347]}},{"type":"Feature","properties":{"kind":"bench","x":2},"geometry":{"type":"Point","coordinates":[-73.983868,40.787138]}},{"type":"Feature","properties":{"kind":"bench","x":2},"geometry":{"type":"Point","coordinates":[-73.98861,40.778922]}},{"type":"Feature","properties":{"kind":"bikepark","x":2},"geometry":{"type":"Point","coordinates":[-73.989366,40.777558]}},{"type":"Feature","properties":{"kind":"bench","x":2},"geometry":{"type":"Point","coordinates":[-73.989281,40.777593]}},{"type":"Feature","properties":{"kind":"bench","x":2},"geometry":{"type":"Point","coordinates":[-73.989125,40.777528]}},{"type":"Feature","properties":{"kind":"bench","x":2},"geometry":{"type":"Point","coordinates":[-73.9891,40.777563]}},{"type":"Feature","properties":{"kind":"bench","x":2},"geometry":{"type":"Point","coordinates":[-73.989256,40.777629]}},{"type":"Feature","properties":{"kind":"bench","x":2},"geometry":{"type":"Point","coordinates":[-73.964245,40.811393]}},{"type":"Feature","properties":{"kind":"bench","x":2},"geometry":{"type":"Point","coordinates":[-73.989741,40.77703]}},{"type":"Feature","properties":{"kind":"bench","x":2},"geometry":{"type":"Point","coordinates":[-73.989765,40.776997]}},{"type":"Feature","properties":{"kind":"bench","x":2},"geometry":{"type":"Point","coordinates":[-73.989698,40.777095]}},{"type":"Feature","properties":{"kind":"bench","x":2},"geometry":{"type":"Point","coordinates":[-73.989674,40.77713]}},{"type":"Feature","properties":{"kind":"bench","x":2},"geometry":{"type":"Point","coordinates":[-73.990005,40.776547]}},{"type":"Feature","properties":{"kind":"bench","x":2},"geometry":{"type":"Point","coordinates":[-73.990012,40.776522]}},{"type":"Feature","properties":{"kind":"bench","x":2},"geometry":{"type":"Point","coordinates":[-73.990039,40.776411]}},{"type":"Feature","properties":{"kind":"bench","x":2},"geometry":{"type":"Point","coordinates":[-73.990043,40.776388]}},{"type":"Feature","properties":{"kind":"bench","x":2},"geometry":{"type":"Point","coordinates":[-73.990047,40.776324]}},{"type":"Feature","properties":{"kind":"bench","x":2},"geometry":{"type":"Point","coordinates":[-73.990048,40.776298]}},{"type":"Feature","properties":{"kind":"bench","x":2},"geometry":{"type":"Point","coordinates":[-73.965746,40.811367]}},{"type":"Feature","properties":{"kind":"bench","x":2},"geometry":{"type":"Point","coordinates":[-73.967699,40.805667]}},{"type":"Feature","properties":{"kind":"bench","x":2},"geometry":{"type":"Point","coordinates":[-73.967697,40.805639]}},{"type":"Feature","properties":{"kind":"bench","x":2},"geometry":{"type":"Point","coordinates":[-73.967696,40.805615]}},{"type":"Feature","properties":{"kind":"bench","x":2},"geometry":{"type":"Point","coordinates":[-73.967767,40.805568]}},{"type":"Feature","properties":{"kind":"bench","x":2},"geometry":{"type":"Point","coordinates":[-73.967759,40.805589]}},{"type":"Feature","properties":{"kind":"bench","x":2},"geometry":{"type":"Point","coordinates":[-73.967751,40.805615]}},{"type":"Feature","properties":{"kind":"bench","x":2},"geometry":{"type":"Point","coordinates":[-73.967749,40.805639]}},{"type":"Feature","properties":{"kind":"bench","x":2},"geometry":{"type":"Point","coordinates":[-73.967752,40.805665]}},{"type":"Feature","properties":{"kind":"bench","x":2},"geometry":{"type":"Point","coordinates":[-73.967832,40.805401]}},{"type":"Feature","properties":{"kind":"bench","x":2},"geometry":{"type":"Point","coordinates":[-73.967852,40.805419]}},{"type":"Feature","properties":{"kind":"gate","x":2},"geometry":{"type":"Point","coordinates":[-73.968294,40.804392]}},{"type":"Feature","properties":{"kind":"bench","x":2},"geometry":{"type":"Point","coordinates":[-73.971788,40.800096]}},{"type":"Feature","properties":{"kind":"bench","x":2},"geometry":{"type":"Point","coordinates":[-73.971713,40.800188]}},{"type":"Feature","properties":{"kind":"bikepark","x":2},"geometry":{"type":"Point","coordinates":[-73.97291,40.802151]}},{"type":"Feature","properties":{"kind":"gate","x":2},"geometry":{"type":"Point","coordinates":[-73.95603,40.823004]}},{"type":"Feature","properties":{"kind":"bench","x":2},"geometry":{"type":"Point","coordinates":[-73.97283,40.79908]}},{"type":"Feature","properties":{"kind":"bench","x":2},"geometry":{"type":"Point","coordinates":[-73.961832,40.81541]}},{"type":"Feature","properties":{"kind":"bench","x":2},"geometry":{"type":"Point","coordinates":[-73.961818,40.815438]}},{"type":"Feature","properties":{"kind":"bench","x":2},"geometry":{"type":"Point","coordinates":[-73.961797,40.815472]}},{"type":"Feature","properties":{"kind":"bench","x":2},"geometry":{"type":"Point","coordinates":[-73.961787,40.815493]}},{"type":"Feature","properties":{"kind":"bench","x":2},"geometry":{"type":"Point","coordinates":[-73.961784,40.815511]}},{"type":"Feature","properties":{"kind":"bench","x":2},"geometry":{"type":"Point","coordinates":[-73.961803,40.815519]}},{"type":"Feature","properties":{"kind":"bench","x":2},"geometry":{"type":"Point","coordinates":[-73.961832,40.815548]}},{"type":"Feature","properties":{"kind":"bench","x":2},"geometry":{"type":"Point","coordinates":[-73.961853,40.815563]}},{"type":"Feature","properties":{"kind":"bench","x":2},"geometry":{"type":"Point","coordinates":[-73.96188,40.815572]}},{"type":"Feature","properties":{"kind":"bench","x":2},"geometry":{"type":"Point","coordinates":[-73.961906,40.815581]}},{"type":"Feature","properties":{"kind":"bench","x":2},"geometry":{"type":"Point","coordinates":[-73.961934,40.815577]}},{"type":"Feature","properties":{"kind":"bench","x":2},"geometry":{"type":"Point","coordinates":[-73.961932,40.815515]}},{"type":"Feature","properties":{"kind":"bench","x":2},"geometry":{"type":"Point","coordinates":[-73.961906,40.815504]}},{"type":"Feature","properties":{"kind":"bench","x":2},"geometry":{"type":"Point","coordinates":[-73.961873,40.815495]}},{"type":"Feature","properties":{"kind":"bench","x":2},"geometry":{"type":"Point","coordinates":[-73.961877,40.815467]}},{"type":"Feature","properties":{"kind":"bench","x":2},"geometry":{"type":"Point","coordinates":[-73.961908,40.815478]}},{"type":"Feature","properties":{"kind":"bench","x":2},"geometry":{"type":"Point","coordinates":[-73.961937,40.815488]}},{"type":"Feature","properties":{"kind":"bench","x":2},"geometry":{"type":"Point","coordinates":[-73.961967,40.815498]}},{"type":"Feature","properties":{"kind":"bench","x":2},"geometry":{"type":"Point","coordinates":[-73.961849,40.81538]}},{"type":"Feature","properties":{"kind":"bench","x":2},"geometry":{"type":"Point","coordinates":[-73.961857,40.815353]}},{"type":"Feature","properties":{"kind":"bench","x":2},"geometry":{"type":"Point","coordinates":[-73.961864,40.815323]}},{"type":"Feature","properties":{"kind":"bench","x":2},"geometry":{"type":"Point","coordinates":[-73.961872,40.815295]}},{"type":"Feature","properties":{"kind":"bench","x":2},"geometry":{"type":"Point","coordinates":[-73.961891,40.81528]}},{"type":"Feature","properties":{"kind":"bench","x":2},"geometry":{"type":"Point","coordinates":[-73.961912,40.815284]}},{"type":"Feature","properties":{"kind":"gate","x":2},"geometry":{"type":"Point","coordinates":[-73.962252,40.813418]}},{"type":"Feature","properties":{"kind":"gate","x":2},"geometry":{"type":"Point","coordinates":[-73.962613,40.812638]}},{"type":"Feature","properties":{"kind":"gate","x":2},"geometry":{"type":"Point","coordinates":[-73.962707,40.812791]}},{"type":"Feature","properties":{"kind":"gate","x":2},"geometry":{"type":"Point","coordinates":[-73.962006,40.813619]}},{"type":"Feature","properties":{"kind":"bikepark","x":2},"geometry":{"type":"Point","coordinates":[-73.95773,40.821475]}},{"type":"Feature","properties":{"kind":"bench","x":2},"geometry":{"type":"Point","coordinates":[-73.96186,40.8182]}},{"type":"Feature","properties":{"kind":"bench","x":2},"geometry":{"type":"Point","coordinates":[-73.961995,40.818034]}},{"type":"Feature","properties":{"kind":"bench","x":2},"geometry":{"type":"Point","coordinates":[-73.98919,40.778955]}},{"type":"Feature","properties":{"kind":"bench","x":2},"geometry":{"type":"Point","coordinates":[-73.989178,40.778975]}},{"type":"Feature","properties":{"kind":"bench","x":2},"geometry":{"type":"Point","coordinates":[-73.975892,40.798858]}},{"type":"Feature","properties":{"kind":"bench","x":2},"geometry":{"type":"Point","coordinates":[-73.975907,40.798837]}},{"type":"Feature","properties":{"kind":"bench","x":2},"geometry":{"type":"Point","coordinates":[-73.975925,40.798815]}},{"type":"Feature","properties":{"kind":"bench","x":2},"geometry":{"type":"Point","coordinates":[-73.975943,40.798788]}},{"type":"Feature","properties":{"kind":"bench","x":2},"geometry":{"type":"Point","coordinates":[-73.975958,40.798769]}},{"type":"Feature","properties":{"kind":"bench","x":2},"geometry":{"type":"Point","coordinates":[-73.975974,40.798744]}},{"type":"Feature","properties":{"kind":"bench","x":2},"geometry":{"type":"Point","coordinates":[-73.976,40.79871]}},{"type":"Feature","properties":{"kind":"bench","x":2},"geometry":{"type":"Point","coordinates":[-73.993619,40.773494]}},{"type":"Feature","properties":{"kind":"bench","x":2},"geometry":{"type":"Point","coordinates":[-73.993596,40.773519]}},{"type":"Feature","properties":{"kind":"bench","x":2},"geometry":{"type":"Point","coordinates":[-73.993545,40.773575]}},{"type":"Feature","properties":{"kind":"bench","x":2},"geometry":{"type":"Point","coordinates":[-73.993519,40.773598]}},{"type":"Feature","properties":{"kind":"bench","x":2},"geometry":{"type":"Point","coordinates":[-73.993444,40.773651]}},{"type":"Feature","properties":{"kind":"bench","x":2},"geometry":{"type":"Point","coordinates":[-73.993414,40.773671]}},{"type":"Feature","properties":{"kind":"bench","x":2},"geometry":{"type":"Point","coordinates":[-73.993374,40.77369]}},{"type":"Feature","properties":{"kind":"bench","x":2},"geometry":{"type":"Point","coordinates":[-73.993327,40.773715]}},{"type":"Feature","properties":{"kind":"bench","x":2},"geometry":{"type":"Point","coordinates":[-73.993534,40.773407]}},{"type":"Feature","properties":{"kind":"bench","x":2},"geometry":{"type":"Point","coordinates":[-73.993498,40.77339]}},{"type":"Feature","properties":{"kind":"bench","x":2},"geometry":{"type":"Point","coordinates":[-73.99341,40.773438]}},{"type":"Feature","properties":{"kind":"bench","x":2},"geometry":{"type":"Point","coordinates":[-73.993037,40.773894]}},{"type":"Feature","properties":{"kind":"bench","x":2},"geometry":{"type":"Point","coordinates":[-73.992992,40.773925]}},{"type":"Feature","properties":{"kind":"bench","x":2},"geometry":{"type":"Point","coordinates":[-73.989478,40.778618]}},{"type":"Feature","properties":{"kind":"bench","x":2},"geometry":{"type":"Point","coordinates":[-73.988912,40.779538]}},{"type":"Feature","properties":{"kind":"bench","x":2},"geometry":{"type":"Point","coordinates":[-73.989016,40.779364]}},{"type":"Feature","properties":{"kind":"bench","x":2},"geometry":{"type":"Point","coordinates":[-73.989574,40.778604]}},{"type":"Feature","properties":{"kind":"bench","x":2},"geometry":{"type":"Point","coordinates":[-73.971388,40.801069]}},{"type":"Feature","properties":{"kind":"bench","x":2},"geometry":{"type":"Point","coordinates":[-73.971441,40.80109]}},{"type":"Feature","properties":{"kind":"bench","x":2},"geometry":{"type":"Point","coordinates":[-73.971443,40.801035]}},{"type":"Feature","properties":{"kind":"bench","x":2},"geometry":{"type":"Point","coordinates":[-73.971471,40.801048]}},{"type":"Feature","properties":{"kind":"bench","x":2},"geometry":{"type":"Point","coordinates":[-73.971428,40.801213]}},{"type":"Feature","properties":{"kind":"bench","x":2},"geometry":{"type":"Point","coordinates":[-73.971313,40.80122]}},{"type":"Feature","properties":{"kind":"bench","x":2},"geometry":{"type":"Point","coordinates":[-73.971369,40.801243]}},{"type":"Feature","properties":{"kind":"bench","x":2},"geometry":{"type":"Point","coordinates":[-73.971398,40.801256]}},{"type":"Feature","properties":{"kind":"bench","x":2},"geometry":{"type":"Point","coordinates":[-73.971313,40.801218]}},{"type":"Feature","properties":{"kind":"bench","x":2},"geometry":{"type":"Point","coordinates":[-73.971329,40.80117]}},{"type":"Feature","properties":{"kind":"bench","x":2},"geometry":{"type":"Point","coordinates":[-73.971343,40.801177]}},{"type":"Feature","properties":{"kind":"bench","x":2},"geometry":{"type":"Point","coordinates":[-73.971399,40.8012]}},{"type":"Feature","properties":{"kind":"bench","x":2},"geometry":{"type":"Point","coordinates":[-73.971501,40.801058]}},{"type":"Feature","properties":{"kind":"bench","x":2},"geometry":{"type":"Point","coordinates":[-73.971499,40.801058]}},{"type":"Feature","properties":{"kind":"bench","x":2},"geometry":{"type":"Point","coordinates":[-73.971472,40.801102]}},{"type":"Feature","properties":{"kind":"bench","x":2},"geometry":{"type":"Point","coordinates":[-73.971469,40.801101]}},{"type":"Feature","properties":{"kind":"bench","x":2},"geometry":{"type":"Point","coordinates":[-73.972852,40.802115]}}]}