{"type":"FeatureCollection","features":[{"type":"Feature","geometry":{"type":"Polygon","coordinates":[[[-73.9571094,40.8102884],[-73.9570023,40.8104349],[-73.9569448,40.8105134],[-73.9567834,40.8107269],[-73.95629221653603,40.81051779637608],[-73.95702994193597,40.80950739277713],[-73.9569844,40.8096066],[-73.9569815,40.8096128],[-73.9569642,40.8096728],[-73.9569572,40.8097375],[-73.9569523,40.8097972],[-73.9569551,40.8098545],[-73.9569615,40.8099058],[-73.9569765,40.8099629],[-73.9570007,40.8100142],[-73.9570098,40.8100302],[-73.9570175,40.8100438],[-73.9570267,40.8100598],[-73.9570418,40.8100854],[-73.9570597,40.8101158],[-73.9570781,40.8101411],[-73.9570897,40.8101571],[-73.9570989,40.8101689],[-73.9571113,40.8101822],[-73.9571247,40.8101968],[-73.957135,40.8102081],[-73.9571552,40.8102267],[-73.9571094,40.8102884]]]},"properties":{"name":"Morningside Park"}},{"type":"Feature","geometry":{"type":"Polygon","coordinates":[[[-73.982318,40.7774197],[-73.982318,40.77731],[-73.9823823,40.7773385],[-73.982318,40.7774197]]]},"properties":{"name":"Sherman Square"}},{"type":"Feature","geometry":{"type":"Polygon","coordinates":[[[-73.9852535,40.7709005],[-73.9851508,40.7710438],[-73.98512235814258,40.77103145248705],[-73.98522627599525,40.77088912449843],[-73.9852535,40.7709005]]]},"properties":{"name":"Robert Moses Plaza"}},{"type":"Feature","geometry":{"type":"Polygon","coordinates":[[[-73.9850594,40.7711713],[-73.9851508,40.7710438],[-73.9852535,40.7709005],[-73.9853864,40.7709559],[-73.985458,40.7709386],[-73.9855467,40.7709427],[-73.9856191,40.7709666],[-73.9858758,40.7710765],[-73.9856328,40.7714151],[-73.9850594,40.7711713]]]},"properties":{"name":"St. Peter's Garden"}},{"type":"Feature","geometry":{"type":"Polygon","coordinates":[[[-73.9528181,40.8204517],[-73.952612,40.8207304],[-73.9521831,40.8213105],[-73.9513181,40.8209443],[-73.951041,40.820827],[-73.9518542,40.8197267],[-73.9527144,40.8200909],[-73.9529965,40.8202104],[-73.9528181,40.8204517]]]},"properties":{"name":"Jacob H. Schiff Playground"}},{"type":"Feature","geometry":{"type":"Polygon","coordinates":[[[-73.9541302,40.8210412],[-73.9535202,40.8218655],[-73.9529984,40.821667],[-73.9541302,40.8210412]]]},"properties":{"name":"Montefiore Park"}},{"type":"Feature","geometry":{"type":"Polygon","coordinates":[[[-73.9516703,40.8230522],[-73.9515103,40.8232753],[-73.9514195,40.8234014],[-73.951406,40.8234217],[-73.9507346,40.8231329],[-73.9510304,40.822958],[-73.9511163,40.8229084],[-73.9513457,40.8227692],[-73.951398,40.8227907],[-73.951525,40.8228429],[-73.9517531,40.8229367],[-73.9516703,40.8230522]]]},"properties":{"name":"Alexander Hamilton Playground"}},{"type":"Feature","geometry":{"type":"Polygon","coordinates":[[[-73.9682733,40.8019345],[-73.9680806,40.8021993],[-73.9680757,40.8022034],[-73.9680701,40.802206],[-73.9680647,40.8022078],[-73.9680599,40.8022082],[-73.9680528,40.8022076],[-73.9680457,40.8022027],[-73.9680204,40.8021793],[-73.9679916,40.8021526],[-73.9679932,40.8021449],[-73.9680026,40.8020962],[-73.9680137,40.8020209],[-73.9680193,40.801944],[-73.9680499,40.8019443],[-73.9680612,40.8019441],[-73.9680705,40.8019439],[-73.9680657,40.8019327],[-73.9680657,40.8019205],[-73.968074,40.8018422],[-73.968098,40.8016019],[-73.9681215,40.8015943],[-73.9682468,40.8016449],[-73.9684304,40.8017171],[-73.9682733,40.8019345]]]},"properties":{"name":"Straus Park"}},{"type":"Feature","geometry":{"type":"Polygon","coordinates":[[[-73.9873937,40.773635],[-73.9870127,40.7741621],[-73.986558,40.7739736],[-73.9869391,40.7734465],[-73.9873937,40.773635]]]},"properties":{"name":"Samuel N. Bennerson 2nd Playground"}},{"type":"Feature","geometry":{"type":"Polygon","coordinates":[[[-73.9856868,40.7727709],[-73.9856627,40.772804],[-73.9856428,40.7728312],[-73.9856158,40.7728682],[-73.9856094,40.7728769],[-73.9855111,40.7728364],[-73.9849794,40.7726144],[-73.9849274,40.7726849],[-73.98415391080336,40.772357857511224],[-73.98441278736551,40.7720032949462],[-73.9844163,40.7720047],[-73.9844771,40.7720289],[-73.9844915,40.7720108],[-73.9845244,40.7719655],[-73.984578,40.7718917],[-73.9846226,40.7718303],[-73.9846688,40.7717649],[-73.9847523,40.7718],[-73.9847773,40.7718108],[-73.9848071,40.7718236],[-73.9848571,40.7718443],[-73.9848798,40.7718537],[-73.9848926,40.7718591],[-73.9849082,40.7718655],[-73.9849587,40.771887],[-73.9849744,40.7718936],[-73.9849879,40.7718992],[-73.9850037,40.7719058],[-73.985052,40.7719267],[-73.9850706,40.7719345],[-73.985084,40.7719399],[-73.985098,40.7719456],[-73.9851087,40.7719501],[-73.9858829,40.7722761],[-73.9859056,40.7722856],[-73.9859274,40.7722949],[-73.9859504,40.7723047],[-73.986009,40.7723298],[-73.9856868,40.7727709]]]},"properties":{"name":"Damrosch Park"}},{"type":"Feature","geometry":{"type":"Polygon","coordinates":[[[-73.9884785,40.7747568],[-73.9884366,40.7746518],[-73.9886769,40.774321],[-73.9887934,40.7743022],[-73.9894883,40.7745846],[-73.9891561,40.7750412],[-73.9884785,40.7747568]]]},"properties":{"name":""}},{"type":"Feature","geometry":{"type":"Polygon","coordinates":[[[-73.9953107,40.7711977],[-73.9951239,40.7714594],[-73.9950023,40.7714494],[-73.9949785,40.7714521],[-73.9949592,40.7714617],[-73.9949441,40.7714759],[-73.9949358,40.7714928],[-73.9949353,40.7715085],[-73.9949377,40.7715309],[-73.9949021,40.7715145],[-73.9948557,40.7714957],[-73.9949365,40.7712838],[-73.9949692,40.7710803],[-73.99498606565237,40.77095315156891],[-73.99537160065184,40.77111564167714],[-73.9953107,40.7711977]]]},"properties":{"name":"Clinton Cove"}},{"type":"Feature","geometry":{"type":"Polygon","coordinates":[[[-73.9487148,40.8240953],[-73.9485104,40.824231],[-73.9486454,40.8240684],[-73.9487148,40.8240953]]]},"properties":{"name":"Johnny Hartman Square"}},{"type":"Feature","geometry":{"type":"Polygon","coordinates":[[[-73.9502851,40.8342316],[-73.9502622,40.8342732],[-73.950201,40.8343293],[-73.9501551,40.8344141],[-73.9501292,40.8344737],[-73.9501226,40.8345331],[-73.9501097,40.8346029],[-73.9500962,40.8346597],[-73.9500745,40.8347157],[-73.95005,40.8347812],[-73.9500261,40.8348415],[-73.9499934,40.8349385],[-73.94994389118963,40.835132798727464],[-73.94974120249694,40.83504734797039],[-73.9499401,40.8344023],[-73.9503746,40.8329452],[-73.9499554,40.8328647],[-73.9498489,40.8323405],[-73.9497309,40.8318128],[-73.9497623,40.8315009],[-73.9497698,40.8314728],[-73.9498436,40.8311959],[-73.9498325,40.8309086],[-73.9499269,40.8307235],[-73.9500311,40.8304505],[-73.9500698,40.8302814],[-73.9501178,40.8298541],[-73.9501878,40.8295689],[-73.9502751,40.8293557],[-73.9503891,40.8291417],[-73.9505557,40.8288918],[-73.9508271,40.8284992],[-73.951249,40.8279324],[-73.9513939,40.8277213],[-73.9520108,40.8272748],[-73.9526545,40.8265279],[-73.9531902,40.8258182],[-73.9535236,40.8256105],[-73.9540654,40.8253507],[-73.9544623,40.8250707],[-73.9548164,40.8247703],[-73.9551812,40.8243522],[-73.9554011,40.8239828],[-73.9555835,40.8235728],[-73.9557766,40.823045],[-73.9559161,40.8227974],[-73.9562165,40.8223103],[-73.9574986,40.8212629],[-73.9576909,40.8213488],[-73.9572518,40.8219246],[-73.9568219,40.8224611],[-73.9575912,40.8228894],[-73.956795,40.8239143],[-73.9563337,40.8245192],[-73.9559697,40.8249286],[-73.9549934,40.825984],[-73.9534484,40.8276483],[-73.95363,40.8276854],[-73.953781,40.827766],[-73.9538929,40.8275758],[-73.9546149,40.8278598],[-73.9545637,40.8278744],[-73.9545332,40.8279188],[-73.9544739,40.8280194],[-73.9543766,40.8281581],[-73.9543076,40.8282282],[-73.9542378,40.8283281],[-73.9541707,40.8283938],[-73.9540424,40.8284686],[-73.9540117,40.8284971],[-73.9539383,40.8285984],[-73.953446,40.8293651],[-73.9532286,40.8297426],[-73.9525781,40.8307109],[-73.9522913,40.8311318],[-73.9510589,40.8329458],[-73.9510305,40.8330664],[-73.9509333,40.8332484],[-73.9508311,40.8334107],[-73.9507417,40.8335752],[-73.9505025,40.8338989],[-73.9504219,40.8340085],[-73.9504079,40.8340434],[-73.9503885,40.8340907],[-73.9503621,40.8341332],[-73.9503245,40.8341664],[-73.9502983,40.8341973],[-73.9502851,40.8342316]]]},"properties":{"name":"Riverside Park"}},{"type":"Feature","geometry":{"type":"Polygon","coordinates":[[[-73.9580986,40.8230954],[-73.9581498,40.8230204],[-73.959591,40.8236389],[-73.9572789,40.8271388],[-73.9569686,40.8270244],[-73.9563188,40.8279644],[-73.9550126,40.8274618],[-73.9546914,40.8279332],[-73.9545942,40.8278884],[-73.9546149,40.8278598],[-73.9538929,40.8275758],[-73.953781,40.827766],[-73.95363,40.8276854],[-73.9534484,40.8276483],[-73.9549934,40.825984],[-73.9559697,40.8249286],[-73.9563337,40.8245192],[-73.956795,40.8239143],[-73.9575912,40.8228894],[-73.9580986,40.8230954]]]},"properties":{"name":"Riverbank State Park"}},{"type":"Feature","geometry":{"type":"Polygon","coordinates":[[[-73.9627757,40.8126976],[-73.9627733,40.8127009],[-73.9622084,40.8134795],[-73.9621818,40.8135132],[-73.9621463,40.8135631],[-73.962101,40.813618],[-73.9620857,40.8136324],[-73.9620674,40.8136381],[-73.96205,40.8136368],[-73.9620044,40.8136618],[-73.9620043,40.8136825],[-73.9619944,40.8136996],[-73.961956,40.8137372],[-73.961481,40.813534],[-73.9615007,40.813507],[-73.9614396,40.8134825],[-73.9615036,40.813395],[-73.9614578,40.8133753],[-73.9615304,40.8132749],[-73.9621442,40.8124258],[-73.962244,40.8124701],[-73.9623004,40.8124684],[-73.9626041,40.8125968],[-73.9626584,40.8126198],[-73.962768,40.8126659],[-73.9627787,40.8126822],[-73.9627757,40.8126976]]]},"properties":{"name":"Sakura Park"}},{"type":"Feature","geometry":{"type":"Polygon","coordinates":[[[-73.9597463,40.8202683],[-73.9599823,40.8199639],[-73.9609173,40.8189148],[-73.961127,40.8186939],[-73.9612197,40.8185993],[-73.9612626,40.8185535],[-73.9619049,40.8179596],[-73.9619189,40.8179462],[-73.9620853,40.8180299],[-73.9619779,40.8181562],[-73.9615715,40.8186124],[-73.9615417,40.8186479],[-73.9613417,40.8188804],[-73.961188,40.8190591],[-73.9611707,40.8190724],[-73.9611551,40.8190851],[-73.9605236,40.8198029],[-73.9604069,40.8199354],[-73.9604312,40.8199545],[-73.9603322,40.8200144],[-73.960004,40.8203832],[-73.9598214,40.8202967],[-73.9597463,40.8202683]]]},"properties":{"name":"West Harlem Piers Park"}},{"type":"Feature","geometry":{"type":"Polygon","coordinates":[[[-73.9801613,40.7929796],[-73.9774171,40.7968184],[-73.9757268,40.7992168],[-73.975382,40.7996778],[-73.9753035,40.7997841],[-73.9739587,40.8017252],[-73.9736367,40.8016081],[-73.9735078,40.8015627],[-73.9738763,40.8010765],[-73.9741584,40.8006283],[-73.9744791,40.8000584],[-73.9746907,40.7994631],[-73.9748409,40.799061],[-73.9747883,40.7990167],[-73.9747411,40.7989687],[-73.9747029,40.7989241],[-73.9746768,40.7988785],[-73.9746595,40.7988308],[-73.9746457,40.7987747],[-73.9746432,40.798717],[-73.9746454,40.7986643],[-73.9746772,40.7985684],[-73.9747051,40.7984963],[-73.9747434,40.7984202],[-73.9747827,40.7983548],[-73.9749158,40.7981691],[-73.9750767,40.7979393],[-73.9752286,40.7976979],[-73.9753795,40.7974196],[-73.9754739,40.7972133],[-73.9755208,40.7970897],[-73.9755598,40.7969615],[-73.9755788,40.796884],[-73.9755914,40.7967985],[-73.9755891,40.7967347],[-73.9755782,40.7966654],[-73.9755587,40.7965823],[-73.9755321,40.7964889],[-73.9754998,40.7964215],[-73.9754632,40.7963686],[-73.9754086,40.7963145],[-73.9753297,40.7962596],[-73.9751735,40.7961818],[-73.9750609,40.7961331],[-73.9752736,40.7960216],[-73.9762247,40.7955228],[-73.9762573,40.7955666],[-73.9762905,40.7955974],[-73.9763986,40.795638],[-73.9764846,40.7956371],[-73.9765555,40.7956256],[-73.9766508,40.7955944],[-73.9767202,40.7955472],[-73.977695,40.7944525],[-73.9778348,40.7943663],[-73.9779891,40.7943168],[-73.9780886,40.7943018],[-73.9781989,40.7943003],[-73.9786427,40.7939236],[-73.9792504,40.7932818],[-73.9796748,40.7928303],[-73.9801613,40.7929796]]]},"properties":{"name":""}},{"type":"Feature","geometry":{"type":"Polygon","coordinates":[[[-73.9838394,40.773404],[-73.9838259,40.7734229],[-73.9837393,40.7735437],[-73.9837243,40.7735647],[-73.9833766604118,40.773422395336524],[-73.9834988161201,40.77325508841269],[-73.9838394,40.773404]]]},"properties":{"name":"Laurie M. Tisch Illumination Lawn"}},{"type":"Feature","geometry":{"type":"Polygon","coordinates":[[[-73.9617622,40.8162566],[-73.9617266,40.8162661],[-73.9616846,40.8162727],[-73.961641,40.8162759],[-73.9615857,40.8162739],[-73.9615293,40.8162646],[-73.9614782,40.8162461],[-73.9614252,40.816222],[-73.9613877,40.8161962],[-73.9613545,40.8161681],[-73.9613306,40.8161374],[-73.9613056,40.8160958],[-73.9612988,40.8160768],[-73.9612913,40.8160562],[-73.9612831,40.8160206],[-73.9610721,40.8160353],[-73.96109,40.816125],[-73.9611029,40.8161913],[-73.9611325,40.8163067],[-73.9611565,40.8163774],[-73.9611699,40.8164395],[-73.9611722,40.8164682],[-73.9611709,40.8165171],[-73.9611637,40.81655],[-73.9610815,40.8166742],[-73.9611105,40.816691],[-73.9609892,40.8168648],[-73.9608685,40.8170425],[-73.9608519,40.8170381],[-73.9608261,40.816947],[-73.9607863,40.8168614],[-73.9607353,40.8167834],[-73.960674,40.8166885],[-73.9606111,40.8165788],[-73.9605841,40.8165136],[-73.9605663,40.8164308],[-73.9605532,40.8163415],[-73.9605453,40.8162708],[-73.9605465,40.8162387],[-73.9605544,40.8161764],[-73.9605586,40.8161369],[-73.9605791,40.8160582],[-73.9605858,40.816034],[-73.9606076,40.815956],[-73.9606295,40.8158938],[-73.9606667,40.8158202],[-73.9606815,40.815791],[-73.9607411,40.815682],[-73.9608131,40.8155817],[-73.9608684,40.8154961],[-73.9613928,40.8147899],[-73.9616612,40.8144175],[-73.9618199,40.8141994],[-73.9619276,40.8140512],[-73.9619872,40.8139748],[-73.9620134,40.8139562],[-73.9620565,40.8139573],[-73.9622978,40.8140148],[-73.9623085,40.8139876],[-73.9623366,40.8139095],[-73.9623618,40.8138354],[-73.9623918,40.813744],[-73.9624172,40.8136689],[-73.9624528,40.8136098],[-73.9625616,40.8134542],[-73.9625887,40.8134159],[-73.9628841,40.81301],[-73.9629304,40.812937],[-73.9629822,40.8128553],[-73.9629514,40.8128401],[-73.963164,40.8125564],[-73.9632302,40.8124749],[-73.9632514,40.8124519],[-73.9632798,40.8124221],[-73.963319,40.8123831],[-73.9633566,40.8123518],[-73.9633989,40.8123242],[-73.9634209,40.8123049],[-73.963462,40.81228],[-73.9634297,40.8122374],[-73.9633898,40.8122567],[-73.9633551,40.8122743],[-73.9633393,40.8122714],[-73.9633307,40.8122608],[-73.9633271,40.812254],[-73.9639376,40.8114247],[-73.9639477,40.8114205],[-73.9639553,40.8114228],[-73.9639582,40.8114307],[-73.9640666,40.8114776],[-73.9641392,40.8113466],[-73.9641561,40.8113214],[-73.964492,40.8108606],[-73.9650135,40.8101617],[-73.9650591,40.8101005],[-73.9651914,40.8099215],[-73.9652099,40.8098964],[-73.9653863,40.8096557],[-73.9654514,40.8095594],[-73.9655494,40.8094211],[-73.9656841,40.8092325],[-73.9657549,40.8091369],[-73.9658559,40.8090003],[-73.9658713,40.8089754],[-73.9659083,40.8089275],[-73.9659707,40.8088594],[-73.9660377,40.8087914],[-73.9661271,40.8087133],[-73.9663106,40.808562],[-73.966395,40.8084929],[-73.966472,40.8084268],[-73.9665613,40.8083496],[-73.966579,40.8083302],[-73.9666089,40.8083024],[-73.9666697,40.8082407],[-73.9667425,40.8081588],[-73.9668128,40.8080756],[-73.9669156,40.8079437],[-73.9670463,40.8077592],[-73.9671934,40.8075375],[-73.9672858,40.8073943],[-73.96753,40.8070173],[-73.967865,40.8064166],[-73.9678981,40.806355],[-73.9680742,40.8060277],[-73.968141,40.8058977],[-73.9682183,40.805747],[-73.9685317,40.8051414],[-73.9687599,40.8047133],[-73.9688986,40.8044908],[-73.9693779,40.8037723],[-73.9702802,40.8025324],[-73.9703275,40.802468],[-73.9712803,40.8011697],[-73.971377,40.8010361],[-73.9714836,40.8008888],[-73.971527,40.8008304],[-73.971581,40.800761],[-73.9716314,40.8007061],[-73.9716707,40.8006719],[-73.9717035,40.8006433],[-73.9717598,40.8005931],[-73.9718326,40.8005411],[-73.97194,40.800467],[-73.9721109,40.8003538],[-73.97221,40.8002927],[-73.9723026,40.8002287],[-73.9724197,40.8001429],[-73.972567,40.800023],[-73.9726305,40.7999638],[-73.9728448,40.7997746],[-73.9730801,40.7995321],[-73.9732857,40.7993009],[-73.9734644,40.7990803],[-73.9736562,40.7988577],[-73.9736957,40.7988107],[-73.9737259,40.7987766],[-73.9738007,40.7986637],[-73.9739205,40.7984937],[-73.9740176,40.79835],[-73.9740614,40.798273],[-73.974113,40.7981707],[-73.9741589,40.7980528],[-73.974181,40.7979827],[-73.9742028,40.7979128],[-73.974214,40.7978691],[-73.9742277,40.797813],[-73.9742374,40.7977649],[-73.9742475,40.797672],[-73.9742488,40.7975428],[-73.9742188,40.7972973],[-73.9742014,40.7971243],[-73.9741979,40.7970755],[-73.974199,40.7970309],[-73.9742059,40.7969617],[-73.974221,40.7969009],[-73.9742339,40.7968664],[-73.97425,40.7968275],[-73.974274,40.796785],[-73.9743565,40.7966801],[-73.9744485,40.7965765],[-73.974534,40.7964887],[-73.9746198,40.7964084],[-73.9747091,40.7963372],[-73.9748464,40.7962456],[-73.9749599,40.7961768],[-73.9750609,40.7961331],[-73.9751735,40.7961818],[-73.9753297,40.7962596],[-73.9754086,40.7963145],[-73.9754632,40.7963686],[-73.9754998,40.7964215],[-73.9755321,40.7964889],[-73.9755587,40.7965823],[-73.9755782,40.7966654],[-73.9755891,40.7967347],[-73.9755914,40.7967985],[-73.9755788,40.796884],[-73.9755598,40.7969615],[-73.9755208,40.7970897],[-73.9754739,40.7972133],[-73.9753795,40.7974196],[-73.9752286,40.7976979],[-73.9750767,40.7979393],[-73.9749158,40.7981691],[-73.9747827,40.7983548],[-73.9747434,40.7984202],[-73.9747051,40.7984963],[-73.9746772,40.7985684],[-73.9746454,40.7986643],[-73.9746432,40.798717],[-73.9746457,40.7987747],[-73.9746595,40.7988308],[-73.9746768,40.7988785],[-73.9747029,40.7989241],[-73.9747411,40.7989687],[-73.9747883,40.7990167],[-73.9748409,40.799061],[-73.9746907,40.7994631],[-73.9744791,40.8000584],[-73.9741584,40.8006283],[-73.9738763,40.8010765],[-73.9735078,40.8015627],[-73.9736367,40.8016081],[-73.9735819,40.8016951],[-73.9734719,40.8018572],[-73.9733681,40.8020083],[-73.9732459,40.8021832],[-73.9731319,40.8023444],[-73.9730248,40.8025017],[-73.9729207,40.8026473],[-73.9728057,40.8028086],[-73.9726931,40.8029658],[-73.9725778,40.8031247],[-73.9724512,40.8033025],[-73.9723351,40.8034662],[-73.9722212,40.8036231],[-73.9721185,40.8037655],[-73.9719866,40.803944],[-73.9718653,40.8041087],[-73.9717441,40.8042693],[-73.9716114,40.8044437],[-73.9714929,40.8045999],[-73.9713776,40.8047495],[-73.9712585,40.804906],[-73.9711329,40.8050658],[-73.9710166,40.8052144],[-73.9708867,40.8053784],[-73.9707711,40.8055248],[-73.9706318,40.8057018],[-73.9705157,40.8058525],[-73.9704032,40.8059965],[-73.9702701,40.8061625],[-73.9701252,40.8063472],[-73.9700184,40.8064855],[-73.9698948,40.8066458],[-73.969772,40.8068017],[-73.9696529,40.8069577],[-73.969531,40.8071195],[-73.9694072,40.8072829],[-73.9692847,40.807448],[-73.9691739,40.807603],[-73.9690573,40.807764],[-73.96888,40.80801],[-73.9687668,40.8081712],[-73.9686553,40.8083335],[-73.9685451,40.8084961],[-73.9684344,40.8086614],[-73.9683259,40.8088247],[-73.9682222,40.808985],[-73.9681085,40.809158],[-73.9674444,40.8102204],[-73.9673276,40.8104025],[-73.967223,40.8105617],[-73.9664764,40.8114331],[-73.9654746,40.8126128],[-73.9648631,40.8133193],[-73.9645761,40.8135831],[-73.9643025,40.8139197],[-73.9641013,40.814209],[-73.9637849,40.8146712],[-73.963005,40.8157881],[-73.962901,40.8159317],[-73.9627705,40.816105],[-73.9626362,40.8162658],[-73.9625791,40.8163285],[-73.9624754,40.8164346],[-73.9623388,40.8165796],[-73.9620963,40.8168006],[-73.9619618,40.8169307],[-73.9617919,40.8170826],[-73.9616025,40.8172536],[-73.961501,40.8173388],[-73.9614317,40.8173853],[-73.961322,40.8174582],[-73.9612334,40.8175116],[-73.9611354,40.8175566],[-73.961102,40.8175624],[-73.9610682,40.8175715],[-73.9610387,40.8175861],[-73.9610286,40.8175876],[-73.9610052,40.8175822],[-73.9609594,40.8175638],[-73.9609096,40.8175384],[-73.9608751,40.8175176],[-73.9608639,40.8175022],[-73.9613609,40.8168223],[-73.9614356,40.8167321],[-73.9614963,40.8166738],[-73.9615547,40.8166208],[-73.9616364,40.8165607],[-73.9617125,40.8165169],[-73.9618508,40.8165538],[-73.9618955,40.8164538],[-73.9617622,40.8162566]]]},"properties":{"name":"Riverside Park"}},{"type":"Feature","geometry":{"type":"Polygon","coordinates":[[[-73.9782896,40.7815101],[-73.9787943,40.7817224],[-73.9790663,40.7818368],[-73.9788536,40.7821268],[-73.9785816,40.7820124],[-73.9780768,40.7818002],[-73.9782896,40.7815101]]]},"properties":{"name":"Tecumseh Playground"}},{"type":"Feature","geometry":{"type":"Polygon","coordinates":[[[-73.9921741,40.7749214],[-73.99269,40.7742165],[-73.9929697,40.7738276],[-73.9933407,40.7733246],[-73.9933624,40.7732971],[-73.9934109,40.7732477],[-73.99345,40.773235],[-73.9934956,40.7732178],[-73.9935351,40.7732003],[-73.9935731,40.7731761],[-73.9936066,40.7731523],[-73.9936337,40.7731259],[-73.9936518,40.7731054],[-73.9936779,40.7730699],[-73.9937229,40.7730874],[-73.9939457,40.7731851],[-73.9938717,40.7732498],[-73.99385,40.7733033],[-73.9938188,40.7733468],[-73.9937575,40.773382],[-73.9937518,40.7734494],[-73.9937283,40.7735013],[-73.9936896,40.7735645],[-73.9936354,40.7736194],[-73.993585,40.7736624],[-73.9934922,40.7737536],[-73.9933877,40.773864],[-73.9933192,40.7739678],[-73.9932521,40.7740613],[-73.9931068,40.7742835],[-73.9929799,40.7744635],[-73.9926232,40.7749669],[-73.992512,40.7749771],[-73.9924744,40.7750394],[-73.9924589,40.7751125],[-73.9924516,40.7751938],[-73.9924596,40.7752634],[-73.9924698,40.7753484],[-73.992457,40.7754402],[-73.9924111,40.7755264],[-73.9923551,40.7756067],[-73.992121,40.7759205],[-73.9920229,40.7760529],[-73.9918772,40.7762496],[-73.9918607,40.7762723],[-73.9917931,40.7763657],[-73.9913311,40.7770032],[-73.9909283,40.7775591],[-73.9903936,40.7775806],[-73.9891435,40.7793262],[-73.9888616,40.7797199],[-73.9892222,40.7797068],[-73.9892657,40.7797282],[-73.9893137,40.7797391],[-73.9894116,40.7797453],[-73.9895059,40.7797315],[-73.9895952,40.7796963],[-73.9897266,40.7796741],[-73.9898499,40.7796749],[-73.9899479,40.7797017],[-73.9900795,40.7797116],[-73.9901865,40.7796951],[-73.9902849,40.7796731],[-73.9904075,40.779669],[-73.9905426,40.7796789],[-73.9906599,40.7796853],[-73.9907562,40.779677],[-73.9908577,40.7796496],[-73.9909548,40.7796375],[-73.9910571,40.7796513],[-73.991165,40.7796747],[-73.9912548,40.7796671],[-73.9912787,40.7796384],[-73.9913278,40.7796382],[-73.9913547,40.7795926],[-73.9915503,40.7795765],[-73.9914208,40.7797557],[-73.988885,40.7798859],[-73.9889051,40.7801052],[-73.9889065,40.7801162],[-73.9889073,40.7801288],[-73.9889166,40.7802304],[-73.9882223,40.7812276],[-73.9881472,40.781378],[-73.9871678,40.7810243],[-73.9875209,40.7805516],[-73.9877073,40.7803021],[-73.987742,40.7802481],[-73.9878969,40.7800048],[-73.9879689,40.7798947],[-73.988047,40.7797732],[-73.988105,40.7796764],[-73.9881555,40.7795925],[-73.9882066,40.7795041],[-73.9882604,40.779394],[-73.9884757,40.7789339],[-73.9885093,40.7788589],[-73.9885564,40.7787352],[-73.9886991,40.7783306],[-73.9887683,40.7781441],[-73.9888637,40.7778395],[-73.9889265,40.7776535],[-73.9890504,40.7773346],[-73.9891256,40.7771802],[-73.9892572,40.7769576],[-73.9893413,40.7767773],[-73.9895806,40.7764503],[-73.9896711,40.7763323],[-73.989803,40.7761577],[-73.9899072,40.7760242],[-73.9899959,40.7759242],[-73.990209,40.7757171],[-73.9902679,40.7756622],[-73.9903199,40.7756094],[-73.9906377,40.7753209],[-73.9907729,40.7752035],[-73.9908964,40.7751064],[-73.9915998,40.7745379],[-73.9919545,40.7747447],[-73.9919101,40.7748131],[-73.9921741,40.7749214]]]},"properties":{"name":"Riverside Park South"}},{"type":"Feature","geometry":{"type":"Polygon","coordinates":[[[-73.9446267,40.8290304],[-73.9442798,40.829504],[-73.944219,40.8294785],[-73.9440134,40.8293922],[-73.9438938,40.8293421],[-73.9442408,40.8288685],[-73.9446267,40.8290304]]]},"properties":{"name":"Carmansville Playground"}},{"type":"Feature","geometry":{"type":"Polygon","coordinates":[[[-73.9818765,40.7792505],[-73.9818116,40.7794717],[-73.9818057,40.7794898],[-73.9817961,40.7795189],[-73.9817796,40.7795247],[-73.9815386,40.7794164],[-73.9812948,40.7793071],[-73.981286,40.7793019],[-73.9812776,40.7792972],[-73.9812725,40.7792921],[-73.9812695,40.779285],[-73.9812698,40.7792765],[-73.9816465,40.7787689],[-73.9816594,40.7787519],[-73.9816654,40.7787431],[-73.9816767,40.7787379],[-73.9816897,40.7787379],[-73.9817032,40.7787422],[-73.9819492,40.7788455],[-73.981964,40.7788516],[-73.9819742,40.7788631],[-73.981974,40.7788746],[-73.9819718,40.7788896],[-73.9819566,40.7788908],[-73.9819073,40.7791535],[-73.9818765,40.7792505]]]},"properties":{"name":"Verdi Square"}},{"type":"Feature","geometry":{"type":"Polygon","coordinates":[[[-73.9825542,40.7770648],[-73.9824713,40.7770305],[-73.9823773,40.7770281],[-73.9823803,40.7769162],[-73.9824161,40.7769171],[-73.9825081,40.7769197],[-73.9825949,40.7769547],[-73.982625,40.7769667],[-73.9825542,40.7770648]]]},"properties":{"name":""}},{"type":"Feature","geometry":{"type":"Polygon","coordinates":[[[-73.9598035,40.8072718],[-73.9598398,40.807221],[-73.9600921,40.8073241],[-73.9600558,40.8073749],[-73.9598035,40.8072718]]]},"properties":{"name":"CU SIPA Commons"}},{"type":"Feature","geometry":{"type":"Polygon","coordinates":[[[-73.9621681,40.8063802],[-73.9622632,40.8062478],[-73.9625211,40.806354],[-73.962426,40.8064863],[-73.9621681,40.8063802]]]},"properties":{"name":"CU SE Field"}},{"type":"Feature","geometry":{"type":"Polygon","coordinates":[[[-73.9636025,40.8038084],[-73.9637042,40.8038513],[-73.9637021,40.8038587],[-73.9636473,40.804028],[-73.9636043,40.8040089],[-73.963539,40.8039815],[-73.9634535,40.8039456],[-73.9633807,40.8039151],[-73.9634399,40.8038328],[-73.9634913,40.8037615],[-73.9636025,40.8038084]]]},"properties":{"name":"Julia Gabriel People's Garden"}},{"type":"Feature","geometry":{"type":"Polygon","coordinates":[[[-73.9598167,40.8091675],[-73.9599117,40.8090357],[-73.9600899,40.8091119],[-73.9600009,40.8092408],[-73.9598167,40.8091675]]]},"properties":{"name":"CS Garden"}},{"type":"Feature","geometry":{"type":"Polygon","coordinates":[[[-73.9863471,40.7714308],[-73.9862899,40.7714068],[-73.9864556,40.7711778],[-73.9864663,40.7711823],[-73.986479,40.7711876],[-73.9867583,40.7713048],[-73.9865926,40.7715338],[-73.9863471,40.7714308]]]},"properties":{"name":"McMahon Lawn"}},{"type":"Feature","geometry":{"type":"Polygon","coordinates":[[[-73.9640898,40.8028681],[-73.9640655,40.802874],[-73.9640591,40.8028811],[-73.9640603,40.8028868],[-73.9640388,40.8029138],[-73.9639909,40.8028945],[-73.963986,40.8028909],[-73.9639879,40.8028842],[-73.9641721,40.8027315],[-73.96418,40.80273],[-73.9641882,40.8027308],[-73.9640898,40.8028681]]]},"properties":{"name":"Minerva Bernadino Green Street"}},{"type":"Feature","geometry":{"type":"Polygon","coordinates":[[[-73.958621,40.8170573],[-73.9587958,40.8168163],[-73.9589155,40.816866],[-73.9591103,40.816947],[-73.9589355,40.8171879],[-73.958621,40.8170573]]]},"properties":{"name":"The Plaza"}},{"type":"Feature","geometry":{"type":"Polygon","coordinates":[[[-73.9949779,40.7716623],[-73.9970852,40.7725347],[-73.9968652,40.7728343],[-73.9965127,40.7726807],[-73.9959701,40.7724514],[-73.9947747,40.7719351],[-73.9944522,40.7723825],[-73.9942857,40.772314],[-73.9948442,40.7716226],[-73.9948249,40.7716148],[-73.994802,40.7716059],[-73.9948557,40.7714957],[-73.9949021,40.7715145],[-73.9949377,40.7715309],[-73.9950076,40.771599],[-73.995022,40.7716115],[-73.9949779,40.7716623]]]},"properties":{"name":"Pier 97"}},{"type":"Feature","geometry":{"type":"Polygon","coordinates":[[[-73.9768493,40.7931337],[-73.9768366,40.7932539],[-73.9768276,40.7935899],[-73.9768177,40.7937981],[-73.9767879,40.7940009],[-73.9767528,40.7941607],[-73.9766851,40.794369],[-73.9765994,40.7945806],[-73.9764723,40.7948114],[-73.9763397,40.7950327],[-73.976236,40.7951631],[-73.9761413,40.7952839],[-73.9760447,40.79537],[-73.9759942,40.7954082],[-73.9759167,40.7953884],[-73.9760177,40.7952785],[-73.9761963,40.7950054],[-73.9762657,40.7948326],[-73.9762824,40.7947727],[-73.9763153,40.7946544],[-73.976327,40.7944489],[-73.9763298,40.7940945],[-73.976355,40.7938562],[-73.9764082,40.7936739],[-73.9765038,40.7934827],[-73.9766306,40.7933123],[-73.9768614,40.7930153],[-73.9768493,40.7931337]]]},"properties":{"name":"Joan of Arc Park"}},{"type":"Feature","geometry":{"type":"Polygon","coordinates":[[[-73.9688786,40.795223],[-73.969208,40.7953609],[-73.9690428,40.7955845],[-73.9689267,40.7957415],[-73.968896,40.7957831],[-73.9686349,40.7956757],[-73.9684611,40.7959054],[-73.9676432,40.7955572],[-73.9678529,40.7952792],[-73.9682168,40.7954365],[-73.968592,40.7949391],[-73.9689689,40.7951021],[-73.9688786,40.795223]]]},"properties":{"name":"Happy Warrior Playground"}},{"type":"Feature","geometry":{"type":"Polygon","coordinates":[[[-73.987658,40.7777101],[-73.9871853,40.7786812],[-73.9866637,40.7784465],[-73.9875402,40.777218],[-73.9874904,40.777203],[-73.9877101,40.7769155],[-73.9879868,40.7770345],[-73.987658,40.7777101]]]},"properties":{"name":""}},{"type":"Feature","geometry":{"type":"Polygon","coordinates":[[[-73.9591722,40.8178443],[-73.9592355,40.8179057],[-73.9592697,40.8179792],[-73.9592711,40.8180571],[-73.9592397,40.8181313],[-73.9591786,40.818194],[-73.9590943,40.8182387],[-73.9589955,40.8182608],[-73.9588927,40.8182579],[-73.958791,40.8182278],[-73.9587087,40.8181736],[-73.9586553,40.8181015],[-73.9586373,40.8180201],[-73.9586566,40.8179388],[-73.958711,40.8178672],[-73.9587888,40.8178161],[-73.958884,40.8177865],[-73.9589355,40.8177839],[-73.9589867,40.8177814],[-73.9590863,40.8178014],[-73.9591722,40.8178443]]]},"properties":{"name":"The Square"}},{"type":"Feature","geometry":{"type":"Polygon","coordinates":[[[-73.9631852,40.8011611],[-73.9631453,40.8012169],[-73.9630518,40.8013475],[-73.9630087,40.8014078],[-73.9629586250893,40.80138734865816],[-73.96313795885695,40.80114172951007],[-73.9631852,40.8011611]]]},"properties":{"name":"Anibal Aviles Playground"}},{"type":"Feature","geometry":{"type":"Polygon","coordinates":[[[-73.9743199,40.7982532],[-73.9744204,40.7977282],[-73.9743928,40.7968502],[-73.9746238,40.7965194],[-73.975006,40.7962471],[-73.9754017,40.7964142],[-73.9754955,40.7966044],[-73.9755135,40.7968255],[-73.9753949,40.7971982],[-73.9745633,40.7983564],[-73.9743199,40.7982532]]]},"properties":{"name":""}},{"type":"Feature","geometry":{"type":"Polygon","coordinates":[[[-73.9740678,40.796712],[-73.9740477,40.796746],[-73.9740296,40.7967861],[-73.9740135,40.7968161],[-73.9739987,40.7968628],[-73.9739893,40.7969223],[-73.9739866,40.7969761],[-73.973986,40.797037],[-73.9739954,40.7971086],[-73.9740081,40.7971646],[-73.9740249,40.7972494],[-73.9740369,40.7973133],[-73.9740443,40.7973773],[-73.9740524,40.797447],[-73.9740564,40.7974764],[-73.9740597,40.7975404],[-73.9740644,40.7975993],[-73.9740658,40.7976536],[-73.9740604,40.7977033],[-73.974047,40.7977896],[-73.9740329,40.7978581],[-73.9740232,40.7979082],[-73.9740135,40.7979292],[-73.9740001,40.7979688],[-73.9739846,40.7980145],[-73.9739674,40.7980658],[-73.9739446,40.7981156],[-73.9739318,40.798144],[-73.9739104,40.7981942],[-73.9738715,40.7982729],[-73.9738426,40.7983171],[-73.9738181,40.798352],[-73.9737792,40.7984144],[-73.9737316,40.7984819],[-73.9736907,40.7985383],[-73.9736371,40.7986119],[-73.9735787,40.7986853],[-73.9735472,40.7987279],[-73.9735328,40.7987442],[-73.9735157,40.798764],[-73.9734815,40.7988091],[-73.9733896,40.7989193],[-73.9733487,40.7989619],[-73.9733105,40.7990064],[-73.9732676,40.7990526],[-73.9732012,40.7991313],[-73.9731442,40.7992024],[-73.9730897,40.7992648],[-73.9730535,40.799309],[-73.9730153,40.7993526],[-73.9729865,40.7993826],[-73.9729456,40.7994313],[-73.9728904,40.7994916],[-73.9728667,40.799511],[-73.9728278,40.7995542],[-73.9727675,40.7996176],[-73.9727118,40.7996861],[-73.9726622,40.7997344],[-73.9726132,40.7997817],[-73.972573,40.7998162],[-73.9725073,40.7998761],[-73.9724496,40.7999193],[-73.9723946,40.799964],[-73.972339,40.8000117],[-73.972282,40.8000558],[-73.9722297,40.8000969],[-73.972169,40.8001423],[-73.9720952,40.8001849],[-73.9720188,40.8002387],[-73.9719484,40.8002864],[-73.971888,40.8003291],[-73.9718369,40.8003602],[-73.9717934,40.8003845],[-73.9717297,40.8004272],[-73.9716894,40.80045],[-73.9716776,40.8004577],[-73.9715902,40.8005145],[-73.9715493,40.8005402],[-73.9715238,40.800552],[-73.9714956,40.8005739],[-73.9714628,40.8006063],[-73.9714344,40.800636],[-73.9713721,40.8006985],[-73.9713151,40.800764],[-73.9712587,40.8008315],[-73.9712232,40.8008802],[-73.9712005,40.800913],[-73.971185,40.8009197],[-73.9711503,40.8009168],[-73.9711188,40.8008985],[-73.9711125,40.8008779],[-73.9711188,40.8008548],[-73.9711313,40.800843],[-73.9711515,40.8008324],[-73.971155,40.8008107],[-73.9711745,40.8007726],[-73.9714142,40.8004468],[-73.9714413,40.8004138],[-73.971452,40.8004008],[-73.9714596,40.800388],[-73.9714799,40.8003536],[-73.9715282,40.8002836],[-73.9716056,40.8001739],[-73.9716714,40.8000866],[-73.9717183,40.8000257],[-73.9717706,40.7999597],[-73.9718175,40.7998887],[-73.9718653,40.7998176],[-73.9719183,40.7997448],[-73.9719733,40.7996795],[-73.9720229,40.799628],[-73.972083,40.799572],[-73.9721409,40.7995201],[-73.9721998,40.7994665],[-73.9722782,40.7993957],[-73.9723258,40.7993527],[-73.9723742,40.799309],[-73.9724333,40.7992555],[-73.972496,40.7992023],[-73.972558,40.799152],[-73.9725896,40.7991255],[-73.9726054,40.7991124],[-73.9726201,40.7991002],[-73.9726552,40.799071],[-73.9727317,40.799004],[-73.9727911,40.7989485],[-73.9728487,40.798898],[-73.9729141,40.7988424],[-73.9729542,40.7988087],[-73.9730427,40.7987343],[-73.9730878,40.7986971],[-73.9731208,40.7986692],[-73.9731372,40.7986517],[-73.9732036,40.7985635],[-73.9732197,40.7985405],[-73.9732353,40.7985181],[-73.9732506,40.7984958],[-73.9732841,40.7984389],[-73.9733243,40.7983744],[-73.9733565,40.7983148],[-73.9733927,40.7982457],[-73.9734276,40.7981574],[-73.9734397,40.798131],[-73.9734625,40.7980315],[-73.9734799,40.7979665],[-73.9734973,40.7978933],[-73.9735016,40.7978708],[-73.9735089,40.797832],[-73.9735108,40.7978222],[-73.9735362,40.7977065],[-73.9735496,40.7976466],[-73.973563,40.7975786],[-73.9735885,40.7974709],[-73.973604,40.797391],[-73.9736274,40.797296],[-73.9736569,40.7971945],[-73.973677,40.7971306],[-73.9737045,40.797059],[-73.9737347,40.7970047],[-73.9737709,40.7969499],[-73.9738185,40.7968737],[-73.9738608,40.7968123],[-73.973901,40.796762],[-73.9739573,40.7967031],[-73.974019,40.7966443],[-73.9740516,40.7966579],[-73.9740941,40.7966757],[-73.9740678,40.796712]]]},"properties":{"name":""}},{"type":"Feature","geometry":{"type":"Polygon","coordinates":[[[-73.9710436,40.8011238],[-73.9708585,40.8013782],[-73.9706757,40.8016264],[-73.970386,40.8020248],[-73.9701621,40.8023398],[-73.970143,40.8023666],[-73.9699895,40.8025743],[-73.9698787,40.8027339],[-73.9696962,40.8029757],[-73.9694841,40.8032688],[-73.9693438,40.8034613],[-73.9693304,40.8034679],[-73.9693123,40.8034669],[-73.9692961,40.8034639],[-73.9692841,40.8034547],[-73.9692747,40.8034441],[-73.9692706,40.8034273],[-73.9692727,40.803406],[-73.9692773,40.8033861],[-73.9692867,40.8033714],[-73.9693008,40.8033496],[-73.9694742,40.8031117],[-73.9698354,40.8026168],[-73.970045,40.8023232],[-73.970056,40.802308],[-73.9700905,40.8022603],[-73.9701027,40.8022433],[-73.9701598,40.8021754],[-73.9703868,40.801863],[-73.9705687,40.8016073],[-73.9707654,40.8013441],[-73.970955,40.801089],[-73.9709583,40.8010838],[-73.9709815,40.8010793],[-73.9710042,40.8010795],[-73.9710271,40.8010906],[-73.971042,40.8011017],[-73.9710436,40.8011238]]]},"properties":{"name":""}},{"type":"Feature","geometry":{"type":"Polygon","coordinates":[[[-73.969121,40.8037735],[-73.9690747,40.803841],[-73.9689835,40.8039767],[-73.9689104,40.8040823],[-73.9688194,40.8042195],[-73.9687544,40.8043225],[-73.9686592,40.8044767],[-73.9685921,40.8045863],[-73.9685143,40.8047198],[-73.9684079,40.8049115],[-73.9683188,40.8050841],[-73.9681981,40.8053034],[-73.9681122,40.805479],[-73.96808,40.8055455],[-73.9680707,40.8055582],[-73.9680606,40.8055627],[-73.9680499,40.8055648],[-73.9680365,40.8055663],[-73.9680284,40.8055663],[-73.968015,40.8055638],[-73.9680076,40.8055607],[-73.9680009,40.8055556],[-73.9679935,40.80555],[-73.9679902,40.8055404],[-73.9679895,40.8055297],[-73.9679969,40.805513],[-73.9680063,40.8054962],[-73.9680197,40.8054714],[-73.9680499,40.8054181],[-73.9680988,40.8053282],[-73.9681344,40.8052668],[-73.9681813,40.805178],[-73.9682095,40.8051221],[-73.9682309,40.8050642],[-73.9682537,40.8050099],[-73.9682665,40.8049683],[-73.9682712,40.8049353],[-73.9682705,40.804905],[-73.9682537,40.8048461],[-73.9682302,40.8048055],[-73.9681692,40.8047467],[-73.9681484,40.8047243],[-73.9681397,40.8047142],[-73.9681357,40.8047071],[-73.9681404,40.8046979],[-73.9681619,40.8046807],[-73.9682182,40.8046334],[-73.9682993,40.804571],[-73.9683912,40.8045132],[-73.9684576,40.8044685],[-73.9685427,40.804404],[-73.9686153,40.804343],[-73.9686696,40.8042841],[-73.9687011,40.8042359],[-73.968734,40.8041892],[-73.9687917,40.8041105],[-73.9688735,40.8039904],[-73.9690541,40.8037443],[-73.969121,40.8037735]]]},"properties":{"name":""}},{"type":"Feature","geometry":{"type":"Polygon","coordinates":[[[-73.9680625,40.8048826],[-73.9680686,40.804902],[-73.9680739,40.8049259],[-73.9680753,40.8049498],[-73.9680753,40.8049737],[-73.9680712,40.8049967],[-73.9680679,40.8050246],[-73.9680625,40.8050537],[-73.9680578,40.8050781],[-73.9680504,40.8051055],[-73.9680383,40.8051381],[-73.9680275,40.805164],[-73.9680161,40.8051885],[-73.9680013,40.805218],[-73.9679791,40.8052597],[-73.9679569,40.8052999],[-73.9679388,40.8053351],[-73.9679159,40.8053753],[-73.9678857,40.8054313],[-73.9678662,40.8054674],[-73.9678413,40.8055158],[-73.9678231,40.8055529],[-73.9678083,40.8055845],[-73.9678003,40.8056135],[-73.9678016,40.80564],[-73.9678056,40.8056605],[-73.9678144,40.8056753],[-73.9678272,40.8056926],[-73.9678379,40.8057074],[-73.9678507,40.8057206],[-73.9678628,40.8057323],[-73.9678776,40.8057445],[-73.9678944,40.8057572],[-73.9679126,40.8057644],[-73.9679294,40.8057715],[-73.9679379,40.8057754],[-73.9679468,40.8057796],[-73.9679087,40.8058477],[-73.9678697,40.8059281],[-73.9678348,40.8060024],[-73.9677608,40.8061488],[-73.9677171,40.8062389],[-73.9676855,40.8062959],[-73.9676472,40.8063606],[-73.9675786,40.8064785],[-73.9674959,40.8066238],[-73.9674677,40.8066808],[-73.9674267,40.806749],[-73.9673796,40.8068284],[-73.9673675,40.8068396],[-73.9673587,40.8068452],[-73.9671913,40.8067837],[-73.967194,40.8067674],[-73.9672074,40.8067318],[-73.9672283,40.8066738],[-73.9672646,40.8065577],[-73.9672922,40.8064753],[-73.9673211,40.8063776],[-73.9673614,40.8062219],[-73.9673917,40.8061384],[-73.9674072,40.8060982],[-73.9674502,40.806],[-73.9674959,40.8058925],[-73.9675242,40.805834],[-73.9675484,40.8057867],[-73.9675694,40.8057462],[-73.9675896,40.8057096],[-73.9676124,40.8056714],[-73.9676447,40.8056246],[-73.9676749,40.8055813],[-73.9677963,40.8054108],[-73.9678056,40.8053964],[-73.9678091,40.8053911],[-73.9678147,40.8053826],[-73.9678281,40.8053613],[-73.9678436,40.8053364],[-73.9678603,40.8053024],[-73.9678724,40.805278],[-73.9678831,40.8052511],[-73.9678985,40.8052029],[-73.9679093,40.8051582],[-73.9679153,40.8051216],[-73.9679213,40.8050491],[-73.967926,40.8049998],[-73.967928,40.8049623],[-73.9679314,40.8049171],[-73.9679374,40.8048882],[-73.9679441,40.8048679],[-73.9679502,40.8048526],[-73.9679582,40.804843],[-73.9679696,40.8048394],[-73.9679871,40.8048394],[-73.9680045,40.8048415],[-73.9680172,40.8048455],[-73.9680313,40.8048536],[-73.9680481,40.8048653],[-73.9680625,40.8048826]]]},"properties":{"name":""}},{"type":"Feature","geometry":{"type":"Polygon","coordinates":[[[-73.9672207,40.8070798],[-73.9671926,40.8071251],[-73.9671067,40.8072616],[-73.9670202,40.8074043],[-73.9670048,40.8073987],[-73.9669887,40.8073901],[-73.9669968,40.8073657],[-73.9670095,40.8073317],[-73.9670216,40.8072911],[-73.9670383,40.8072302],[-73.9670645,40.8071378],[-73.9670833,40.8070733],[-73.9670987,40.8070266],[-73.9671121,40.8069987],[-73.9671228,40.8069886],[-73.9671342,40.8069805],[-73.967155,40.8069728],[-73.9671684,40.8069723],[-73.9671899,40.8069759],[-73.967206,40.8069845],[-73.9672207,40.8070008],[-73.9672274,40.807014],[-73.9672315,40.8070393],[-73.9672268,40.8070657],[-73.9672207,40.8070798]]]},"properties":{"name":""}},{"type":"Feature","geometry":{"type":"Polygon","coordinates":[[[-73.9661803,40.799033],[-73.9664688,40.7991564],[-73.966261,40.7994408],[-73.9662397,40.7994318],[-73.9661104,40.7993785],[-73.9659742,40.7995694],[-73.9658344,40.7995096],[-73.9659846,40.799302],[-73.9659662,40.7992942],[-73.9655859,40.7991327],[-73.9655474,40.7991163],[-73.9657412,40.7988488],[-73.9661803,40.799033]]]},"properties":{"name":"Bloomingdale Playground"}},{"type":"Feature","geometry":{"type":"Polygon","coordinates":[[[-73.9558566,40.8153872],[-73.9552429,40.8151284],[-73.955245,40.8150825],[-73.9552528,40.8150715],[-73.9553052,40.814998],[-73.9555342,40.8146651],[-73.9558775,40.8144918],[-73.9561149,40.8147775],[-73.9557309,40.814973],[-73.9558265,40.8150876],[-73.9560187,40.8151716],[-73.9563251,40.8150148],[-73.9563796,40.8150778],[-73.9565525,40.8152776],[-73.9563982,40.8154334],[-73.9563781,40.8154253],[-73.9562883,40.8155176],[-73.9562527,40.8155542],[-73.9558566,40.8153872]]]},"properties":{"name":"Sheltering Arms Playground"}},{"type":"Feature","geometry":{"type":"Polygon","coordinates":[[[-73.9717879,40.7895818],[-73.9719723,40.789325],[-73.9722781,40.7894509],[-73.9720937,40.7897077],[-73.9717879,40.7895818]]]},"properties":{"name":"St. Gregory's Playground"}},{"type":"Feature","geometry":{"type":"Polygon","coordinates":[[[-73.9525535,40.8181771],[-73.9520916,40.8188062],[-73.9516925,40.8186383],[-73.9518604,40.8184098],[-73.9517925,40.8182037],[-73.9518214,40.8180731],[-73.9519357,40.8179174],[-73.9525535,40.8181771]]]},"properties":{"name":"Annunciation Playground"}},{"type":"Feature","geometry":{"type":"Polygon","coordinates":[[[-73.9518285,40.829868],[-73.9521234,40.8294269],[-73.9528274,40.8297025],[-73.9525324,40.8301468],[-73.9518285,40.829868]]]},"properties":{"name":"Ten Mile River Playground"}},{"type":"Feature","geometry":{"type":"Polygon","coordinates":[[[-73.9604687,40.8083216],[-73.9607614,40.8079187],[-73.9609469,40.8079961],[-73.9606537,40.8083986],[-73.9604687,40.8083216]],[[-73.9606975,40.8081807],[-73.9607017,40.8081831],[-73.9607067,40.8081842],[-73.9607119,40.808184],[-73.9607167,40.8081825],[-73.9607206,40.8081799],[-73.960723,40.8081766],[-73.9607238,40.808173],[-73.9607232,40.8081694],[-73.960721,40.808166],[-73.9607176,40.8081634],[-73.9607133,40.8081617],[-73.9607085,40.8081612],[-73.9607037,40.8081618],[-73.9606994,40.8081635],[-73.960696,40.8081662],[-73.9606938,40.8081697],[-73.9606933,40.8081737],[-73.9606946,40.8081775],[-73.9606975,40.8081807]]]},"properties":{"name":"Columbia University Well Garden"}},{"type":"Feature","geometry":{"type":"Polygon","coordinates":[[[-73.9885258,40.7715222],[-73.988504,40.7715128],[-73.9884808,40.7715027],[-73.9883117,40.7714292],[-73.9886535,40.7709606],[-73.988803,40.7710195],[-73.9891363,40.7711507],[-73.988962,40.7713912],[-73.9886952,40.7712861],[-73.9885258,40.7715222]],[[-73.9885659,40.7713058],[-73.9885865,40.771273],[-73.9886213,40.7712401],[-73.9886555,40.7712164],[-73.9887031,40.7711922],[-73.9887394,40.771154],[-73.9887629,40.7711211],[-73.9887785,40.7710888],[-73.9887885,40.7710457],[-73.9886455,40.7710172],[-73.9886341,40.771057],[-73.9886185,40.7710969],[-73.9885979,40.7711324],[-73.9885673,40.771161],[-73.9885275,40.7711906],[-73.9884919,40.7712213],[-73.9884656,40.7712541],[-73.9884421,40.7712929],[-73.9884158,40.7713602],[-73.988531,40.7713877],[-73.9885659,40.7713058]]]},"properties":{"name":""}},{"type":"Feature","geometry":{"type":"Polygon","coordinates":[[[-73.9617528,40.8074122],[-73.9618444,40.8072826],[-73.9619089,40.8073103],[-73.9619458,40.8073263],[-73.9623663,40.8075087],[-73.9627923,40.8076884],[-73.9628279,40.8077039],[-73.9629013,40.8077335],[-73.9628742,40.8077716],[-73.9628206,40.8078469],[-73.962789,40.807891],[-73.9627225,40.8079837],[-73.9626534,40.8080741],[-73.962116,40.8078495],[-73.9615919,40.8076305],[-73.9617286,40.8074469],[-73.9617528,40.8074122]],[[-73.9625426,40.8077729],[-73.9625816,40.8077891],[-73.9626229,40.8077308],[-73.9625455,40.8076994],[-73.9625216,40.8077329],[-73.9625248,40.8077351],[-73.9625268,40.8077366],[-73.9625294,40.8077389],[-73.9625325,40.807742],[-73.9625354,40.8077456],[-73.9625372,40.8077483],[-73.9625387,40.8077509],[-73.9625404,40.8077546],[-73.9625412,40.8077567],[-73.9625423,40.8077611],[-73.9625429,40.8077656],[-73.9625429,40.8077697],[-73.9625426,40.8077729]],[[-73.9626605,40.8078227],[-73.962703,40.8077646],[-73.9626405,40.8077384],[-73.9625979,40.8077964],[-73.9626605,40.8078227]],[[-73.9626943,40.8078317],[-73.9627711,40.8078641],[-73.9628192,40.8077989],[-73.9627423,40.8077664],[-73.9626943,40.8078317]],[[-73.962463,40.8078115],[-73.9624381,40.8078474],[-73.9625185,40.8078799],[-73.9625599,40.8078212],[-73.9625191,40.8078044],[-73.9625163,40.807806],[-73.9625124,40.8078078],[-73.9625093,40.807809],[-73.9625045,40.8078107],[-73.9625008,40.8078117],[-73.9624975,40.8078124],[-73.9624936,40.8078131],[-73.9624911,40.8078134],[-73.962487,40.8078137],[-73.9624829,40.8078139],[-73.9624794,40.8078138],[-73.9624767,40.8078137],[-73.9624724,40.8078132],[-73.9624679,40.8078126],[-73.962463,40.8078115]],[[-73.9625732,40.8078277],[-73.9625319,40.8078879],[-73.9625816,40.807908],[-73.962627,40.8078966],[-73.9626534,40.8078601],[-73.9625732,40.8078277]],[[-73.9626477,40.8080551],[-73.9627526,40.8079074],[-73.9626636,40.8078712],[-73.9626326,40.8079149],[-73.962587,40.8079241],[-73.9624066,40.8078525],[-73.9623491,40.8079336],[-73.9626477,40.8080551]],[[-73.9618603,40.8074853],[-73.9619211,40.8075095],[-73.9619617,40.8074537],[-73.9619009,40.807428],[-73.9618603,40.8074853]],[[-73.9620306,40.8075267],[-73.9620544,40.8074939],[-73.9619782,40.8074622],[-73.9619374,40.8075185],[-73.9619757,40.8075344],[-73.9620306,40.8075267]],[[-73.9618078,40.807583],[-73.9618568,40.8076031],[-73.9618994,40.8075436],[-73.9618192,40.8075107],[-73.9617944,40.8075453],[-73.9618078,40.807583]],[[-73.9618694,40.8076082],[-73.9619487,40.8076422],[-73.9619746,40.8076076],[-73.9619544,40.8075682],[-73.9619128,40.8075504],[-73.9618694,40.8076082]],[[-73.961611,40.8076218],[-73.9619097,40.8077466],[-73.9619713,40.8076622],[-73.961789,40.807586],[-73.9617729,40.8075485],[-73.9618017,40.8075091],[-73.9617186,40.8074743],[-73.961611,40.8076218]]]},"properties":{"name":"Low Plaza"}},{"type":"Feature","geometry":{"type":"Polygon","coordinates":[[[-73.979782,40.7927162],[-73.9796748,40.7928303],[-73.9792504,40.7932818],[-73.9786427,40.7939236],[-73.9781989,40.7943003],[-73.9780886,40.7943018],[-73.9779891,40.7943168],[-73.9778348,40.7943663],[-73.977695,40.7944525],[-73.9767202,40.7955472],[-73.9766508,40.7955944],[-73.9765555,40.7956256],[-73.9764846,40.7956371],[-73.9763986,40.795638],[-73.9762905,40.7955974],[-73.9762573,40.7955666],[-73.9762247,40.7955228],[-73.9764734,40.7952466],[-73.9767041,40.7949166],[-73.9768805,40.7945977],[-73.9769999,40.7943396],[-73.9770706,40.7940546],[-73.9771136,40.7937415],[-73.9771283,40.7932488],[-73.9771375,40.7930267],[-73.977236,40.7928571],[-73.9773085,40.7927323],[-73.9774065,40.7925634],[-73.9777346,40.7922693],[-73.9784642,40.7919526],[-73.9785791,40.7919062],[-73.9787594,40.7918335],[-73.9789449,40.7917603],[-73.9791599,40.7915906],[-73.9793578,40.7914209],[-73.979435,40.791351],[-73.9797255,40.7909854],[-73.9801949,40.7903067],[-73.9803748,40.7900759],[-73.9805178,40.7898925],[-73.9807152,40.7896393],[-73.9808996,40.7893489],[-73.9809415,40.789283],[-73.9809654,40.789214],[-73.9810998,40.7888249],[-73.9811658,40.7885713],[-73.9812009,40.7884365],[-73.9811759,40.7882562],[-73.9812249,40.7877686],[-73.9812441,40.7876298],[-73.9812728,40.7873102],[-73.9813028,40.7869906],[-73.9813208,40.7868366],[-73.9813573,40.78659],[-73.9814019,40.7864469],[-73.9814426,40.7863572],[-73.9814852,40.786285],[-73.9815568,40.7861692],[-73.9816101,40.7861012],[-73.9816972,40.7859982],[-73.9818409,40.7858604],[-73.9822405,40.7854736],[-73.9825756,40.7851548],[-73.9828781,40.784861],[-73.983304,40.7844549],[-73.9834267,40.7843439],[-73.9842538,40.7835574],[-73.9844085,40.7833975],[-73.9845021,40.7832773],[-73.9845812,40.7831582],[-73.9846234,40.7830695],[-73.9847176,40.7828554],[-73.9848723,40.7824766],[-73.9850021,40.7821736],[-73.9851218,40.7818735],[-73.9851809,40.7817351],[-73.9854185,40.781164],[-73.9854808,40.7810186],[-73.9856666,40.7805948],[-73.9856429,40.7805728],[-73.9856819,40.780473],[-73.985704,40.7804451],[-73.985741,40.7804228],[-73.9857901,40.7804157],[-73.9858268,40.780421],[-73.9858761,40.7804376],[-73.9859018,40.7804519],[-73.9859008,40.7804705],[-73.9865355,40.7807395],[-73.9865298,40.7807502],[-73.9865256,40.7807592],[-73.9866025,40.7807911],[-73.986801,40.7808736],[-73.9870475,40.7809748],[-73.9871494,40.7810167],[-73.9871678,40.7810243],[-73.9881472,40.781378],[-73.9880798,40.7815131],[-73.9880405,40.7815946],[-73.988018,40.7816431],[-73.9880025,40.7816773],[-73.9879357,40.7818277],[-73.9878942,40.7818869],[-73.9869408,40.7832625],[-73.9860918,40.7844976],[-73.9857527,40.7849775],[-73.9854782,40.7853757],[-73.9854479,40.785419],[-73.9850878,40.7859324],[-73.9847162,40.7864723],[-73.984363,40.7869822],[-73.9840943,40.7873648],[-73.9835893,40.7880976],[-73.9832848,40.7885399],[-73.9831259,40.7887706],[-73.9825815,40.7895365],[-73.9816674,40.7901461],[-73.980947,40.7912479],[-73.979782,40.7927162]]]},"properties":{"name":"Riverside Park"}},{"type":"Feature","geometry":{"type":"Polygon","coordinates":[[[-73.9640406,40.801031],[-73.9641012,40.8010567],[-73.9641985,40.8010953],[-73.9643393,40.801155],[-73.9644391,40.8011972],[-73.9643698,40.8012917],[-73.9642619,40.8014389],[-73.9639426,40.8013064],[-73.9637181,40.8012107],[-73.9632554,40.8010132],[-73.96323735456717,40.801005595139024],[-73.96358488250013,40.8005296138671],[-73.9636084,40.8005397],[-73.9640621,40.8007342],[-73.9641961,40.8007919],[-73.9642111,40.8007984],[-73.9640406,40.801031]]]},"properties":{"name":"Booker T Washington Playground"}}]}