{"type":"FeatureCollection","features":[{"type":"Feature","properties":{},"geometry":{"type":"MultiPolygon","coordinates":[[[[-73.9957988,40.7705687],[-73.9957724,40.7705575],[-73.9958774,40.7704156],[-73.9959494,40.7704462],[-73.9959744,40.7704568],[-73.9960058,40.7704701],[-73.9959008,40.770612],[-73.995826,40.7705802],[-73.9957988,40.7705687]]],[[[-73.9965127,40.7726807],[-73.9959701,40.7724514],[-73.9947747,40.7719351],[-73.9949779,40.7716623],[-73.9970852,40.7725347],[-73.9968652,40.7728343],[-73.9965127,40.7726807]]],[[[-73.9941693,40.7724668],[-73.9942618,40.7723453],[-73.9942857,40.772314],[-73.9944522,40.7723825],[-73.9962345,40.7731387],[-73.9961294,40.7732796],[-73.994237,40.7724949],[-73.9941693,40.7724668]]],[[[-73.9950176,40.7734848],[-73.9950878,40.7733931],[-73.9950111,40.773361],[-73.995054,40.7733017],[-73.9962316,40.7738033],[-73.9961911,40.7738577],[-73.9961451,40.7738376],[-73.9960973,40.7739027],[-73.9961454,40.773924],[-73.9961179,40.7739598],[-73.9961839,40.7739879],[-73.9960986,40.7741013],[-73.9939457,40.7731851],[-73.9937229,40.7730874],[-73.9938339,40.7729334],[-73.993895,40.7729587],[-73.9939688,40.7729454],[-73.9940005,40.772899],[-73.9940286,40.7728912],[-73.9943801,40.7730436],[-73.9942903,40.7731645],[-73.9950176,40.7734848]]],[[[-73.9893137,40.7797391],[-73.9894116,40.7797453],[-73.9895059,40.7797315],[-73.9895952,40.7796963],[-73.9897266,40.7796741],[-73.9898499,40.7796749],[-73.9899479,40.7797017],[-73.9900795,40.7797116],[-73.9901865,40.7796951],[-73.9902849,40.7796731],[-73.9904075,40.779669],[-73.9905426,40.7796789],[-73.9906599,40.7796853],[-73.9907562,40.779677],[-73.9908577,40.7796496],[-73.9909548,40.7796375],[-73.9910571,40.7796513],[-73.991165,40.7796747],[-73.9912548,40.7796671],[-73.9912787,40.7796384],[-73.9913278,40.7796382],[-73.9913547,40.7795926],[-73.9915503,40.7795765],[-73.9914208,40.7797557],[-73.988885,40.7798859],[-73.9888485,40.7798875],[-73.9888475,40.7798803],[-73.9888347,40.7797366],[-73.9888337,40.7797213],[-73.9888616,40.7797199],[-73.9892222,40.7797068],[-73.9892657,40.7797282],[-73.9893137,40.7797391]]],[[[-73.98636511785705,40.784640084759836],[-73.98636786368084,40.784639022712895],[-73.98637070038154,40.7846382349178],[-73.98637360064018,40.784637728961435],[-73.98637653652567,40.784637509716454],[-73.98637947976384,40.7846375792943],[-73.9863824020097,40.78463793702489],[-73.9863852751204,40.7846385794631],[-73.98638807142633,40.78463950042188],[-73.98639076399755,40.78464069103191],[-73.98639332690311,40.78464213982696],[-73.98639573546083,40.784643832854336],[-73.98639796647498,40.78464575380926],[-73.98639999845969,40.78464788419189],[-73.98640181184582,40.78465020348548],[-73.98640338916947,40.784652689353955],[-73.98640471524017,40.784655317857045],[-73.9864057772871,40.78465806368084],[-73.9864065650822,40.78466090038154],[-73.98640707103856,40.784663800640175],[-73.98640729028354,40.784666736525665],[-73.9864072207057,40.78466967976384],[-73.9864068629751,40.784672602009685],[-73.9864062205369,40.784675475120395],[-73.98640529957812,40.78467827142634],[-73.98640410896809,40.78468096399755],[-73.98640266017304,40.78468352690311],[-73.98640096714567,40.78468593546083],[-73.98636545766807,40.78473152195234],[-73.98642585008183,40.78475802645687],[-73.98650024585089,40.784790637244754],[-73.98652484579104,40.784756844027996],[-73.98652669316957,40.78475455171812],[-73.98652875633813,40.78475245152111],[-73.98653101542727,40.784750563662996],[-73.98653344868073,40.7847489063249],[-73.98653603266496,40.78474749546788],[-73.98653874249476,40.78474634467927],[-73.986541552073,40.784745465041794],[-73.98654443434191,40.78474486502683],[-73.98654736154364,40.78474455041286],[-73.98655030548767,40.784744524229794],[-73.98655323782219,40.784744786729775],[-73.98655613030724,40.78474533538479],[-73.98655895508656,40.78474616491099],[-73.98656168495602,40.78474726731959],[-73.98656429362548,40.78474863199379],[-73.986566755972,40.78475024579103],[-73.98656904828188,40.78475209316956],[-73.9865711484789,40.78475415633812],[-73.986573036337,40.78475641542726],[-73.98657469367511,40.784758848680724],[-73.98657610453212,40.78476143266495],[-73.98657725532073,40.78476414249475],[-73.98657813495821,40.78476695207299],[-73.98657873497316,40.784769834341894],[-73.98657904958714,40.78477276154364],[-73.98657907577021,40.78477570548767],[-73.98657881327023,40.784778637822185],[-73.98657826461522,40.78478153030722],[-73.98657743508902,40.78478435508655],[-73.98657633268041,40.784787084956015],[-73.98657496800621,40.78478969362546],[-73.98657335420897,40.784792155972],[-73.98655649918315,40.784815309912105],[-73.98660422281478,40.78483624940237],[-73.98663916066069,40.78478945257217],[-73.98664103557223,40.784787182726646],[-73.98664312393933,40.78478510758452],[-73.98664540564987,40.784783247130534],[-73.98664785872971,40.78478161928189],[-73.98665045955438,40.78478023971565],[-73.98665318307653,40.7847791217178],[-73.9866560030671,40.78477827605526],[-73.98665889236807,40.784777710872234],[-73.98666182315391,40.78477743161174],[-73.98666476719951,40.784777440963204],[-73.98666769615213,40.78477773883657],[-73.98667058180435,40.78477832236315],[-73.98667339636576,40.78477918592328],[-73.98667611273058,40.78478032120038],[-73.98667870473875,40.784781717261126],[-73.98668114742782,40.78478336066069],[-73.98668341727334,40.78478523557223],[-73.98668549241548,40.78478732393933],[-73.98668735286945,40.78478960564986],[-73.9866889807181,40.78479205872972],[-73.98669036028434,40.78479465955439],[-73.9866914782822,40.78479738307652],[-73.98669232394472,40.7848002030671],[-73.98669288912775,40.78480309236808],[-73.98669316838826,40.784806023153905],[-73.98669315903679,40.78480896719952],[-73.98669286116342,40.784811896152135],[-73.98669227763683,40.78481478180435],[-73.98669141407672,40.784817596365755],[-73.98669027879961,40.78482031273059],[-73.98668888273886,40.78482290473876],[-73.9866872393393,40.78482534742783],[-73.98666062389171,40.784860996980605],[-73.98669659607182,40.78487678108998],[-73.98676071932711,40.7847914742593],[-73.98676260163217,40.78478921054119],[-73.98676469675658,40.78478714222166],[-73.98676698452316,40.784785289219755],[-73.98676944289946,40.7847836693809],[-73.98677204820999,40.784782298305025],[-73.98677477536417,40.784781189196345],[-73.98677759809802,40.78478035273618],[-73.98678048922707,40.7847797969801],[-73.98678342090815,40.784779527280335],[-73.9867863649076,40.78477954623425],[-73.98678929287308,40.7847798536593],[-73.98679217660668,40.78478044659482],[-73.98679498833647,40.78478131933051],[-73.98679770098396,40.78478246346146],[-73.98680028842485,40.78478386796905],[-73.9868027257407,40.78478551932711],[-73.9868049894588,40.78478740163216],[-73.98680705777835,40.784789496756574],[-73.98680891078024,40.78479178452316],[-73.98681053061911,40.784794242899466],[-73.98681190169498,40.78479684820999],[-73.98681301080366,40.78479957536417],[-73.98681384726382,40.78480239809802],[-73.9868144030199,40.784805289227066],[-73.98681467271966,40.78480822090816],[-73.98681465376575,40.78481116490761],[-73.9868143463407,40.784814092873084],[-73.98681375340519,40.78481697660668],[-73.98681288066949,40.78481978833646],[-73.98681173653854,40.78482250098395],[-73.98681033203096,40.78482508842485],[-73.9868086806729,40.7848275257407],[-73.98675306637575,40.78490151261814],[-73.98681783007113,40.784929904559604],[-73.98688065071178,40.78484663258198],[-73.9868825369508,40.784844372140796],[-73.98688463566904,40.784842307468004],[-73.9868869266547,40.78484045844753],[-73.98688938784434,40.78483884288647],[-73.98689199553536,40.78483747634354],[-73.98689472461425,40.78483637197931],[-73.98689754879851,40.7848355404294],[-73.9869004408897,40.7848349897021],[-73.98690337303539,40.784834725101206],[-73.98690631699742,40.78483474917497],[-73.98690924442383,40.78483506169156],[-73.9869121271219,40.78483565964125],[-73.98691493732967,40.784836537265484],[-73.9869176479833,40.78483768611224],[-73.98692023297772,40.784839095117505],[-73.98692266741803,40.78484075071178],[-73.9869249278592,40.7848426369508],[-73.986926992532,40.78484473566904],[-73.98692884155247,40.7848470266547],[-73.98693045711353,40.78484948784434],[-73.98693182365646,40.78485209553535],[-73.98693292802069,40.78485482461425],[-73.9869337595706,40.78485764879851],[-73.98693431029791,40.784860540889696],[-73.9869345748988,40.78486347303539],[-73.98693455082503,40.78486641699742],[-73.98693423830845,40.784869344423825],[-73.98693364035874,40.784872227121895],[-73.98693276273451,40.78487503732966],[-73.98693161388776,40.784877747983295],[-73.9869302048825,40.78488033297772],[-73.98692854928822,40.78488276741802],[-73.9868742999862,40.78495467764715],[-73.98693980604438,40.78498342722788],[-73.98699870749475,40.78490585755825],[-73.98700060081396,40.78490360304402],[-73.98700270599734,40.78490154496363],[-73.98700500277086,40.78489970313752],[-73.9870074690153,40.784898095303475],[-73.9870100809794,40.78489673694582],[-73.98701281350851,40.78489564114628],[-73.98701564028688,40.784894818458],[-73.9870185340911,40.784894276803925],[-73.98702146705224,40.784894021400476],[-73.98702441092429,40.78489405470732],[-73.98702733735615,40.78489437640371],[-73.98703021816469,40.78489498339153],[-73.98703302560612,40.78489586982515],[-73.98703573264328,40.78489702716773],[-73.9870383132059,40.78489844427342],[-73.98704074244175,40.78490010749474],[-73.98704299695598,40.78490200081394],[-73.98704505503636,40.784904105997335],[-73.98704689686248,40.784906402770844],[-73.98704850469652,40.78490886901529],[-73.98704986305418,40.784911480979396],[-73.98705095885373,40.78491421350851],[-73.98705178154201,40.784917040286885],[-73.98705232319608,40.7849199340911],[-73.98705257859953,40.784922867052245],[-73.98705254529267,40.78492581092429],[-73.98705222359628,40.784928737356154],[-73.98705161660847,40.78493161816468],[-73.98705073017486,40.78493442560612],[-73.98704957283228,40.78493713264327],[-73.98704815572657,40.78493971320589],[-73.98704649250526,40.78494214244174],[-73.98697329250525,40.78503854244175],[-73.9869732233814,40.78503862498896],[-73.98697316383326,40.78503871065889],[-73.98689996383325,40.78513371065889],[-73.98689805464548,40.785135951751045],[-73.98689593498553,40.7851379949186],[-73.98689362526687,40.78513982048474],[-73.98689114773336,40.785141410868256],[-73.98688852624502,40.78514275075289],[-73.98688578604819,40.785143827234826],[-73.98688295353249,40.785144629946956],[-73.98688005597657,40.785145151158716],[-73.98687712128549,40.78514538585055],[-73.98687417772193,40.78514533176225],[-73.986871253634,40.785144989414725],[-73.9868683771823,40.78514436210495],[-73.9868655760686,40.785143455874284],[-73.98686287726916,40.785142279450206],[-73.98686030677491,40.78514084416233],[-73.98685788934111,40.78513916383326],[-73.98685564824896,40.785137254645484],[-73.98685360508141,40.78513513498553],[-73.98685177951526,40.78513282526687],[-73.98685018913174,40.78513034773337],[-73.98684884924711,40.78512772624502],[-73.98684777276517,40.7851249860482],[-73.98684697005305,40.78512215353249],[-73.98684644884129,40.785119255976575],[-73.98684621414945,40.7851163212855],[-73.98684626823774,40.785113377721935],[-73.98684661058527,40.78511045363402],[-73.98684723789505,40.7851075771823],[-73.98684814412572,40.78510477606861],[-73.9868493205498,40.78510207726917],[-73.98685075583766,40.78509950677492],[-73.98685243616674,40.785097089341114],[-73.9869022335904,40.785032461537185],[-73.98683733222352,40.78500397734417],[-73.98678318446122,40.78507688683113],[-73.98678131527191,40.78507916139116],[-73.98677923213741,40.78508124178598],[-73.9867769551194,40.785083107980235],[-73.98677450614684,40.785084742001466],[-73.98677190880466,40.78508612811315],[-73.98676918810669,40.78508725296627],[-73.98676637025474,40.78508810572789],[-73.98676348238627,40.78508867818543],[-73.986760552313,40.785088964825825],[-73.98675760825319,40.785088962888565],[-73.98675467855969,40.78508867239231],[-73.9867517914471,40.7850880961347],[-73.98674897471986,40.7850872396654],[-73.98674625550461,40.78508611123269],[-73.98674365998886,40.78508472170399],[-73.98674121316887,40.78508308446121],[-73.98673893860884,40.78508121527191],[-73.98673685821402,40.7850791321374],[-73.98673499201976,40.7850768551194],[-73.98673335799853,40.78507440614683],[-73.98673197188685,40.78507180880465],[-73.98673084703373,40.78506908810669],[-73.98672999427211,40.78506627025474],[-73.98672942181457,40.785063382386255],[-73.98672913517417,40.785060452313004],[-73.98672913711142,40.78505750825318],[-73.98672942760768,40.785054578559695],[-73.9867300038653,40.785051691447094],[-73.9867308603346,40.785048874719855],[-73.9867319887673,40.7850461555046],[-73.98673337829601,40.78504355998886],[-73.98673501553878,40.785041113168866],[-73.98678095772858,40.78497925241331],[-73.98672591388022,40.78495512158336],[-73.986673430576,40.78502966994039],[-73.98667161970441,40.78503199119782],[-73.98666959002963,40.7850341237813],[-73.98666736109857,40.78503604715289],[-73.98666495437702,40.78503774278948],[-73.98666239304306,40.78503919436115],[-73.98665970176371,40.785040387888465],[-73.98665690645747,40.78504131187712],[-73.98665403404468,40.7850419574286],[-73.98665111218823,40.78504231832588],[-73.98664816902718,40.78504239109332],[-73.98664523290581,40.78504217503014],[-73.98664233210057,40.785041672217154],[-73.98663949454779,40.785040887496706],[-73.98663674757465,40.78503982842609],[-73.986634117636,40.78503850520474],[-73.9866316300596,40.785036930576],[-73.98662930880218,40.785035119704396],[-73.9866271762187,40.78503309002962],[-73.9866252528471,40.785030861098555],[-73.98662355721052,40.78502845437702],[-73.98662210563886,40.78502589304305],[-73.98662091211153,40.78502320176371],[-73.98661998812288,40.78502040645747],[-73.9866193425714,40.78501753404467],[-73.98661898167413,40.78501461218821],[-73.98661890890668,40.78501166902718],[-73.98661912496986,40.78500873290581],[-73.98661962778286,40.78500583210056],[-73.9866204125033,40.785002994547774],[-73.98662147157391,40.78500024757464],[-73.98662279479527,40.784997617635995],[-73.986624369424,40.784995130059606],[-73.98666982920314,40.78493055806101],[-73.98662383985487,40.78491037855284],[-73.98656408958368,40.78499087993172],[-73.98656222104597,40.78499315502706],[-73.98656013850746,40.78499523601848],[-73.98655786202409,40.784997102864885],[-73.98655541351967,40.78499873758752],[-73.98655281657463,40.78500012444312],[-73.98655009619898,40.78500125007551],[-73.9865472785914,40.785002103644224],[-73.98654439088702,40.78500267692894],[-73.98654146089599,40.785002964408605],[-73.98653851683574,40.78500296331463],[-73.98653558705915,40.78500267365756],[-73.98653269978162,40.78500209822695],[-73.98652988280917,40.785001242564505],[-73.9865271632708,40.78500011491072],[-73.98652456735715,40.78499872612552],[-73.98652212006829,40.784997089583676],[-73.98651984497295,40.784995221045975],[-73.98651776398152,40.784993138507446],[-73.98651589713512,40.78499086202409],[-73.98651426241248,40.78498841351967],[-73.98651287555688,40.78498581657463],[-73.98651174992449,40.78498309619897],[-73.98651089635578,40.7849802785914],[-73.98651032307107,40.784977390887015],[-73.98651003559141,40.78497446089598],[-73.98651003668537,40.784971516835725],[-73.98651032634244,40.784968587059154],[-73.98651090177306,40.78496569978161],[-73.98651175743551,40.78496288280916],[-73.98651288508928,40.784960163270796],[-73.98651427387448,40.78495756735715],[-73.98651591041633,40.78495512006828],[-73.98656747506273,40.784885647159555],[-73.98652048920502,40.78486503137821],[-73.98645986288713,40.784949405705646],[-73.98645802971397,40.784951709391414],[-73.98645597956734,40.784953822301915],[-73.98645373219128,40.78495572408867],[-73.98645130922925,40.78495739643642],[-73.98644873401571,40.784958823239556],[-73.98644603135135,40.78495999075717],[-73.98644322726433,40.78496088774544],[-73.98644034875953,40.784961505565875],[-73.98643742355853,40.78496183826853],[-73.9864344798326,40.784961882649284],[-73.98643154593144,40.78496163828074],[-73.98642865011011,40.7849611075163],[-73.98642582025698,40.784960295467506],[-73.98642308362507,40.78495920995484],[-73.98642046656964,40.78495786143238],[-73.98641799429434,40.784956262887135],[-73.98641569060858,40.78495442971396],[-73.98641357769807,40.784952379567336],[-73.98641167591133,40.78495013219128],[-73.98641000356358,40.78494770922925],[-73.98640857676044,40.78494513401571],[-73.98640740924283,40.784942431351354],[-73.98640651225456,40.78493962726433],[-73.98640589443411,40.78493674875953],[-73.98640556173147,40.78493382355852],[-73.9864055173507,40.784930879832594],[-73.98640576171925,40.784927945931436],[-73.9864062924837,40.78492505011012],[-73.98640710453249,40.78492222025699],[-73.98640819004515,40.78491948362507],[-73.98640953856761,40.78491686656963],[-73.98641113711287,40.78491439429435],[-73.98646430821734,40.784840395471164],[-73.98642407588973,40.784822759953464],[-73.98637682541452,40.784889018356],[-73.98637500050202,40.78489132859114],[-73.98637295793435,40.78489344882915],[-73.98637071738253,40.784895358651006],[-73.98636830042429,40.78489703966406],[-73.98636573033627,40.78489847567924],[-73.98636303186984,40.78489965286695],[-73.98636023101268,40.784900559890204],[-73.9863573547386,40.78490118801388],[-73.98635443074767,40.784901531188815],[-73.98635148719953,40.784901586110045],[-73.98634855244215,40.78490135224863],[-73.98634565473887,40.78490083185681],[-73.98634282199613,40.78490002994622],[-73.98634008149482,40.78489895423971],[-73.98633745962744,40.78489761509692],[-73.986334981644,40.78489602541452],[-73.98633267140887,40.78489420050203],[-73.98633055117085,40.78489215793435],[-73.98632864134899,40.78488991738252],[-73.98632696033594,40.78488750042429],[-73.98632552432076,40.78488493033628],[-73.98632434713306,40.784882231869844],[-73.9863234401098,40.78487943101269],[-73.98632281198611,40.7848765547386],[-73.98632246881118,40.78487363074767],[-73.98632241388997,40.78487068719953],[-73.98632264775136,40.78486775244216],[-73.9863231681432,40.78486485473887],[-73.98632397005379,40.78486202199614],[-73.9863250457603,40.78485928149482],[-73.98632638490308,40.78485665962744],[-73.98632797458548,40.78485418164401],[-73.98636794195795,40.784798136191725],[-73.98632750682305,40.78478039036586],[-73.98627893855004,40.78484324342503],[-73.98627702627238,40.78484548188121],[-73.98627490379576,40.78484752212263],[-73.98627259156083,40.78484934450064],[-73.98627011183567,40.78485093146475],[-73.98626748850137,40.78485226773162],[-73.98626474682209,40.78485334043228],[-73.98626191320169,40.78485413923602],[-73.98625901492949,40.78485465644994],[-73.98625607991742,40.784854887092976],[-73.98625313643127,40.784854828943914],[-73.98625021281843,40.784854482562764],[-73.98624733723487,40.78485385128536],[-73.98624453737403,40.78485294119126],[-73.98624184020011,40.784851761045154],[-73.98623927168836,40.7848503222125],[-73.98623685657498,40.78484863855004],[-73.98623461811879,40.78484672627236],[-73.98623257787736,40.78484460379576],[-73.98623075549935,40.78484229156083],[-73.98622916853525,40.78483981183566],[-73.98622783226838,40.78483718850136],[-73.98622675956773,40.784834446822074],[-73.98622596076397,40.784831613201675],[-73.98622544355005,40.784828714929475],[-73.98622521290703,40.78482577991742],[-73.98622527105609,40.784822836431275],[-73.98622561743723,40.78481991281843],[-73.98622624871463,40.78481703723486],[-73.98622715880875,40.78481423737402],[-73.98622833895485,40.7848115402001],[-73.9862297777875,40.784808971688356],[-73.98623146144996,40.784806556574964],[-73.98627087017391,40.784755557049856],[-73.98626655411074,40.784753665661384],[-73.9861957196017,40.78484312332774],[-73.98619378094305,40.78484533897542],[-73.98619163444813,40.784847353932385],[-73.98618930078887,40.784849148793484],[-73.98618680243963,40.784850706273225],[-73.98618416346093,40.78485201137224],[-73.98618140926757,40.78485305152169],[-73.98617856638393,40.78485381670438],[-73.98617566218851,40.78485429955118],[-73.98617272465034,40.78485449541201],[-73.9861697820595,40.78485440240063],[-73.98616686275474,40.78485402141279],[-73.98616399485059,40.7848533561176],[-73.98616120596648,40.78485241292223],[-73.98615852296095,40.78485120091015],[-73.98615597167277,40.78484973175372],[-73.98615357667227,40.7848480196017],[-73.98615136102457,40.784846080943055],[-73.9861493460676,40.78484393444814],[-73.98614755120651,40.78484160078886],[-73.98614599372677,40.78483910243964],[-73.98614468862776,40.78483646346094],[-73.9861436484783,40.78483370926757],[-73.98614288329561,40.78483086638392],[-73.98614240044881,40.784827962188515],[-73.98614220458798,40.784825024650345],[-73.98614229759936,40.7848220820595],[-73.98614267858721,40.784819162754744],[-73.9861433438824,40.78481629485058],[-73.98614428707778,40.78481350596649],[-73.98614549908984,40.78481082296095],[-73.98614696824629,40.78480827167277],[-73.9861486803983,40.78480587667226],[-73.98620974007412,40.78472876374833],[-73.98619357677714,40.784721678467534],[-73.98610824027456,40.784829697189956],[-73.98610811245192,40.78482985785424],[-73.98601993646975,40.784939913936064],[-73.98602003535979,40.784940096565045],[-73.986021156537,40.784942745801644],[-73.98602201881508,40.784945490245015],[-73.98602261426538,40.78494830466002],[-73.98602293741274,40.784951163168145],[-73.98602298528584,40.78495403948542],[-73.98602275744446,40.78495690716413],[-73.98602225598361,40.784959739836005],[-73.98602148551424,40.78496251145463],[-73.98602045312077,40.78496519653501],[-73.9860191682961,40.784967770387844],[-73.98601764285412,40.78497020934658],[-73.9860158908213,40.784972490985005],[-73.98595874467908,40.78503995130901],[-73.98603907895607,40.78507946484022],[-73.98610749998207,40.78500343238429],[-73.98610957433306,40.785001343231365],[-73.98611184346827,40.784999467460224],[-73.9861142855347,40.78499782313558],[-73.98611687701391,40.78499642609318],[-73.98611959294855,40.7849952897873],[-73.98612240718266,40.78499442516119],[-73.98612529261366,40.784993840541674],[-73.98612822145324,40.784993541558954],[-73.98613116549511,40.7849935310924],[-73.9861340963865,40.7849938092428],[-73.98613698590134,40.78499437333143],[-73.98613980621201,40.7849952179258],[-73.98614253015741,40.78499633489201],[-73.98614513150441,40.78499771347305],[-73.98614758520067,40.784999340392446],[-73.98614986761571,40.78500119998207],[-73.98615195676864,40.78500327433306],[-73.98615383253978,40.78500554346827],[-73.98615547686443,40.785007985534705],[-73.98615687390682,40.785010577013914],[-73.9861580102127,40.78501329294855],[-73.98615887483881,40.78501610718267],[-73.98615945945834,40.785018992613665],[-73.98615975844105,40.78502192145325],[-73.98615976890761,40.7850248654951],[-73.9861594907572,40.785027796386494],[-73.98615892666857,40.78503068590133],[-73.9861580820742,40.78503350621202],[-73.986156965108,40.7850362301574],[-73.98615558652695,40.78503883150442],[-73.98615395960756,40.78504128520067],[-73.98615210001793,40.78504356761571],[-73.98609502659367,40.785106990117065],[-73.9861640269882,40.78514094182132],[-73.98622871993068,40.785063034656275],[-73.98623070959971,40.78506086470025],[-73.98623290238082,40.78505890021482],[-73.98623527715634,40.78505716011907],[-73.98623781105587,40.78505566117105],[-73.98624047967658,40.785054417806464],[-73.9862432573182,40.78505344199959],[-73.98624611723051,40.78505274314798],[-73.98624903187098,40.78505232798196],[-73.98625197317007,40.7850522004998],[-73.98625491280143,40.785052361929225],[-73.98625782245482,40.78505281071559],[-73.98626067410866,40.78505354253682],[-73.9862634403,40.785054550345095],[-73.98626609438887,40.78505582443466],[-73.98626861081497,40.78505735253533],[-73.98627096534373,40.78505911993068],[-73.98627313529975,40.7850611095997],[-73.98627509978517,40.78506330238081],[-73.98627683988094,40.78506567715633],[-73.98627833882895,40.785068211055865],[-73.98627958219353,40.785070879676574],[-73.98628055800042,40.785073657318186],[-73.98628125685202,40.78507651723049],[-73.98628167201804,40.78507943187098],[-73.9862817995002,40.78508237317006],[-73.98628163807078,40.78508531280142],[-73.98628118928441,40.7850882224548],[-73.98628045746318,40.78509107410865],[-73.9862794496549,40.785093840299986],[-73.98627817556535,40.78509649438886],[-73.98627664746466,40.78509901081496],[-73.98627488006933,40.78510136534372],[-73.98621939364337,40.785168185463206],[-73.98629088543062,40.7852033639617],[-73.98635420371859,40.7851330282329],[-73.98635627845849,40.78513093946619],[-73.98635854794288,40.78512906411755],[-73.98636099031542,40.78512742024759],[-73.98636358205468,40.78512602368769],[-73.98636629820082,40.78512488788747],[-73.98636911259587,40.78512402378532],[-73.98637199813565,40.785123439703014],[-73.98637492703085,40.78512314126558],[-73.9863778710746,40.78512313134714],[-73.98638080191415,40.785123410043205],[-73.98638369132392,40.78512397466979],[-73.98638651147732,40.78512481978922],[-73.9863892352147,40.785125937262535],[-73.98639183630502,40.785127316327866],[-73.98639428969832,40.78512894370406],[-73.98639657176712,40.78513080371858],[-73.98639866053381,40.785132878458484],[-73.98640053588245,40.78513514794288],[-73.98640217975242,40.78513759031541],[-73.98640357631233,40.785140182054676],[-73.98640471211253,40.78514289820082],[-73.98640557621468,40.78514571259586],[-73.986406160297,40.78514859813565],[-73.98640645873442,40.78515152703085],[-73.98640646865287,40.7851544710746],[-73.98640618995681,40.785157401914155],[-73.98640562533022,40.78516029132392],[-73.98640478021079,40.78516311147731],[-73.98640366273747,40.7851658352147],[-73.98640228367213,40.78516843630501],[-73.98640065629596,40.78517088969832],[-73.98639879628142,40.785173171767106],[-73.98634683633036,40.78523089033695],[-73.98641408850044,40.7852639731896],[-73.9864789538183,40.78518775644112],[-73.98648096963096,40.78518561074977],[-73.98648318605144,40.7851836729747],[-73.98648558173444,40.78518196177775],[-73.98648813360819,40.785180493638684],[-73.98649081709677,40.78517928269647],[-73.9864936063567,40.78517834061315],[-73.98649647452591,40.7851776764615],[-73.98649939398234,40.78517729663766],[-73.98650233661003,40.78517720479956],[-73.98650527406988,40.785177401831625],[-73.98650817807254,40.78517788583635],[-73.98651102065087,40.78517865215249],[-73.98651377442928,40.78517969340001],[-73.98651641288741,40.78518099955112],[-73.98651891061544,40.78518255802688],[-73.98652124355888,40.78518435381831],[-73.98652338925024,40.785186369630964],[-73.98652532702529,40.78518858605145],[-73.98652703822225,40.78519098173444],[-73.98652850636132,40.785193533608194],[-73.98652971730354,40.78519621709677],[-73.98653065938686,40.78519900635671],[-73.9865313235385,40.78520187452591],[-73.98653170336233,40.785204793982345],[-73.98653179520045,40.78520773661004],[-73.98653159816837,40.78521067406989],[-73.98653111416365,40.78521357807254],[-73.9865303478475,40.78521642065087],[-73.98652930659999,40.785219174429294],[-73.98652800044889,40.785221812887414],[-73.98652644197313,40.78522431061544],[-73.98652464618169,40.785226643558886],[-73.9864696273072,40.78529129073641],[-73.9865429310732,40.78532734363922],[-73.9866120678776,40.78524869334809],[-73.9866141177673,40.78524658018833],[-73.98661636491211,40.785244678128336],[-73.98661878767078,40.78524300548599],[-73.98662136271084,40.78524157836975],[-73.9866240652332,40.78524041052353],[-73.98662686921114,40.78523951319432],[-73.9866297476408,40.785238895023895],[-73.98663267280133,40.78523856196558],[-73.98663561652185,40.785238517226894],[-73.9866385504527,40.7852387612387],[-73.98664144633852,40.785239291651045],[-73.98664427629038,40.785240103355754],[-73.98664701305425,40.785241188535664],[-73.98664963027363,40.785242536739915],[-73.98665210274326,40.785244134984545],[-73.98665440665192,40.7852459678776],[-73.98665651981167,40.78524801776731],[-73.98665842187167,40.785250264912115],[-73.98666009451401,40.785252687670784],[-73.98666152163025,40.78525526271083],[-73.98666268947647,40.7852579652332],[-73.98666358680569,40.78526076921114],[-73.98666420497611,40.785263647640804],[-73.98666453803443,40.78526657280133],[-73.98666458277312,40.78526951652184],[-73.9866643387613,40.785272450452695],[-73.98666380834896,40.78527534633852],[-73.98666299664426,40.78527817629037],[-73.98666191146434,40.78528091305425],[-73.98666056326009,40.78528353027364],[-73.98665896501545,40.78528600274327],[-73.9866571321224,40.785288306651914],[-73.9865987072329,40.78535477102799],[-73.98667783710223,40.785393678277835],[-73.9866804121522,40.785395105376196],[-73.98668283492248,40.78539677800172],[-73.98668508208048,40.78539868004611],[-73.98668713198487,40.785400793191634],[-73.98668896489391,40.78540309708755],[-73.98669056315572,40.785405569546086],[-73.98669191137814,40.78540818675611],[-73.98669299657706,40.78541092351245],[-73.98669380830141,40.78541375345866],[-73.98669433873387,40.78541664934081],[-73.98669458276605,40.78541958326996],[-73.9866945380478,40.785422526990786],[-73.9866942050098,40.78542545215363],[-73.98669358685936,40.785428330587585],[-73.98669268954961,40.78543113457176],[-73.98669152172216,40.78543383710224],[-73.98669009462381,40.785436412152194],[-73.98668842199828,40.78543883492248],[-73.98668651995389,40.78544108208049],[-73.98668440680837,40.78544313198487],[-73.98668210291245,40.78544496489392],[-73.9866796304539,40.78544656315572],[-73.98667701324389,40.78544791137814],[-73.98667427648755,40.78544899657706],[-73.98667144654134,40.78544980830142],[-73.98666855065919,40.78545033873387],[-73.98666561673004,40.78545058276605],[-73.9866626730092,40.78545053804781],[-73.98665974784636,40.7854502050098],[-73.98665686941241,40.785449586859365],[-73.98665406542824,40.785448689549625],[-73.98665136289776,40.78544752172217],[-73.98655780319996,40.785401519491046],[-73.98645775432941,40.785516766757716],[-73.98645571756327,40.785518892569485],[-73.98645348223873,40.785520808506895],[-73.98645106988317,40.78552249611843],[-73.98644850372891,40.78552393915146],[-73.98644580848942,40.78552512370879],[-73.98644301012132,40.78552603838248],[-73.98644013557443,40.78552667436373],[-73.98643721253221,40.78552702552769],[-73.98643426914514,40.785527088492465],[-73.98643133375965,40.78552686265166],[-73.98642843464512,40.78552635018025],[-73.98642559972161,40.78552555601361],[-73.98642285629097,40.78552448780001],[-73.98642023077393,40.78552315582692],[-73.98641774845568,40.78552157292197],[-73.98641543324229,40.785519754329414],[-73.98641330743051,40.78551771756327],[-73.98641139149309,40.78551548223873],[-73.98640970388156,40.78551306988318],[-73.98640826084853,40.78551050372892],[-73.9864070762912,40.78550780848943],[-73.98640616161751,40.78550501012133],[-73.98640552563626,40.78550213557443],[-73.9864051744723,40.78549921253221],[-73.98640511150754,40.78549626914514],[-73.98640533734833,40.78549333375966],[-73.98640584981975,40.78549043464513],[-73.98640664398638,40.78548759972162],[-73.98640771219999,40.78548485629097],[-73.98640904417307,40.785482230773944],[-73.98641062707802,40.785479748455685],[-73.98641244567058,40.785477433242285],[-73.98650212043282,40.78537413601184],[-73.98642925836018,40.78533830034666],[-73.98633371476495,40.78544791224],[-73.98633167373129,40.78545003395477],[-73.98632943456133,40.785451945396616],[-73.98632701881954,40.78545362815731],[-73.9863244497708,40.785455066030956],[-73.98632175215648,40.78545624517003],[-73.98631895195606,40.78545715421879],[-73.98631607613703,40.78545778442259],[-73.98631315239507,40.78545812971223],[-73.98631020888742,40.78545818676238],[-73.98630727396167,40.785457955023624],[-73.98630437588277,40.78545743672771],[-73.9863015425608,40.78545663686614],[-73.98629880128217,40.785455563141994],[-73.98629617844693,40.78545422589583],[-73.9862936993144,40.78545263800607],[-73.98629138775999,40.78545081476496],[-73.98628926604522,40.78544877373128],[-73.98628735460338,40.78544653456134],[-73.98628567184268,40.78544411881954],[-73.98628423396904,40.78544154977081],[-73.98628305482997,40.78543885215649],[-73.9862821457812,40.785436051956076],[-73.9862815155774,40.78543317613703],[-73.98628117028775,40.785430252395074],[-73.98628111323761,40.78542730888743],[-73.98628134497638,40.78542437396168],[-73.98628186327228,40.78542147588277],[-73.98628266313385,40.78541864256079],[-73.986283736858,40.78541590128218],[-73.98628507410416,40.78541327844693],[-73.98628666199392,40.785410799314405],[-73.98628848523504,40.785408487759995],[-73.98637354973047,40.785310897959455],[-73.98630558865726,40.785277466381494],[-73.98622663506384,40.78536917337152],[-73.9862246070624,40.78537130754633],[-73.98622237964061,40.7853732326656],[-73.98621997424979,40.78537493018938],[-73.98621741405516,40.785376383769595],[-73.98621472371279,40.78537757940746],[-73.98621192913214,40.78537850558834],[-73.98620905722657,40.785379153392604],[-73.98620613565409,40.78537951658154],[-73.98620319255103,40.785379591657446],[-73.9862002562611,40.785379377897286],[-73.98619735506236,40.785378877359705],[-73.98619451689494,40.785378094865145],[-73.98619176909196,40.78537703794945],[-73.98618913811626,40.785375716791314],[-73.98618664930557,40.78537414411419],[-73.98618432662849,40.78537233506384],[-73.98618219245368,40.78537030706239],[-73.98618026733442,40.78536807964061],[-73.98617856981063,40.78536567424979],[-73.98617711623042,40.78536311405516],[-73.98617592059254,40.78536042371278],[-73.98617499441167,40.78535762913214],[-73.98617434660741,40.785354757226564],[-73.98617398341847,40.78535183565408],[-73.98617390834256,40.78534889255103],[-73.98617412210272,40.78534595626109],[-73.9861746226403,40.78534305506235],[-73.98617540513487,40.785340216894944],[-73.98617646205055,40.785337469091964],[-73.9861777832087,40.785334838116256],[-73.98617935588582,40.78533234930556],[-73.98618116493617,40.785330026628486],[-73.98624997366123,40.785250103210316],[-73.98617944027313,40.78521539630518],[-73.98610120083707,40.78530502820731],[-73.9860991583054,40.785307148480015],[-73.986096917786,40.78530905833992],[-73.98609450085632,40.78531073939402],[-73.9860919307927,40.78531217545285],[-73.98608923234626,40.78531335268638],[-73.9860864315045,40.7853142597572],[-73.98608355524108,40.78531488792973],[-73.98608063125599,40.78531523115432],[-73.98607768770877,40.78531528612554],[-73.98607475294743,40.78531505231397],[-73.98607185523531,40.78531453197135],[-73.98606902247896,40.785313730108875],[-73.98606628195937,40.7853126544489],[-73.98606366006923,40.78531131535064],[-73.98606118205882,40.78530972571033],[-73.9860588717927,40.78530790083707],[-73.98605675151998,40.7853058583054],[-73.98605484166008,40.785303617786006],[-73.98605316060598,40.78530120085632],[-73.98605172454715,40.785298630792695],[-73.98605054731362,40.78529593234625],[-73.9860496402428,40.7852931315045],[-73.98604901207027,40.78529025524108],[-73.98604866884567,40.78528733125598],[-73.98604861387446,40.78528438770878],[-73.98604884768604,40.78528145294743],[-73.98604936802865,40.78527855523531],[-73.98605016989113,40.78527572247896],[-73.9860512455511,40.785272981959366],[-73.98605258464936,40.78527036006924],[-73.98605417428968,40.78526788205882],[-73.98605599916293,40.785265571792685],[-73.98612372688211,40.78518798222145],[-73.98605329363207,40.78515332547917],[-73.98597547624887,40.785239593997524],[-73.98597339942646,40.785241680693645],[-73.98597112807253,40.785243553777555],[-73.98596868406148,40.78524519521044],[-73.98596609093045,40.78524658918441],[-73.9859633736527,40.785247722274725],[-73.98596055839712,40.7852485835691],[-73.98595767227616,40.78524916477281],[-73.98595474308472,40.78524946028854],[-73.98595179903253,40.78524946727031],[-73.98594886847243,40.78524918565089],[-73.98594597962732,40.785248618142425],[-73.98594316031833,40.785247770210326],[-73.98594043769697,40.78524665002065],[-73.98593783798357,40.785245268361436],[-73.98593538621478,40.78524363853881],[-73.98593310600248,40.78524177624886],[-73.98593101930635,40.78523969942646],[-73.98592914622243,40.78523742807254],[-73.98592750478954,40.78523498406148],[-73.98592611081558,40.78523239093044],[-73.98592497772528,40.7852296736527],[-73.9859241164309,40.78522685839712],[-73.98592353522719,40.78522397227615],[-73.98592323971145,40.78522104308472],[-73.98592323272968,40.78521809903254],[-73.9859235143491,40.78521516847244],[-73.98592408185758,40.785212279627316],[-73.98592492978966,40.785209460318335],[-73.98592604997934,40.785206737696974],[-73.98592743163856,40.78520413798356],[-73.98592906146118,40.785201686214776],[-73.98593092375113,40.78519940600247],[-73.98599732544254,40.785125792944584],[-73.9859181337811,40.78508684142472],[-73.98560822595138,40.785431641725026],[-73.98572212930834,40.78536892074805],[-73.9857247748058,40.78536762891402],[-73.98572753418635,40.78536660260462],[-73.98573038087564,40.785365851703766],[-73.9857332874585,40.78536538344304],[-73.98573622594293,40.78536520233207],[-73.98573916802975,40.78536531011504],[-73.98574208538503,40.78536570575394],[-73.98574494991306,40.78536638543855],[-73.98574773402686,40.78536734262314],[-73.9857504109139,40.785368568089496],[-73.98575295479428,40.78537005003571],[-73.98575534116905,40.78537177418983],[-73.98575754705612,40.7853737239473],[-73.9857595512116,40.78537588053091],[-73.98576133433436,40.78537822317156],[-73.98576287925195,40.78538072930835],[-73.98576417108598,40.78538337480581],[-73.98576519739538,40.78538613418636],[-73.98576594829623,40.785388980875645],[-73.98576641655696,40.7853918874585],[-73.98576659766793,40.785394825942944],[-73.98576648988497,40.78539776802976],[-73.98576609424606,40.78540068538504],[-73.98576541456146,40.78540354991307],[-73.98576445737686,40.78540633402687],[-73.9857632319105,40.7854090109139],[-73.98576174996428,40.78541155479429],[-73.98576002581017,40.78541394116906],[-73.98575807605269,40.78541614705613],[-73.98575591946909,40.7854181512116],[-73.98575357682844,40.78541993433436],[-73.98575107069165,40.78542147925196],[-73.98560940778357,40.785499486048536],[-73.98561077740064,40.785500851054096],[-73.98561081320344,40.78550088679657],[-73.98566626279903,40.78555633639216],[-73.98581170057214,40.785462214118006],[-73.98581424770647,40.78546073777161],[-73.98581692728291,40.785459518197044],[-73.98581971349566,40.78545856713948],[-73.98582257951199,40.78545789375812],[-73.98582549773056,40.78545750453801],[-73.98582844004737,40.78545740322754],[-73.98583137812628,40.78545759080238],[-73.98583428367198,40.78545806545609],[-73.98583712870249,40.7854588226175],[-73.9858398858186,40.78545985499472],[-73.98584252846778,40.7854611526454],[-73.98584503119989,40.78546270307245],[-73.98584736991222,40.78546449134441],[-73.98584952208171,40.78546650023926],[-73.98585146698177,40.78546871041022],[-73.985853185882,40.78547110057215],[-73.98585466222839,40.78547364770648],[-73.98585588180296,40.785476327282915],[-73.98585683286052,40.78547911349567],[-73.98585750624187,40.785481979511985],[-73.98585789546199,40.78548489773057],[-73.98585799677247,40.785487840047374],[-73.98585780919763,40.78549077812628],[-73.98585733454391,40.78549368367199],[-73.9858565773825,40.785496528702495],[-73.98585554500528,40.78549928581861],[-73.9858542473546,40.78550192846779],[-73.98585269692755,40.78550443119989],[-73.98585090865558,40.78550676991222],[-73.98584889976074,40.7855089220817],[-73.98584668958978,40.78551086698178],[-73.98584429942785,40.785512585881996],[-73.9857096752094,40.78559970999923],[-73.98575109213746,40.785641065750134],[-73.98577446444229,40.78566437991489],[-73.9859235772404,40.78557181195813],[-73.98592615169629,40.78557038378837],[-73.98592885374059,40.785569214836435],[-73.98593165735113,40.785568316359985],[-73.9859345355276,40.785567697011835],[-73.98593746055163,40.78556736275664],[-73.98594040425358,40.78556731681346],[-73.98594333828403,40.785567559624766],[-73.98594623438665,40.78556808885214],[-73.98594906467038,40.78556889939883],[-73.98595180187806,40.78556998345884],[-73.98595441964888,40.78557133059208],[-73.98595689277226,40.78557292782491],[-73.98595919743069,40.7855747597751],[-73.98596131142904,40.78557680879999],[-73.98596321440834,40.78557905516633],[-73.98596488804188,40.7855814772404],[-73.98596631621164,40.78558405169628],[-73.98596748516357,40.78558675374058],[-73.98596838364001,40.78558955735112],[-73.98596900298817,40.785592435527604],[-73.98596933724336,40.78559536055161],[-73.98596938318654,40.78559830425357],[-73.98596914037525,40.785601238284016],[-73.98596861114787,40.78560413438664],[-73.98596780060117,40.78560696467037],[-73.98596671654116,40.78560970187805],[-73.98596536940792,40.78561231964887],[-73.9859637721751,40.78561479277226],[-73.9859619402249,40.78561709743068],[-73.98595989120001,40.78561921142903],[-73.98595764483368,40.785621114408336],[-73.98595522275961,40.78562278804187],[-73.98581806242058,40.78570793601371],[-73.98587941941835,40.78576929301149],[-73.98603177485288,40.785681133772826],[-73.9860343923384,40.78567978608535],[-73.98603712931649,40.78567870144581],[-73.98603995942854,40.785677890299866],[-73.98604285541904,40.7856773604593],[-73.986045789398,40.78567711702677],[-73.98604873310963,40.785677162346666],[-73.98605165820435,40.78567749598253],[-73.9860545365119,40.785678114721264],[-73.98605734031261,40.78567901260408],[-73.98606004260435,40.78568018098387],[-73.98606261736258,40.78568160860849],[-73.98606503979094,40.785683281729156],[-73.98606728656017,40.78568518423279],[-73.98606933603261,40.785687297797246],[-73.98607116847074,40.785689602067734],[-73.98607276622718,40.785692074852875],[-73.98607411391465,40.7856946923384],[-73.98607519855419,40.78569742931649],[-73.98607600970013,40.785700259428545],[-73.98607653954069,40.78570315541904],[-73.98607678297323,40.78570608939801],[-73.98607673765333,40.78570903310963],[-73.98607640401747,40.78571195820435],[-73.98607578527874,40.7857148365119],[-73.98607488739593,40.78571764031262],[-73.98607371901613,40.78572034260436],[-73.98607229139151,40.785722917362584],[-73.98607061827084,40.78572533979096],[-73.9860687157672,40.78572758656017],[-73.98606660220275,40.78572963603261],[-73.98606429793226,40.78573146847074],[-73.98606182514712,40.78573306622718],[-73.98592335677878,40.78581318982742],[-73.98601531537776,40.78590501358973],[-73.98616483681474,40.7858126750712],[-73.98616741459931,40.785811252918364],[-73.9861701193665,40.785810090280656],[-73.98617292506792,40.78580919835492],[-73.98617580468313,40.78580858573087],[-73.98617873047986,40.78580825830842],[-73.9861816742811,40.785808219240835],[-73.98618460773642,40.78580846890435],[-73.98618750259506,40.78580900489456],[-73.98619033097792,40.78580982204961],[-73.98619306564615,40.78581091249982],[-73.98619568026339,40.78581226574358],[-73.98619814964945,40.785813868748406],[-73.98620045002279,40.785815706076484],[-73.98620255922957,40.785817760033346],[-73.98620445695695,40.78582001083826],[-73.9862061249288,40.78582243681474],[-73.98620754708163,40.78582501459931],[-73.98620870971934,40.7858277193665],[-73.98620960164509,40.78583052506792],[-73.98621021426914,40.78583340468314],[-73.98621054169158,40.785836330479874],[-73.98621058075916,40.78583927428111],[-73.98621033109565,40.78584220773643],[-73.98620979510544,40.785845102595054],[-73.9862089779504,40.78584793097792],[-73.98620788750017,40.78585066564615],[-73.98620653425643,40.78585328026339],[-73.98620493125159,40.78585574964945],[-73.9862030939235,40.785858050022796],[-73.98620103996666,40.785860159229564],[-73.98619878916175,40.78586205695695],[-73.98619636318526,40.7858637249288],[-73.98605894775056,40.7859485872597],[-73.98617417317817,40.78606366636913],[-73.98645846250285,40.78591848757105],[-73.987055821517,40.78519923274609],[-73.98705781136562,40.78519706295475],[-73.98706000430931,40.78519509865082],[-73.98706237922885,40.78519335875162],[-73.98706491325242,40.78519186001333],[-73.98706758197604,40.78519061686962],[-73.98707035969841,40.78518964129265],[-73.98707321966855,40.78518894267774],[-73.98707613434338,40.78518852775295],[-73.98707907565301,40.78518840051424],[-73.987082015271,40.78518856218697],[-73.98708492488723,40.78518901121414],[-73.9870877764805,40.785189743271395],[-73.9870905425884,40.78519075130861],[-73.98709319657182,40.78519202561784],[-73.98709571287144,40.78519355392678],[-73.98709806725391,40.785195321516994],[-73.98710023704525,40.785197311365614],[-73.98710220134917,40.78519950430931],[-73.98710394124838,40.78520187922884],[-73.98710543998666,40.78520441325242],[-73.98710668313038,40.78520708197603],[-73.98710765870736,40.785209859698405],[-73.98710835732226,40.78521271966854],[-73.98710877224704,40.78521563434338],[-73.98710889948576,40.785218575653005],[-73.98710873781303,40.785221515271],[-73.98710828878585,40.78522442488722],[-73.9871075567286,40.78522727648049],[-73.98710654869139,40.785230042588395],[-73.98710527438216,40.78523269657182],[-73.98710374607322,40.785235212871434],[-73.987101978483,40.78523756725391],[-73.986500678483,40.78596156725391],[-73.98649861987636,40.785963804784465],[-73.9864963453628,40.78596582245448],[-73.9864938783051,40.78596759953935],[-73.98649124404382,40.78596911778562],[-73.98618217956016,40.78612694858112],[-73.98614144241928,40.78614827567252],[-73.98611657329482,40.786214277812526],[-73.9861154013073,40.786216978541546],[-73.98611397024548,40.78621955139095],[-73.98611229389127,40.7862219715828],[-73.9861103883889,40.78622421580931],[-73.98610827208935,40.78622626245737],[-73.9861059653738,40.786228091816625],[-73.98610349045713,40.78622968626936],[-73.98610087117417,40.78623103046011],[-73.98609813275004,40.78623211144359],[-73.98609530155726,40.78623291880933],[-73.98609240486176,40.78623344478197],[-73.98608947056033,40.7862336842961],[-73.98608652691185,40.78623363504507],[-73.9860836022653,40.78623329750319],[-73.9860807247866,40.78623267492117],[-73.98607792218748,40.78623177329482],[-73.98607522145845,40.7862306013073],[-73.98607264860905,40.786229170245484],[-73.9860702284172,40.78622749389128],[-73.98606798419068,40.786225588388895],[-73.98606593754263,40.78622347208936],[-73.98606410818337,40.786221165373796],[-73.98606251373064,40.78621869045713],[-73.9860611695399,40.786216071174174],[-73.98606008855641,40.78621333275005],[-73.98605928119066,40.78621050155727],[-73.98605875521802,40.78620760486178],[-73.98605851570389,40.78620467056033],[-73.98605856495493,40.78620172691186],[-73.98605890249681,40.78619880226531],[-73.98605952507883,40.78619592478662],[-73.98606042670517,40.78619312218748],[-73.98608932670517,40.786116422187476],[-73.98609057680909,40.78611356435974],[-73.98609211689968,40.78611085178529],[-73.98609393032697,40.786108313789896],[-73.98609599748592,40.78610597781193],[-73.98609829602839,40.78610386910575],[-73.98610080110471,40.78610201046868],[-73.98610348563243,40.786100421994526],[-73.98611830206292,40.78609266515738],[-73.98602509418451,40.78599957563817],[-73.98598490925943,40.78613210508033],[-73.98598391776942,40.78613487716249],[-73.98598265934213,40.78613753871331],[-73.98598114609692,40.78614006410059],[-73.98597939260716,40.786142429003476],[-73.98597741575992,40.78614461064665],[-73.9859752345933,40.78614658801971],[-73.98597287011314,40.78614834207946],[-73.98597034509069,40.786149855933346],[-73.98596768384328,40.786151115002134],[-73.98596491200018,40.786152107160305],[-73.98596205625577,40.78615282285283],[-73.9859591441124,40.786153255187195],[-73.98595620361563,40.78615339999978],[-73.98595326308403,40.786153255895975],[-73.98595035083653,40.786152824263574],[-73.98594749491969,40.786152109259426],[-73.98594472283752,40.786151117769414],[-73.98594206128669,40.78614985934213],[-73.9859395358994,40.78614834609692],[-73.98593717099652,40.78614659260716],[-73.98593498935335,40.78614461575991],[-73.9859330119803,40.7861424345933],[-73.98593125792054,40.78614007011315],[-73.98592974406665,40.786137545090696],[-73.98592848499787,40.78613488384328],[-73.98592749283969,40.78613211200019],[-73.98592677714718,40.78612925625576],[-73.98592634481281,40.7861263441124],[-73.98592620000022,40.78612340361562],[-73.98592634410403,40.786120463084025],[-73.98592677573643,40.78611755083653],[-73.98592749074058,40.786114694919675],[-73.98597696948801,40.78595151455336],[-73.98588614078072,40.785860819026006],[-73.98583605958709,40.78599321412139],[-73.98583488410668,40.78599591333197],[-73.98583344971763,40.7859984843279],[-73.98583177023389,40.786000902349066],[-73.9858298618298,40.7860031441086],[-73.98582774288434,40.78600518801714],[-73.9858254338041,40.78600701439073],[-73.98582295682681,40.78600860564038],[-73.98582033580709,40.78600994644151],[-73.98581759598682,40.78601102388146],[-73.98581476375195,40.786011827583884],[-73.98581186637844,40.7860123498087],[-73.9858089317696,40.7860125855266],[-73.9858059881873,40.78601253246748],[-73.98580306397986,40.78601219114234],[-73.985800187309,40.78601156483832],[-73.98579738587861,40.78601065958708],[-73.98579468666803,40.78600948410667],[-73.9857921156721,40.786008049717616],[-73.98578969765094,40.78600637023388],[-73.9857874558914,40.78600446182978],[-73.98578541198286,40.78600234288432],[-73.98578358560927,40.78600003380409],[-73.98578199435961,40.7859975568268],[-73.98578065355849,40.78599493580709],[-73.98577957611855,40.78599219598681],[-73.98577877241613,40.78598936375193],[-73.9857782501913,40.785986466378425],[-73.98577801447341,40.78598353176958],[-73.98577806753252,40.785980588187286],[-73.98577840885767,40.78597766397985],[-73.98577903516168,40.78597478730899],[-73.98577994041293,40.785971985878604],[-73.98583958431746,40.785814310714414],[-73.98574890000823,40.785723626415106],[-73.98574478794009,40.78571952457599],[-73.98570535152095,40.78585792129786],[-73.98570440676488,40.78586070965364],[-73.98570319325142,40.78586339198044],[-73.98570172266736,40.78586594244598],[-73.9857000091752,40.785868336487894],[-73.98569806927685,40.78587055105024],[-73.98569592165457,40.785872564805565],[-73.98569358699115,40.78587435836032],[-73.98569108777065,40.78587591444158],[-73.98568844806195,40.78587721806345],[-73.98568569328687,40.78587825667131],[-73.98568284997542,40.785879020262826],[-73.98567994551024,40.785879501484175],[-73.98567700786292,40.78587969570095],[-73.98567406532459,40.785879601042716],[-73.98567114623351,40.7858792184211],[-73.98566827870214,40.78587855152096],[-73.98566549034635,40.78587760676489],[-73.98566280801955,40.78587639325142],[-73.98566025755402,40.785874922667354],[-73.9856578635121,40.78587320917521],[-73.98565564894976,40.78587126927685],[-73.98565363519444,40.78586912165458],[-73.98565184163968,40.78586678699114],[-73.9856502855584,40.78586428777065],[-73.98564898193655,40.785861648061946],[-73.98564794332869,40.78585889328688],[-73.98564717973717,40.78585604997543],[-73.98564669851582,40.785853145510245],[-73.98564650429905,40.785850207862914],[-73.98564659895727,40.785847265324584],[-73.9856469815789,40.78584434623352],[-73.98564764847904,40.78584147870214],[-73.9856962108517,40.785671055694],[-73.98564100248099,40.785615928876275],[-73.98560198965498,40.7855769160565],[-73.98555247439084,40.78571652790218],[-73.98555135533563,40.78571925099003],[-73.98554997475969,40.785721851278865],[-73.98554834595872,40.785724303726504],[-73.98554648461898,40.78572658471452],[-73.98554440866616,40.78572867227575],[-73.98554213809285,40.78573054630585],[-73.98553969476589,40.78573218875688],[-73.98553710221587,40.78573358381114],[-73.98553438541046,40.78573471803349],[-73.98553157051398,40.78573558050075],[-73.98552868463541,40.78573616290689],[-73.98552575556737,40.785736459643026],[-73.98552281151835,40.78573646785142],[-73.98551988084117,40.785736187453026],[-73.98551699175985,40.78573562114823],[-73.98551417209782,40.78573477439085],[-73.98551144900998,40.78573365533564],[-73.98550884872114,40.785732274759695],[-73.98550639627351,40.78573064595873],[-73.98550411528548,40.78572878461898],[-73.98550202772425,40.78572670866617],[-73.98550015369415,40.78572443809285],[-73.98549851124312,40.7857219947659],[-73.98549711618887,40.785719402215875],[-73.98549598196652,40.78571668541046],[-73.98549511949925,40.78571387051398],[-73.9854945370931,40.78571098463542],[-73.98549424035697,40.78570805556737],[-73.98549423214858,40.78570511151835],[-73.98549451254698,40.78570218084117],[-73.98549507885177,40.785699291759855],[-73.98549592560916,40.785696472097825],[-73.98555498324696,40.78552995484385],[-73.98553872259936,40.7855137489459],[-73.98553868679656,40.785513713203436],[-73.98552709788197,40.785502124288854],[-73.98538968467352,40.78570190077765],[-73.98543333430165,40.785718448054816],[-73.98543603266602,40.78571962547644],[-73.98543860262953,40.78572106171441],[-73.98544101944204,40.785722742936976],[-73.9854432598283,40.78572465295305],[-73.98544530221217,40.785726773368125],[-73.98544712692438,40.78572908376145],[-73.98544871639197,40.78573156188268],[-73.98545005530747,40.78573418386614],[-73.98545113077641,40.7857369244607],[-73.98545193244142,40.78573975727294],[-73.98545245258205,40.78574265502132],[-73.98545268618906,40.785745589798964],[-73.98545263101266,40.78574853334233],[-73.98545228758425,40.7857514573035],[-73.98545165921124,40.78575433352312],[-73.98545075194518,40.78575713430164],[-73.98544957452357,40.78575983266602],[-73.98544813828559,40.78576240262954],[-73.98544645706302,40.785764819442036],[-73.98544454704695,40.785767059828295],[-73.98544242663188,40.78576910221217],[-73.98544011623855,40.785770926924386],[-73.98543763811732,40.785772516391965],[-73.98543501613386,40.78577385530747],[-73.98543227553931,40.785774930776405],[-73.98542944272707,40.78577573244143],[-73.98542654497868,40.78577625258206],[-73.98542361020104,40.78577648618906],[-73.98542066665767,40.785776431012664],[-73.98541774269651,40.78577608758426],[-73.98541486647687,40.78577545921124],[-73.98541206569836,40.78577455194519],[-73.98535468750947,40.785752800264014],[-73.98535260218347,40.78575583500674],[-73.985451643251,40.78579422815866],[-73.98545433275768,40.785795425675175],[-73.98545689193651,40.785796881043076],[-73.98545929614119,40.78579858024637],[-73.98546152221792,40.78580050692081],[-73.98546354872836,40.785802642511456],[-73.98546535615611,40.78580496645141],[-73.98546692709466,40.785807456359855],[-73.98546824641501,40.78581008825761],[-73.98546930141137,40.78581283679807],[-73.98547008192357,40.78581567551129],[-73.98547058043482,40.7858185770589],[-73.98547079214421,40.7858215134974],[-73.98547071501287,40.78582445654731],[-73.98547034978358,40.78582737786543],[-73.98546969997373,40.785830249317875],[-73.98546877184134,40.785833043250996],[-73.98546757432483,40.785835732757675],[-73.98546611895694,40.7858382919365],[-73.98546441975363,40.78584069614118],[-73.9854624930792,40.78584292221791],[-73.98546035748855,40.785844948728354],[-73.9854580335486,40.78584675615611],[-73.98545554364016,40.785848327094655],[-73.98545291174239,40.785849646415],[-73.98545016320193,40.78585070141136],[-73.98544732448872,40.78585148192355],[-73.98544442294111,40.78585198043481],[-73.9854414865026,40.785852192144205],[-73.9854385434527,40.78585211501286],[-73.98543562213457,40.785851749783575],[-73.98543275068212,40.78585109997373],[-73.98542995674902,40.78585017184134],[-73.98531767663266,40.78580664658791],[-73.98528079525492,40.78586027825979],[-73.98534571610416,40.785884841163025],[-73.98534841523167,40.78588601683416],[-73.98535098612624,40.78588745140489],[-73.98535340402871,40.78588913105949],[-73.98535564565339,40.78589103962199],[-73.9853576894122,40.78589315871187],[-73.9853595156226,40.78589546792116],[-73.98536110669723,40.78589794501089],[-73.98536244731314,40.78590056612534],[-73.98536352455947,40.78590330602175],[-73.98536432806176,40.78590613831341],[-73.98536485008184,40.78590903572381],[-73.98536508559236,40.785911970349304],[-73.98536503232525,40.78591491392784],[-73.98536469079347,40.78591783811115],[-73.98536406428617,40.785920714737756],[-73.98536315883698,40.785923516104155],[-73.98536198316583,40.785926215231676],[-73.98536054859511,40.785928786126235],[-73.98535886894051,40.785931204028714],[-73.98535696037801,40.78593344565339],[-73.98535484128813,40.78593548941219],[-73.98535253207885,40.785937315622604],[-73.98535005498911,40.785938906697226],[-73.98534743387467,40.785940247313135],[-73.98534469397825,40.785941324559474],[-73.98534186168659,40.78594212806176],[-73.9853389642762,40.78594265008184],[-73.9853360296507,40.78594288559237],[-73.98533308607216,40.78594283232525],[-73.98533016188885,40.785942490793474],[-73.98532728526224,40.78594186428618],[-73.98532448389584,40.785940958836974],[-73.98524578698213,40.78591118373855],[-73.98521387292271,40.785957586389415],[-73.98521529800827,40.785959068552465],[-73.98521708480257,40.78596132483466],[-73.98521864716338,40.78596374195523],[-73.98521997071103,40.78596629766742],[-73.9852210432638,40.785968968448906],[-73.98522185495011,40.78597172971827],[-73.98522239829934,40.78597455606127],[-73.9852226683106,40.78597742146475],[-73.98522266249876,40.78598029955602],[-73.98522238091729,40.78598316384565],[-73.98522182615783,40.785985987971195],[-73.98522100332629,40.78598874593991],[-73.98521991999587,40.78599141236793],[-73.98521858613735,40.78599396271391],[-73.98521701402733,40.78599637350491],[-73.98520975249757,40.786006420278966],[-73.98522004554628,40.786010842591814],[-73.98525107244042,40.785967845232996],[-73.98525291025233,40.78596554524618],[-73.9852549646528,40.78596343647149],[-73.98525721585683,40.78596153921759],[-73.98525964218412,40.78595987175606],[-73.98526222026777,40.785958450145486],[-73.98526492527947,40.78595728807674],[-73.98526773116843,40.78595639674118],[-73.98527061091244,40.78595578472286],[-73.98527353677798,40.78595545791585],[-73.98527648058737,40.78595541946747],[-73.98527941399011,40.78595566974801],[-73.98528230873593,40.78595620634713],[-73.98528513694686,40.78595702409709],[-73.98528787138565,40.785958115122504],[-73.98529048571818,40.785959468916204],[-73.985292954767,40.785961072440415],[-73.98529525475382,40.78596291025232],[-73.98529736352852,40.7859649646528],[-73.98529926078241,40.785967215856836],[-73.98530092824394,40.785969642184114],[-73.98530234985452,40.78597222026777],[-73.98530351192326,40.785974925279454],[-73.98530440325882,40.78597773116843],[-73.98530501527715,40.78598061091244],[-73.98530534208416,40.78598353677798],[-73.98530538053254,40.78598648058737],[-73.985305130252,40.78598941399011],[-73.98530463746272,40.78599207239866],[-73.98532059583172,40.78596975188919],[-73.98532242355839,40.78596744387983],[-73.98532446870853,40.785965326132704],[-73.98532671158623,40.78596341904287],[-73.98532913059135,40.78596174097667],[-73.98533170242756,40.785960308094765],[-73.98533440232664,40.78595913419662],[-73.98533720428713,40.7859582305875],[-73.9853400813246,40.78595760596965],[-73.98534300573158,40.7859572663585],[-73.98534594934446,40.78595721502468],[-73.98534888381465,40.78595745246256],[-73.98535178088157,40.78595797638549],[-73.9853546126449,40.7859587817478],[-73.9853573518332,40.78595986079342],[-73.98535997206659,40.78596120313054],[-73.9853624481108,40.78596279583173],[-73.98536475612016,40.78596462355839],[-73.98536687386729,40.78596666870853],[-73.98536878095712,40.78596891158623],[-73.98537045902333,40.78597133059136],[-73.98537189190523,40.78597390242756],[-73.98537306580339,40.785976602326656],[-73.9853739694125,40.78597940428714],[-73.98537459403035,40.78598228132459],[-73.9853749336415,40.785985205731585],[-73.98537498497532,40.785988149344476],[-73.98537474753743,40.78599108381466],[-73.9853742236145,40.78599398088158],[-73.9853734182522,40.7859968126449],[-73.98537233920658,40.78599955183321],[-73.98537099686945,40.7860021720666],[-73.98536940416827,40.78600464811081],[-73.98533086848175,40.78605854686172],[-73.98534294631078,40.78606373798046],[-73.98534299019735,40.78606375688459],[-73.98537529152942,40.78607770117548],[-73.98542390975994,40.78600725910665],[-73.98542569894984,40.786004921096485],[-73.98542770868936,40.78600276971576],[-73.98542991962363,40.78600082568343],[-73.98543231046013,40.78599910772161],[-73.98543485817379,40.7859976323752],[-73.98543753822877,40.785996413852594],[-73.98544032481465,40.78599546388883],[-73.98544319109507,40.78599479163258],[-73.98544610946622,40.78599440355805],[-73.98544905182257,40.78599430340259],[-73.98545198982762,40.78599449213076],[-73.98545489518678,40.78599496792501],[-73.98545773991984,40.78599572620317],[-73.98546049663048,40.785996759662616],[-73.98546313877007,40.78599805835057],[-73.98546564089335,40.78599960975995],[-73.98546797890351,40.78600139894984],[-73.98547013028424,40.78600340868936],[-73.98547207431656,40.78600561962362],[-73.98547379227838,40.78600801046012],[-73.9854752676248,40.7860105581738],[-73.9854764861474,40.78601323822877],[-73.98547743611117,40.78601602481464],[-73.98547810836742,40.786018891095075],[-73.98547849644196,40.78602180946623],[-73.98547859659742,40.78602475182257],[-73.98547840786924,40.78602768982762],[-73.98547793207499,40.78603059518677],[-73.98547717379682,40.78603343991984],[-73.98547614033738,40.786036196630484],[-73.98547484164943,40.78603883877007],[-73.98547329024005,40.786041340893355],[-73.985431474592,40.78610192682433],[-73.9854778011359,40.78612192300011],[-73.98552553786081,40.78605549325347],[-73.98552737113239,40.786053189646026],[-73.98552942136929,40.786051076823114],[-73.98553166882661,40.78604917513238],[-73.98553409186009,40.78604750288815],[-73.98553666713458,40.78604607619505],[-73.98553936984882,40.7860449087929],[-73.98554217397417,40.78604401192444],[-73.98554505250536,40.786043394226986],[-73.98554797772059,40.786043061649316],[-73.98555092144841,40.78604301739433],[-73.98555385533912,40.78604326188822],[-73.98555675113775,40.78604379277638],[-73.98555958095619,40.78604460494608],[-73.98556231754172,40.78604569057567],[-73.98556493453954,40.78604703920994],[-73.98556740674653,40.786048637860816],[-73.98556971035397,40.786050471132405],[-73.98557182317688,40.78605252136931],[-73.9855737248676,40.78605476882662],[-73.98557539711184,40.78605719186009],[-73.98557682380495,40.786059767134596],[-73.9855779912071,40.78606246984883],[-73.98557888807557,40.786065273974174],[-73.985579505773,40.786068152505365],[-73.98557983835069,40.786071077720585],[-73.98557988260568,40.78607402144841],[-73.98557963811177,40.78607695533913],[-73.98557910722361,40.78607985113776],[-73.98557829505391,40.7860826809562],[-73.98557720942433,40.78608541754173],[-73.98557586079005,40.78608803453955],[-73.98557426213918,40.78609050674653],[-73.98553423429593,40.78614620892323],[-73.9855707652172,40.78616194611389],[-73.98558633742132,40.78616864910989],[-73.98562295494203,40.786115893828075],[-73.98562475031277,40.786113560560864],[-73.98562676573849,40.78611141450608],[-73.98562898180954,40.7861094763314],[-73.98563137718395,40.78610776470251],[-73.98563392879294,40.78610629610333],[-73.98563661206312,40.78610508467727],[-73.98563940115315,40.78610414209103],[-73.98564226920254,40.78610347742222],[-73.98564518859044,40.78610309707198],[-73.98564813120153,40.786103004703286],[-73.98565106869685,40.78610320120569],[-73.98565397278674,40.78610368468678],[-73.98565681550319,40.786104450490356],[-73.98565956946932,40.78610549124132],[-73.98566220816292,40.78610679691667],[-73.98566470617192,40.78610835494203],[-73.98566703943912,40.78611015031277],[-73.98566918549392,40.7861121657385],[-73.9856711236686,40.78611438180955],[-73.98567283529748,40.78611677718395],[-73.98567430389667,40.78611932879294],[-73.98567551532273,40.786122012063124],[-73.98567645790897,40.78612480115315],[-73.98567712257777,40.78612766920255],[-73.98567750292801,40.786130588590446],[-73.9856775952967,40.786133531201536],[-73.9856773987943,40.78613646869686],[-73.9856769153132,40.78613937278674],[-73.98567614950963,40.786142215503205],[-73.98567510875867,40.786144969469326],[-73.98567380308333,40.78614760816292],[-73.98567224505796,40.786150106171924],[-73.98564255854677,40.78619287586886],[-73.9856516167381,40.78619678208037],[-73.98569726555031,40.786215830765045],[-73.98571771143597,40.78618922148198],[-73.98571961759247,40.78618697781102],[-73.98572173448852,40.786184931779964],[-73.98572404173726,40.786183103093194],[-73.9857265171186,40.78618150936198],[-73.98572913679328,40.786180165934816],[-73.98573187553241,40.786179085749644],[-73.98573470696041,40.78617827920924],[-73.9857376038091,40.78617775408102],[-73.98574053818024,40.78617751542225],[-73.98574348181423,40.78617756553137],[-73.98574640636227,40.78617790392578],[-73.98574928365936,40.786178527346564],[-73.98575208599554,40.78617942978984],[-73.98575478638281,40.786180602564585],[-73.98575735881495,40.78618203437634],[-73.98575977851803,40.78618371143597],[-73.98576202218898,40.78618561759247],[-73.98576406822005,40.78618773448852],[-73.98576589690681,40.78619004173725],[-73.98576749063803,40.7861925171186],[-73.98576883406518,40.78619513679328],[-73.98576991425035,40.7861978755324],[-73.98577072079077,40.78620070696041],[-73.985771245919,40.7862036038091],[-73.98577148457775,40.786206538180245],[-73.98577143446863,40.78620948181423],[-73.98577109607423,40.78621240636227],[-73.98577047265344,40.78621528365935],[-73.98576957021017,40.78621808599554],[-73.98576839743542,40.786220786382806],[-73.98576696562367,40.786223358814944],[-73.98576528856404,40.78622577851802],[-73.9857308644154,40.78627057980132],[-73.98569143944403,40.78632278045963],[-73.9856895519741,40.78632503987312],[-73.98568745213163,40.786327103402506],[-73.98568516013921,40.78632895117489],[-73.98568269807,40.7863305653952],[-73.98568008963507,40.786331930517605],[-73.98567735995508,40.786333033395245],[-73.98567453531831,40.7863338634068],[-73.9856716429276,40.78633441255881],[-73.98566871063822,40.786334675562635],[-73.98566576668973,40.786334649885404],[-73.98566283943399,40.786334335774406],[-73.98565995706203,40.7863337362547],[-73.98565714733267,40.78633285709998],[-73.98565443730519,40.786331706777005],[-73.98565185307858,40.786330296364],[-73.98564941954038,40.786328639444015],[-73.98564716012689,40.7863267519741],[-73.9856450965975,40.78632465213162],[-73.98564324882513,40.78632236013921],[-73.98564163460482,40.78631989807],[-73.9856402694824,40.786317289635065],[-73.98563916660476,40.786314559955066],[-73.9856383365932,40.78631173531831],[-73.98563778744119,40.78630884292759],[-73.98563752443738,40.78630591063822],[-73.9856375501146,40.78630296668973],[-73.98563786422561,40.786300039433975],[-73.98563846374532,40.786297157062016],[-73.98563934290003,40.78629434733268],[-73.985640493223,40.786291637305176],[-73.98564190363601,40.786289053078576],[-73.98564356055599,40.78628661954038],[-73.98565974630617,40.786265188787596],[-73.98564973004514,40.78626100912576],[-73.98560916753571,40.786314275278244],[-73.9856072711182,40.786316527186905],[-73.98560516310681,40.78631858237059],[-73.98560286380285,40.78632042103676],[-73.98560039534988,40.78632202547805],[-73.98559778152041,40.78632338024282],[-73.9855950474871,40.78632447228393],[-73.98559221958014,40.78632529108444],[-73.98558932503386,40.78632582875885],[-73.98558639172428,40.78632608012906],[-73.98558344790082,40.786326042774235],[-73.98558052191409,40.786325717054126],[-73.98557764194292,40.7863251061056],[-73.98557483572304,40.786324215812414],[-73.98557213027986,40.78632305474859],[-73.98556955166829,40.7863216340958],[-73.98556712472175,40.78631996753571],[-73.98556487281309,40.78631807111821],[-73.9855628176294,40.78631596310682],[-73.98556097896324,40.78631366380286],[-73.98555937452194,40.786311195349874],[-73.98555801975718,40.786308581520416],[-73.98555692771608,40.7863058474871],[-73.98555610891556,40.786303019580146],[-73.98555557124115,40.78630012503386],[-73.98555531987094,40.786297191724294],[-73.98555535722576,40.78629424790083],[-73.98555568294587,40.786291321914085],[-73.9855562938944,40.78628844194293],[-73.98555718418758,40.78628563572304],[-73.9855583452514,40.78628293027987],[-73.9855597659042,40.78628035166829],[-73.98556143246428,40.78627792472176],[-73.98559278502889,40.78623675294736],[-73.98558512961539,40.78623345166182],[-73.98556883987257,40.78622643980402],[-73.98552938778991,40.78627958234819],[-73.98552751902399,40.78628185725608],[-73.98552543627672,40.78628393803858],[-73.98552315960609,40.7862858046566],[-73.9855207109377,40.78628743913361],[-73.98551811385356,40.78628882572869],[-73.98551539336499,40.78628995108817],[-73.9855125756718,40.78629080437423],[-73.98550968790992,40.78629137736926],[-73.98550675789006,40.786291664555],[-73.98550381382994,40.78629166316569],[-73.98550088408244,40.78629137321472],[-73.98549799686263,40.78629079749447],[-73.98549517997604,40.78628994154944],[-73.9854924605508,40.78628881362285],[-73.98548986477648,40.78628742457725],[-73.98548741765181,40.786285787789915],[-73.98548514274391,40.78628391902399],[-73.98548306196142,40.786281836276714],[-73.9854811953434,40.78627955960609],[-73.98547956086638,40.7862771109377],[-73.98547817427131,40.78627451385355],[-73.98547704891182,40.78627179336499],[-73.98547619562576,40.7862689756718],[-73.98547562263073,40.78626608790992],[-73.985475335445,40.78626315789007],[-73.9854753368343,40.786260213829934],[-73.98547562678527,40.78625728408243],[-73.98547620250552,40.78625439686263],[-73.98547705845056,40.78625157997603],[-73.98547818637715,40.7862488605508],[-73.98547957542274,40.78624626477648],[-73.98548121221009,40.7862438176518],[-73.98551221645873,40.78620205446614],[-73.9854881816301,40.7861917004797],[-73.9854451658693,40.786248177466355],[-73.98544326924534,40.78625042920115],[-73.98544116104554,40.786252484191564],[-73.98543886157302,40.786254322646926],[-73.98543639297294,40.7862559268619],[-73.98543377901929,40.786257281387016],[-73.98543104488587,40.78625837317747],[-73.98542821690386,40.786259191718706],[-73.98542532230829,40.78625972912774],[-73.98542238897569,40.78625998022902],[-73.98541944515566,40.7862599426043],[-73.9854165191988,40.78625961661594],[-73.98541363928365,40.78625900540338],[-73.98541083314541,40.78625811485293],[-73.98540812780868,40.78625695354107],[-73.98540554932737,40.78625553265188],[-73.98540312253364,40.78625386586929],[-73.98540087079886,40.786251969245335],[-73.98539881580844,40.78624986104554],[-73.98539697735308,40.78624756157302],[-73.9853953731381,40.78624509297295],[-73.98539401861298,40.7862424790193],[-73.98539292682253,40.78623974488587],[-73.98539210828129,40.78623691690386],[-73.98539157087227,40.78623402230829],[-73.98539131977098,40.78623108897569],[-73.9853913573957,40.78622814515566],[-73.98539168338405,40.7862252191988],[-73.98539229459662,40.78622233928366],[-73.98539318514707,40.78621953314541],[-73.98539434645893,40.786216827808694],[-73.98539576734812,40.78621424932738],[-73.9853974341307,40.78621182253365],[-73.98543138977766,40.78616724090627],[-73.9854138793285,40.78615968277675],[-73.98537433080162,40.786213224264735],[-73.98537246752174,40.786215503668195],[-73.98537038979347,40.786217589462346],[-73.98536811762646,40.78621946155984],[-73.9853656729029,40.78622110193136],[-73.98536307916683,40.78622249477923],[-73.98536036139734,40.78622362668956],[-73.98535754576805,40.78622448676145],[-73.98535465939499,40.78622506671192],[-73.98535173007552,40.78622536095574],[-73.98534878602058,40.786225366659174],[-73.98534585558303,40.7862250837673],[-73.98534296698462,40.78622451500452],[-73.98534014804407,40.78622366584833],[-73.98533742590936,40.78622254447657],[-73.98533482679613,40.786221161688665],[-73.98533237573525,40.78621953080161],[-73.9853300963318,40.78621766752175],[-73.98532801053766,40.78621558979348],[-73.98532613844016,40.786213317626455],[-73.98532449806864,40.7862108729029],[-73.98532310522077,40.78620827916683],[-73.98532197331043,40.786205561397345],[-73.98532111323854,40.786202745768044],[-73.98532053328807,40.78619985939498],[-73.98532023904426,40.78619693007551],[-73.98532023334083,40.78619398602058],[-73.98532051623269,40.78619105558304],[-73.98532108499548,40.78618816698461],[-73.98532193415167,40.78618534804407],[-73.98532305552342,40.78618262590936],[-73.98532443831134,40.78618002679613],[-73.98532606919838,40.78617757573526],[-73.98535730476316,40.786135288480885],[-73.98534134776075,40.78612839993886],[-73.98530134172607,40.786183935118245],[-73.98529950577185,40.78618623658824],[-73.98529745307476,40.786188347021046],[-73.98529520340337,40.78619024609204],[-73.98529277842326,40.78619191551213],[-73.98529020148831,40.78619333920389],[-73.9852874974158,40.78619450345639],[-73.98528469224745,40.78619539705725],[-73.98528181299855,40.78619601140059],[-73.98527888739784,40.78619634056996],[-73.98527594362045,40.786196381395264],[-73.98527301001658,40.78619613348335],[-73.98527011483843,40.78619559922174],[-73.98526728596815,40.786194783755654],[-73.9852645506493,40.78619369493849],[-73.98526193522451,40.78619234325615],[-73.98525946488175,40.78619074172607],[-73.98525716341176,40.78618890577186],[-73.98525505297896,40.78618685307476],[-73.98525315390796,40.78618460340338],[-73.98525148448786,40.78618217842326],[-73.9852500607961,40.78617960148831],[-73.9852488965436,40.78617689741581],[-73.98524800294274,40.78617409224745],[-73.9852473885994,40.786171212998546],[-73.98524705943004,40.786168287397835],[-73.98524701860472,40.78616534362045],[-73.98524726651664,40.78616241001658],[-73.98524780077825,40.78615951483843],[-73.98524861624433,40.78615668596815],[-73.9852497050615,40.78615395064931],[-73.98525105674385,40.78615133522452],[-73.98525265827392,40.78614886488175],[-73.98528490620035,40.786104099275946],[-73.98527295368922,40.78609896201954],[-73.98526641251388,40.786096148856906],[-73.98524349904255,40.78612779421868],[-73.98524165750102,40.78613009122037],[-73.98523959968148,40.78613219665874],[-73.98523734540186,40.786134090257256],[-73.9852349163721,40.78613575377954],[-73.98523233598506,40.786137171204956],[-73.98522962909132,40.78613832888292],[-73.98522682175974,40.78613921566437],[-73.98522394102643,40.78613982300911],[-73.98522101463446,40.786140145068075],[-73.98521807076655,40.786140178739664],[-73.98521513777379,40.78613992369961],[-73.98521224390248,40.78613938240407],[-73.9852094170222,40.786138560066036],[-73.98520668435734,40.786137464605055],[-73.98520407222496,40.78613610657103],[-73.98520160578133,40.78613449904256],[-73.98519930877963,40.78613265750103],[-73.98519720334127,40.786130599681485],[-73.98519530974275,40.786128345401856],[-73.98519364622047,40.786125916372086],[-73.98519222879506,40.78612333598507],[-73.98519107111709,40.78612062909133],[-73.98519018433564,40.78611782175974],[-73.9851895769909,40.78611494102643],[-73.98518925493194,40.786112014634455],[-73.98518922126034,40.78610907076656],[-73.98518947630039,40.78610613777379],[-73.98519001759593,40.78610324390249],[-73.98519083993398,40.786100417022205],[-73.98519193539495,40.786097684357344],[-73.98519329342898,40.78609507222496],[-73.98519490095745,40.78609260578133],[-73.9852099573698,40.78607181165507],[-73.98517138489488,40.786055239349224],[-73.98514440363188,40.786085134081944],[-73.98511354487992,40.78612912787886],[-73.98515207890883,40.78614428112536],[-73.98515476257063,40.78614549168362],[-73.98515731465442,40.78614695945756],[-73.98515971058221,40.78614867031173],[-73.98516192727992,40.786150607769656],[-73.98516394339956,40.786152753172566],[-73.98516573952475,40.78615508585906],[-73.98516729835787,40.78615758336408],[-73.98516860488647,40.78616022163529],[-73.98516964652796,40.78616297526471],[-73.98517041325081,40.78616581773337],[-73.98517089767103,40.78616872166674],[-73.98517109512336,40.786171659098365],[-73.98517100370628,40.78617460173917],[-73.98517062430015,40.78617752124992],[-73.98516996055888,40.786180389514115],[-73.98516901887464,40.786183178908814],[-73.98516780831639,40.78618586257062],[-73.98516634054245,40.786188414654404],[-73.98516462968828,40.786190810582205],[-73.98516269223035,40.78619302727992],[-73.98516054682744,40.786195043399545],[-73.98515821414095,40.78619683952475],[-73.98515571663593,40.786198398357854],[-73.98515307836472,40.78619970488646],[-73.9851503247353,40.78620074652797],[-73.98514748226664,40.7862015132508],[-73.98514457833326,40.786201997671014],[-73.98514164090165,40.786202195123366],[-73.98513869826084,40.78620210370628],[-73.98513577875009,40.786201724300156],[-73.9851329104859,40.78620106055888],[-73.98513012109119,40.786200118874646],[-73.98507809402619,40.78617965958287],[-73.9850617759448,40.78620291284923],[-73.98509990344759,40.78621747436513],[-73.98510259890016,40.78621865843755],[-73.98510516531398,40.78622010100889],[-73.98510757797311,40.78622178818639],[-73.98510981364231,40.786223703721625],[-73.98511185079086,40.78622582916693],[-73.98511366979992,40.78622814405312],[-73.98511525315142,40.78623062608656],[-73.98511658559684,40.78623325136391],[-73.98511765430399,40.78623599460233],[-73.98511844898063,40.786238829382924],[-73.98511896197361,40.78624172840521],[-73.98511918834251,40.78624466375001],[-73.98511912590727,40.78624760714836],[-73.98511877526919,40.78625053025372],[-73.98511813980511,40.78625340491498],[-73.98511722563487,40.78625620344759],[-73.98511604156245,40.78625889890015],[-73.98511459899112,40.78626146531398],[-73.98511291181362,40.786263877973106],[-73.98511099627838,40.7862661136423],[-73.98510887083307,40.78626815079085],[-73.98510655594689,40.78626996979991],[-73.98510407391345,40.786271553151416],[-73.98510144863609,40.78627288559684],[-73.98509870539768,40.78627395430399],[-73.98509587061707,40.78627474898063],[-73.9850929715948,40.7862752619736],[-73.98509003624999,40.786275488342504],[-73.98508709285164,40.78627542590727],[-73.98508416974629,40.78627507526919],[-73.98508129508502,40.7862744398051],[-73.98507849655242,40.78627352563487],[-73.98502625962459,40.78625357549914],[-73.9850139260148,40.786271198627766],[-73.98505600674807,40.78628727562586],[-73.98505870206115,40.78628846001571],[-73.98506126830507,40.78628990288928],[-73.98506368076549,40.786291590350906],[-73.98506591620908,40.78629350614942],[-73.9850679531073,40.786295631834626],[-73.98506977184373,40.786297946935015],[-73.98507135490291,40.78630042915491],[-73.98507268703915,40.78630305458917],[-73.98507375542323,40.78630579795343],[-73.98507454976601,40.78630863282759],[-73.98507506241756,40.78631153191027],[-73.98507528844077,40.78631446728171],[-73.9850752256589,40.78631741067269],[-73.98507487467657,40.78632033373673],[-73.98507423887393,40.78632320832313],[-73.98507332437413,40.78632600674807],[-73.98507213998428,40.78632870206116],[-73.98507069711071,40.78633126830508],[-73.98506900964908,40.78633368076549],[-73.98506709385057,40.78633591620908],[-73.98506496816536,40.786337953107314],[-73.98506265306497,40.786339771843735],[-73.98506017084509,40.78634135490292],[-73.98505754541083,40.78634268703915],[-73.98505480204656,40.786343755423225],[-73.9850519671724,40.786344549766014],[-73.98504906808972,40.786345062417574],[-73.98504613271828,40.78634528844078],[-73.98504318932731,40.7863452256589],[-73.98504026626327,40.78634487467657],[-73.98503739167685,40.786344238873944],[-73.98503459325192,40.78634332437414],[-73.98497842582573,40.786321865536955],[-73.9848903849892,40.786447282870675],[-73.98497393314709,40.786477935730595],[-73.98497481038345,40.78647830737291],[-73.98502811014207,40.786429810596296],[-73.98503038230365,40.7864279384922],[-73.98503282702244,40.78642629811358],[-73.98503542075446,40.78642490525817],[-73.98503813852066,40.78642377333995],[-73.98504095414746,40.786422913259884],[-73.98504384051884,40.786422333301026],[-73.98504676983745,40.7864220390487],[-73.98504971389237,40.78642203333671],[-73.98505264433074,40.786422316220076],[-73.98505553293082,40.78642288497446],[-73.98505835187382,40.786423734122465],[-73.98506107401178,40.78642485548632],[-73.98506367312903,40.78642623826668],[-73.98506612419465,40.78642786914661],[-73.98506840360352,40.78642973241985],[-73.9850704894037,40.78643181014206],[-73.9850723615078,40.78643408230364],[-73.98507400188642,40.78643652702243],[-73.98507539474183,40.78643912075446],[-73.98507652666005,40.78644183852066],[-73.98507738674012,40.78644465414746],[-73.98507796669897,40.78644754051883],[-73.9850782609513,40.78645046983745],[-73.98507826666328,40.78645341389237],[-73.98507798377993,40.78645634433073],[-73.98507741502554,40.78645923293081],[-73.98507656587753,40.78646205187381],[-73.98507544451368,40.78646477401178],[-73.98507406173333,40.78646737312903],[-73.98507243085339,40.78646982419464],[-73.98507056758015,40.786472103603515],[-73.98506848985794,40.7864741894037],[-73.98504303928024,40.78649734656263],[-73.9852188971556,40.78650362720047],[-73.98532046346286,40.786423811935414],[-73.98532286475599,40.78642210862003],[-73.98532542144034,40.78642064887446],[-73.98532810889364,40.78641944675686],[-73.98533090123425,40.78641851384426],[-73.9853337715704,40.78641785912114],[-73.98533669225918,40.78641748889282],[-73.98533963517278,40.78641740672483],[-73.98534257196931,40.78641761340847],[-73.98534547436581,40.78641810695326],[-73.98534831441066,40.786418882606114],[-73.98535106475262,40.786419932897054],[-73.98535369890442,40.78642124771121],[-73.98535619149773,40.786422814386206],[-73.98535851852753,40.78642461783411],[-73.98536065758324,40.78642664068671],[-73.98536258806458,40.78642886346286],[-73.98536429137997,40.78643126475599],[-73.98536575112553,40.78643382144033],[-73.98536695324314,40.78643650889364],[-73.98536788615573,40.786439301234246],[-73.98536854087885,40.7864421715704],[-73.98536891110717,40.786445092259186],[-73.98536899327517,40.786448035172775],[-73.98536878659154,40.78645097196931],[-73.98536829304673,40.786453874365826],[-73.98536751739388,40.786456714410654],[-73.98536646710293,40.78645946475262],[-73.98536515228878,40.78646209890442],[-73.98536358561378,40.78646459149774],[-73.9853617821659,40.78646691852754],[-73.98535975931328,40.78646905758324],[-73.98535753653714,40.786470988064586],[-73.98531177738036,40.78650694761973],[-73.9853984028872,40.78651004484454],[-73.98550627643698,40.78643036868009],[-73.98550872754527,40.786428737864306],[-73.98551132669871,40.78642735515198],[-73.98551404886602,40.78642623385937],[-73.98551686783125,40.78642538478516],[-73.98551975644622,40.786424816106376],[-73.98552268689198,40.786424533299716],[-73.98552563094675,40.78642453908876],[-73.98552856025768,40.78642483341776],[-73.98553144661386,40.786425413452164],[-73.98553426221815,40.786426273605926],[-73.98553697995473,40.78642740559529],[-73.98553957365029,40.786428798518585],[-73.98554201832614,40.78643043896119],[-73.98554429043872,40.786432311124756],[-73.98554636810634,40.786434396979324],[-73.98554823131992,40.78643667643696],[-73.9855498621357,40.786439127545265],[-73.98555124484803,40.786441726698705],[-73.98555236614062,40.78644444886602],[-73.98555321521485,40.78644726783125],[-73.98555378389362,40.786450156446215],[-73.98555406670029,40.78645308689198],[-73.98555406091124,40.78645603094675],[-73.98555376658224,40.78645896025766],[-73.98555318654783,40.78646184661386],[-73.98555232639409,40.786464662218144],[-73.98555119440472,40.786467379954715],[-73.98554980148143,40.786469973650284],[-73.9855481610388,40.786472418326134],[-73.98554628887524,40.786474690438716],[-73.98554420302068,40.78647676810633],[-73.98554192356303,40.78647863131991],[-73.98549468657862,40.786513520889656],[-73.98554653399127,40.78651539489173],[-73.98567152457674,40.786407766702744],[-73.98567384709054,40.786405957442774],[-73.9856763357593,40.78640438454105],[-73.98567896661575,40.786403063145464],[-73.98568171432333,40.78640200598179],[-73.98568455242011,40.786401223231096],[-73.98568745357366,40.78640072243168],[-73.9856903898443,40.78640050840653],[-73.98569333295411,40.78640058321682],[-73.98569625455937,40.78640094614209],[-73.9856991265234,40.78640159368716],[-73.98570192118761,40.78640251961583],[-73.98570461163789,40.78640371501089],[-73.98570717196368,40.78640516836004],[-73.98570957750769,40.78640686566673],[-73.98571180510321,40.78640879058497],[-73.98571383329725,40.78641092457674],[-73.98571564255722,40.78641324709054],[-73.98571721545895,40.7864157357593],[-73.98571853685453,40.786418366615756],[-73.9857195940182,40.78642111432334],[-73.98572037676891,40.786423952420115],[-73.98572087756831,40.78642685357367],[-73.98572109159346,40.786429789844306],[-73.98572101678317,40.786432732954125],[-73.98572065385791,40.78643565455938],[-73.98572000631285,40.7864385265234],[-73.98571908038417,40.78644132118762],[-73.98571788498911,40.78644401163788],[-73.98571643163996,40.786446571963694],[-73.98571473433327,40.7864489775077],[-73.98571280941503,40.78645120510321],[-73.98571067542325,40.78645323329726],[-73.98563478735271,40.786518579783696],[-73.98572458167745,40.786521819506774],[-73.98572751507109,40.78652206989398],[-73.9857304097974,40.786522606598346],[-73.98573323797858,40.78652342445113],[-73.98573597237771,40.78652451557597],[-73.98573858666101,40.786525869464725],[-73.98574105565154,40.78652747307871],[-73.98574335557153,40.786529310974245],[-73.98574546427153,40.786531365451395],[-73.98574736144357,40.78653361672441],[-73.98574902881687,40.78653604311232],[-73.98575045033371,40.786538621247665],[-73.98575161230411,40.7865413263016],[-73.98575250353764,40.78654413222298],[-73.98575311545126,40.786547011989235],[-73.98575344215189,40.78654993786666],[-73.98575348049323,40.786552881677444],[-73.98575323010603,40.78655581507108],[-73.98575269340165,40.78655870979739],[-73.98575187554887,40.78656153797858],[-73.98575078442403,40.7865642723777],[-73.98574943053528,40.786566886661014],[-73.9857478269213,40.78656935565153],[-73.98574740732614,40.786569880727775],[-73.9857721061877,40.78657083403369],[-73.98589863035852,40.786450556818984],[-73.98590086109292,40.786448635539195],[-73.98590326940406,40.7864469421611],[-73.98590583209862,40.786445492992854],[-73.98590852449642,40.78644430199074],[-73.98591132066822,40.78644338062476],[-73.98591419368535,40.78644273776817],[-73.98591711587908,40.78644237961204],[-73.98592005910707,40.7864423096056],[-73.98592299502447,40.786442528423045],[-73.98592589535676,40.786443033957056],[-73.98592873217214,40.78644382133906],[-73.98593147815056,40.78644488298614],[-73.98593410684673,40.78644620867405],[-73.98593659294488,40.78644778563569],[-73.9859389125025,40.78644959868406],[-73.98594104318101,40.786451630358506],[-73.9859429644608,40.7864538610929],[-73.98594465783891,40.786456269404056],[-73.98594610700715,40.78645883209861],[-73.98594729800926,40.78646152449642],[-73.98594821937525,40.786464320668216],[-73.98594886223184,40.78646719368534],[-73.98594922038797,40.78647011587907],[-73.98594929039442,40.786473059107074],[-73.98594907157695,40.78647599502446],[-73.98594856604295,40.786478895356744],[-73.98594777866094,40.786481732172135],[-73.98594671701386,40.786484478150555],[-73.98594539132596,40.78648710684673],[-73.98594381436432,40.78648959294487],[-73.98594200131595,40.786491912502505],[-73.98593996964149,40.786494043181015],[-73.98580426964149,40.78662304318102],[-73.98580199962316,40.78662499501778],[-73.98579954637219,40.7866267108877],[-73.98579693431928,40.786628173703306],[-73.98579418947655,40.78662936889714],[-73.9857913391785,40.78663028456686],[-73.98578841180986,40.786630911593775],[-73.9857854365228,40.78663124373364],[-73.98578244294674,40.78663127767883],[-73.98473314294674,40.786590777678825],[-73.98473015654129,40.78659051248474],[-73.98472721151954,40.786589950530775],[-73.98472433729552,40.78658909742955],[-73.98465673729552,40.786565297429554],[-73.98465621288224,40.78656508333302],[-73.98465567649653,40.78656490129695],[-73.98461087649652,40.78654720129695],[-73.98460819477236,40.78654598645229],[-73.98460564503704,40.786544514602504],[-73.9846032518459,40.786542799922316],[-73.98460103824667,40.78654085892503],[-73.98459902555754,40.78653871030351],[-73.9845972331618,40.786536374750156],[-73.98459567832117,40.78653387475763],[-73.98459437600965,40.78653123440221],[-73.98459333876922,40.78652847911198],[-73.98459257658905,40.78652563542188],[-73.98459209680935,40.78652273071821],[-73.98459190405067,40.78651979297484],[-73.98459200016939,40.78651685048386],[-73.9845923842398,40.78651393158306],[-73.98459305256313,40.78651106438304],[-73.98459399870305,40.78650827649653],[-73.9845952135477,40.78650559477237],[-73.98459668539749,40.78650304503705],[-73.98459840007767,40.786500651845905],[-73.98460034107497,40.78649843824668],[-73.98460248969648,40.786496425557544],[-73.98460482524983,40.786494633161794],[-73.98460732524237,40.78649307832118],[-73.98460996559778,40.78649177600967],[-73.98461272088801,40.78649073876923],[-73.9846155645781,40.78648997658905],[-73.98461846928178,40.78648949680936],[-73.98462140702514,40.786489304050676],[-73.98462434951614,40.78648940016939],[-73.98462726841694,40.78648978423981],[-73.98463013561695,40.78649045256314],[-73.98463292350347,40.786491398703056],[-73.98467719684278,40.78650889062506],[-73.98473998682576,40.78653099715752],[-73.9848967737753,40.7865370486885],[-73.98489635760328,40.78653629497096],[-73.98489519400496,40.78653359061689],[-73.98489430108275,40.78653078523244],[-73.98489368743596,40.786527905835],[-73.98489335897433,40.786524980154745],[-73.98489331886117,40.78652203636757],[-73.98489356748276,40.78651910282376],[-73.98489410244474,40.786516207774945],[-73.98489491859513,40.78651337910202],[-73.98489510006247,40.78651292354179],[-73.98485473883682,40.78649811547148],[-73.98484907695762,40.78650620387033],[-73.98484727233868,40.7865085299921],[-73.98484524840967,40.786510668029365],[-73.98484302466213,40.78651259739166],[-73.98484062251197,40.78651429949818],[-73.9848380650932,40.7865157579567],[-73.98483537703517,40.786516958721464],[-73.98483258422536,40.78651789022847],[-73.98482971356002,40.786518543506766],[-73.98482679268525,40.78651891226495],[-73.98482384973067,40.78651899295167],[-73.98482091303855,40.78651878478987],[-73.98481801089082,40.78651828978426],[-73.98481517123676,40.78651751270202],[-73.9848124214238,40.78651646102687],[-73.98480978793411,40.78651514488703],[-73.98480729612967,40.78651357695762],[-73.9848049700079,40.78651177233868],[-73.98480283197064,40.78650974840967],[-73.98480090260834,40.78650752466213],[-73.98479920050183,40.78650512251197],[-73.98479774204331,40.7865025650932],[-73.98479654127854,40.786499877035176],[-73.98479560977154,40.78649708422535],[-73.98479495649323,40.78649421356002],[-73.98479458773505,40.786491292685255],[-73.98479450704833,40.78648834973068],[-73.98479471521013,40.78648541303855],[-73.98479521021574,40.78648251089082],[-73.98479598729799,40.78647967123676],[-73.98479703897313,40.78647692142379],[-73.98479835511299,40.78647428793411],[-73.98479992304239,40.786471796129675],[-73.98481882304239,40.78644479612967],[-73.98481884593897,40.786444763466505],[-73.9849427336342,40.786268280995095],[-73.98499052135188,40.786199998544944],[-73.98499054329922,40.78619996722753],[-73.98504254145136,40.786125869860726],[-73.98509633960171,40.786049172497684],[-73.98509862935128,40.78604629979587],[-73.98514013913942,40.78600030773015],[-73.98514571114875,40.78599259851175],[-73.98508041932729,40.78596691818094],[-73.98507773574198,40.78596570745313],[-73.98507518375094,40.785964239517945],[-73.98507278793123,40.78596252851241],[-73.98507057135592,40.78596059091443],[-73.98506855537185,40.785958445384146],[-73.98506675939403,40.78595611258418],[-73.98506520071872,40.78595361498068],[-73.98506389435681,40.78595097662692],[-73.98506285288927,40.7859482229317],[-73.98506208634602,40.78594538041461],[-73.98506160210928,40.785942476450636],[-73.98506140484253,40.785939539006534],[-73.98506149644552,40.78593659637151],[-73.98506187603611,40.785933676884746],[-73.9850625399586,40.78593080866249],[-73.98506348181907,40.78592801932729],[-73.98506469254687,40.78592533574197],[-73.98506616048206,40.78592278375093],[-73.9850678714876,40.78592038793123],[-73.98506980908557,40.785918171355924],[-73.98507195461585,40.78591615537185],[-73.98507428741581,40.78591435939403],[-73.98507678501932,40.78591280071872],[-73.98507942337308,40.7859114943568],[-73.98508217706829,40.785910452889276],[-73.9850850195854,40.785909686346024],[-73.98508792354937,40.78590920210929],[-73.98509086099347,40.78590900484252],[-73.98509380362849,40.78590909644553],[-73.98509672311525,40.7859094760361],[-73.98509959133752,40.785910139958595],[-73.98510238067271,40.78591108181906],[-73.98515799274098,40.78593295494616],[-73.98520968139863,40.785857800272154],[-73.98528167775608,40.785753105569036],[-73.98531857471265,40.785699409998074],[-73.98548458795457,40.78545805370005],[-73.9854043707916,40.78537378432988],[-73.98540244800482,40.78537155489431],[-73.98540075299967,40.78536914772802],[-73.98539930209999,40.78536658601333],[-73.98539810927875,40.78536389442097],[-73.98539718602345,40.78536109887243],[-73.98539654122554,40.78535822629037],[-73.9853961810948,40.78535530433934],[-73.98539610909947,40.78535236115931],[-73.98539632593291,40.78534942509473],[-73.98539682950688,40.78534652442149],[-73.9853976149717,40.785343687074665],[-73.98539867476293,40.78534094037946],[-73.98539999867417,40.78533831078805],[-73.98540157395546,40.78533582362483],[-73.98540338543596,40.78533350284255],[-73.98540541567012,40.7853313707916],[-73.9854076451057,40.785329448004816],[-73.98541005227199,40.78532775299968],[-73.98541261398667,40.7853263021],[-73.98541530557904,40.78532510927875],[-73.98541810112758,40.78532418602345],[-73.98542097370962,40.78532354122555],[-73.98542389566066,40.7853231810948],[-73.98542683884068,40.78532310909947],[-73.98542977490527,40.78532332593291],[-73.98543267557851,40.785323829506886],[-73.98543551292533,40.785324614971714],[-73.98543825962054,40.78532567476293],[-73.98544088921196,40.78532699867418],[-73.98544337637517,40.78532857395546],[-73.98544569715746,40.785330385435955],[-73.9854478292084,40.785332415670126],[-73.98553470664636,40.785423681762175],[-73.98588839367903,40.785030173165815],[-73.98594975661288,40.78495773497073],[-73.98594972748516,40.78495767784311],[-73.98594864098611,40.78495489128697],[-73.9859478373499,40.784952010394036],[-73.98594732456412,40.784949063798365],[-73.98594710772551,40.78494608078708],[-73.98594718898929,40.78494309100925],[-73.98594756754775,40.78494012418118],[-73.98594823963829,40.78493720979109],[-73.98594919858078,40.78493437680599],[-73.98595043484403,40.784931653383794],[-73.98595193614041,40.78492906659341],[-73.98595368754809,40.784926642145756],[-73.98603634832573,40.78482346981828],[-73.98590427201866,40.784768496672115],[-73.98590161278044,40.7847672333653],[-73.98589909017291,40.784765715490735],[-73.98589672849013,40.784763957666364],[-73.98589455047643,40.78476197682102],[-73.98589257710726,40.7847597920313],[-73.98589082738724,40.78475742433794],[-73.98588931816714,40.78475489654312],[-73.98588806398155,40.78475223299088],[-73.985887076909,40.784749459332694],[-73.98588636645549,40.7847466022804],[-73.98588593946313,40.78474368934897],[-73.98588580004404,40.78474074859153],[-73.98588594954094,40.78473780832919],[-73.98588638651408,40.78473489687826],[-73.98588710675517,40.78473204227763],[-73.9858881033279,40.78472927201866],[-73.9858893666347,40.78472661278044],[-73.98589088450927,40.7847240901729],[-73.98589264233364,40.78472172849014],[-73.985894623179,40.78471955047644],[-73.9858968079687,40.784717577107266],[-73.98589917566206,40.784715827387245],[-73.98590170345688,40.78471431816713],[-73.98590436700911,40.78471306398155],[-73.98590714066731,40.78471207690899],[-73.9859099977196,40.7847113664555],[-73.98591291065102,40.784710939463125],[-73.98591585140846,40.784710800044046],[-73.98591879167081,40.784710949540944],[-73.98592170312173,40.78471138651408],[-73.98592455772237,40.78471210675517],[-73.98592732798134,40.78471310332789],[-73.98607524736012,40.78477467071881],[-73.98616085972544,40.784666302810045],[-73.98616285851166,40.78466402024233],[-73.98616507762571,40.7846619512342],[-73.98616749437032,40.78466011694763],[-73.98617008402687,40.78465853614381],[-73.98617282010818,40.78465722499132],[-73.98617567462941,40.78465619690073],[-73.98617861839433,40.7846554623874],[-73.98618162129391,40.78465502896399],[-73.98618465261428,40.78465490106359],[-73.98618768135091,40.784655079994366],[-73.98619067652565,40.78465556392621],[-73.98619360750367,40.784656347909426],[-73.98619644430669,40.78465742392538],[-73.98626944273045,40.784689423234425],[-73.98630877086165,40.784706657637884],[-73.98635363285433,40.78464906453917],[-73.98635555380926,40.78464683352501],[-73.98635768419189,40.78464480154031],[-73.98636000348549,40.78464298815418],[-73.98636248935395,40.784641410830524],[-73.98636511785705,40.784640084759836]]],[[[-73.9615556,40.8186304],[-73.9615715,40.8186124],[-73.9620974,40.8188387],[-73.9624319,40.8186436],[-73.9625123,40.8187184],[-73.9621112,40.8189558],[-73.9621728,40.8190172],[-73.9624813,40.8191738],[-73.9624823,40.8191828],[-73.9624259,40.8192447],[-73.9624075,40.81925],[-73.9620846,40.8190888],[-73.9621379,40.8190277],[-73.962083,40.8189707],[-73.962043,40.8189915],[-73.9619713,40.8189199],[-73.9620196,40.8188961],[-73.9619544,40.818834],[-73.9615417,40.8186479],[-73.9615556,40.8186304]]],[[[-73.9605236,40.8198029],[-73.9613595,40.8193074],[-73.9611551,40.8190851],[-73.9611707,40.8190724],[-73.961188,40.8190591],[-73.9613935,40.8192847],[-73.9614548,40.8192495],[-73.9615124,40.8193064],[-73.9604312,40.8199545],[-73.9604069,40.8199354],[-73.9604502,40.8198862],[-73.96047,40.8198637],[-73.9605236,40.8198029]]]]}}]}