{"type":"FeatureCollection","features":[{"type":"Feature","geometry":{"type":"Polygon","coordinates":[[[-73.9729632,40.8020827],[-73.9723859,40.8018518],[-73.972421,40.8017959],[-73.9724738,40.80173],[-73.972509,40.8017003],[-73.9725392,40.8016777],[-73.972575,40.801655],[-73.9726072,40.8016335],[-73.9726542,40.8016117],[-73.972711,40.8015913],[-73.9727624,40.8015751],[-73.9728145,40.8015628],[-73.9728708,40.8015537],[-73.9729216,40.8015477],[-73.9729714,40.8015464],[-73.9730132,40.8015475],[-73.9730582,40.8015506],[-73.9731131,40.8015585],[-73.9731653,40.8015699],[-73.9732196,40.8015852],[-73.9732818,40.8016072],[-73.9733541,40.8016356],[-73.9730759,40.8020746],[-73.9730222,40.8020908],[-73.9729632,40.8020827]]]},"properties":{"sport":"baseball","name":"Field #5"}},{"type":"Feature","geometry":{"type":"Polygon","coordinates":[[[-73.9727077,40.8013668],[-73.9730734,40.8008502],[-73.9735285,40.8010348],[-73.9731628,40.8015514],[-73.9727077,40.8013668]]]},"properties":{"sport":"soccer","name":""}},{"type":"Feature","geometry":{"type":"Polygon","coordinates":[[[-73.9564453,40.8252339],[-73.9570148,40.8243822],[-73.9576432,40.8246228],[-73.9570738,40.8254745],[-73.9564453,40.8252339]]]},"properties":{"sport":"soccer;american_football","name":""}},{"type":"Feature","geometry":{"type":"Polygon","coordinates":[[[-73.9577746,40.8231812],[-73.9578471,40.8230706],[-73.9584559,40.8232989],[-73.9583834,40.8234095],[-73.9577746,40.8231812]]]},"properties":{"sport":"american_handball","name":""}},{"type":"Feature","geometry":{"type":"Polygon","coordinates":[[[-73.9708252,40.7907721],[-73.97073633149756,40.79073484496615],[-73.97092308673517,40.79047906122302],[-73.9710122,40.7905164],[-73.9708252,40.7907721]]]},"properties":{"sport":"multi","name":""}},{"type":"Feature","geometry":{"type":"Polygon","coordinates":[[[-73.9643698,40.8012917],[-73.9642619,40.8014389],[-73.9639426,40.8013064],[-73.9640499,40.8011558],[-73.9643698,40.8012917]]]},"properties":{"sport":"basketball","name":""}},{"type":"Feature","geometry":{"type":"Polygon","coordinates":[[[-73.9561748,40.8112682],[-73.95584353456519,40.81113232026012],[-73.95597276607407,40.81095532217699],[-73.956302,40.8110905],[-73.9561748,40.8112682]]]},"properties":{"sport":"basketball","name":""}},{"type":"Feature","geometry":{"type":"Polygon","coordinates":[[[-73.9674477,40.7977285],[-73.9669211,40.7975085],[-73.9668745,40.7974891],[-73.9668801,40.7974814],[-73.9672282,40.7970062],[-73.9672314,40.7970018],[-73.9672409,40.7969888],[-73.9678057,40.7972284],[-73.9674477,40.7977285]]]},"properties":{"sport":"soccer","name":""}},{"type":"Feature","geometry":{"type":"Polygon","coordinates":[[[-73.9524431,40.829585],[-73.9524392,40.8295905],[-73.9523791,40.8296768],[-73.9523141,40.8297702],[-73.9523069,40.8297805],[-73.9521526,40.8297242],[-73.9522897,40.8295207],[-73.9524494,40.8295759],[-73.9524431,40.829585]]]},"properties":{"sport":"basketball","name":""}},{"type":"Feature","geometry":{"type":"Polygon","coordinates":[[[-73.9835389,40.7772887],[-73.9836771,40.777104],[-73.9838303,40.7771698],[-73.9836921,40.7773545],[-73.9835389,40.7772887]]]},"properties":{"sport":"basketball","name":""}},{"type":"Feature","geometry":{"type":"Polygon","coordinates":[[[-73.9525415,40.8288979],[-73.9531271,40.8291474],[-73.952858,40.8295526],[-73.9522671,40.8293091],[-73.9525415,40.8288979]]]},"properties":{"sport":"baseball","name":""}},{"type":"Feature","geometry":{"type":"Polygon","coordinates":[[[-73.9528317,40.8284508],[-73.9534516,40.8286963],[-73.9531271,40.8291474],[-73.9525415,40.8288979],[-73.9528132,40.8284807],[-73.9528317,40.8284508]]]},"properties":{"sport":"baseball;soccer","name":""}},{"type":"Feature","geometry":{"type":"Polygon","coordinates":[[[-73.9521831,40.8213105],[-73.9513181,40.8209443],[-73.951741,40.8203657],[-73.952612,40.8207304],[-73.9521831,40.8213105]]]},"properties":{"sport":"soccer;baseball","name":""}},{"type":"Feature","geometry":{"type":"Polygon","coordinates":[[[-73.9560512,40.8122958],[-73.9559673,40.8120694],[-73.9561439,40.8120319],[-73.9562277,40.8122583],[-73.9560512,40.8122958]]]},"properties":{"sport":"basketball","name":""}},{"type":"Feature","geometry":{"type":"Polygon","coordinates":[[[-73.9573972,40.8237589],[-73.9572422,40.8236989],[-73.9573901,40.8234802],[-73.957545,40.8235402],[-73.9573972,40.8237589]]]},"properties":{"sport":"basketball","name":""}},{"type":"Feature","geometry":{"type":"Polygon","coordinates":[[[-73.9578571,40.8239456],[-73.9577406,40.8239009],[-73.9578709,40.8237065],[-73.9579874,40.8237512],[-73.9578571,40.8239456]]]},"properties":{"sport":"tennis","name":""}},{"type":"Feature","geometry":{"type":"Polygon","coordinates":[[[-73.9575703,40.8238265],[-73.9574154,40.8237665],[-73.9575633,40.8235478],[-73.9577182,40.8236078],[-73.9575703,40.8238265]]]},"properties":{"sport":"basketball","name":""}},{"type":"Feature","geometry":{"type":"Polygon","coordinates":[[[-73.9580422,40.8236627],[-73.9579257,40.823618],[-73.958056,40.8234235],[-73.9581725,40.8234682],[-73.9580422,40.8236627]]]},"properties":{"sport":"tennis","name":""}},{"type":"Feature","geometry":{"type":"Polygon","coordinates":[[[-73.9581969,40.8237217],[-73.9580804,40.823677],[-73.9582107,40.8234825],[-73.9583272,40.8235272],[-73.9581969,40.8237217]]]},"properties":{"sport":"tennis","name":""}},{"type":"Feature","geometry":{"type":"Polygon","coordinates":[[[-73.9580113,40.8240039],[-73.9578949,40.8239592],[-73.9580252,40.8237647],[-73.9581417,40.8238094],[-73.9580113,40.8240039]]]},"properties":{"sport":"tennis","name":""}},{"type":"Feature","geometry":{"type":"Polygon","coordinates":[[[-73.9588469,40.8236134],[-73.9589205,40.8235067],[-73.959182,40.82361],[-73.9591084,40.8237167],[-73.9588469,40.8236134]]]},"properties":{"sport":"basketball","name":""}},{"type":"Feature","geometry":{"type":"Polygon","coordinates":[[[-73.9584828,40.8234777],[-73.9585564,40.823371],[-73.9588179,40.8234743],[-73.9587442,40.823581],[-73.9584828,40.8234777]]]},"properties":{"sport":"basketball","name":""}},{"type":"Feature","geometry":{"type":"Polygon","coordinates":[[[-73.9593148,40.8238355],[-73.9591039,40.8241535],[-73.9590583,40.8241343],[-73.9589286,40.82434],[-73.9588557,40.8243597],[-73.9584995,40.8242222],[-73.9584874,40.8242424],[-73.958032,40.8240811],[-73.9584265,40.8234981],[-73.9593148,40.8238355]]]},"properties":{"sport":"baseball","name":""}},{"type":"Feature","geometry":{"type":"Polygon","coordinates":[[[-73.9735505,40.8002956],[-73.973887,40.7997855],[-73.974279,40.7999337],[-73.9739424,40.8004438],[-73.9735505,40.8002956]]]},"properties":{"sport":"soccer","name":"101 Street Soccer Field"}},{"type":"Feature","geometry":{"type":"Polygon","coordinates":[[[-73.9534031,40.8267814],[-73.9537665,40.8263828],[-73.9539918,40.8265004],[-73.9536284,40.8268991],[-73.9534031,40.8267814]]]},"properties":{"sport":"soccer","name":""}},{"type":"Feature","geometry":{"type":"Polygon","coordinates":[[[-73.9711985,40.7915066],[-73.9713426,40.7913058],[-73.9714945,40.7913683],[-73.9713504,40.791569],[-73.9711985,40.7915066]]]},"properties":{"sport":"basketball","name":""}},{"type":"Feature","geometry":{"type":"Polygon","coordinates":[[[-73.9877629,40.7719154],[-73.9878737,40.771753],[-73.9879542,40.7717862],[-73.9882666,40.7719185],[-73.9881496,40.7720767],[-73.9877629,40.7719154]]]},"properties":{"sport":"tennis","name":""}},{"type":"Feature","geometry":{"type":"Polygon","coordinates":[[[-73.9721501,40.8031962],[-73.9720855,40.803128],[-73.9720364,40.8030325],[-73.9720053,40.8029336],[-73.9720169,40.8028626],[-73.9719244,40.8028496],[-73.9720104,40.8026436],[-73.9720953,40.8025411],[-73.9721997,40.8024566],[-73.9722706,40.8024947],[-73.9724627,40.8024146],[-73.9725747,40.8023984],[-73.9726989,40.8024007],[-73.9728436,40.8024159],[-73.9722347,40.8032565],[-73.9721501,40.8031962]]]},"properties":{"sport":"","name":"Hudson Beach"}},{"type":"Feature","geometry":{"type":"Polygon","coordinates":[[[-73.9727134,40.8024403],[-73.9726031,40.8025938],[-73.9724963,40.8025499],[-73.9726066,40.8023963],[-73.9727134,40.8024403]]]},"properties":{"sport":"volleyball","name":""}},{"type":"Feature","geometry":{"type":"Polygon","coordinates":[[[-73.9725351,40.8024819],[-73.9724248,40.8026355],[-73.9723179,40.8025915],[-73.9724283,40.802438],[-73.9725351,40.8024819]]]},"properties":{"sport":"volleyball","name":""}},{"type":"Feature","geometry":{"type":"Polygon","coordinates":[[[-73.9723399,40.8030489],[-73.9722296,40.8032024],[-73.9721228,40.8031585],[-73.9722331,40.8030049],[-73.9723399,40.8030489]]]},"properties":{"sport":"volleyball","name":""}},{"type":"Feature","geometry":{"type":"Polygon","coordinates":[[[-73.9720622,40.802837],[-73.9722493,40.8025807],[-73.9724532,40.802666],[-73.9722661,40.8029223],[-73.9720622,40.802837]]]},"properties":{"sport":"traveling_rings;gymnastics","name":"Swing-A-Rings"}},{"type":"Feature","geometry":{"type":"Polygon","coordinates":[[[-73.972519,40.8028393],[-73.9723866,40.8030158],[-73.9722584,40.8029607],[-73.9723908,40.8027842],[-73.972519,40.8028393]]]},"properties":{"sport":"volleyball","name":""}},{"type":"Feature","geometry":{"type":"Polygon","coordinates":[[[-73.9726567,40.8026355],[-73.9725236,40.8028178],[-73.9724009,40.8027664],[-73.9725341,40.8025842],[-73.9726567,40.8026355]]]},"properties":{"sport":"volleyball","name":""}},{"type":"Feature","geometry":{"type":"Polygon","coordinates":[[[-73.9738454,40.8006683],[-73.9737932,40.8007404],[-73.9736607,40.800687],[-73.9737124,40.8006128],[-73.9738454,40.8006683]]]},"properties":{"sport":"basketball","name":""}},{"type":"Feature","geometry":{"type":"Polygon","coordinates":[[[-73.9737932,40.8007404],[-73.973742,40.8008132],[-73.9736095,40.8007599],[-73.9736607,40.800687],[-73.9737932,40.8007404]]]},"properties":{"sport":"basketball","name":""}},{"type":"Feature","geometry":{"type":"Polygon","coordinates":[[[-73.9735799,40.8007441],[-73.9734456,40.8006925],[-73.9734954,40.8006189],[-73.9736299,40.8006724],[-73.9735799,40.8007441]]]},"properties":{"sport":"basketball","name":""}},{"type":"Feature","geometry":{"type":"Polygon","coordinates":[[[-73.9650417,40.8126877],[-73.9651464,40.8124885],[-73.9652684,40.8125252],[-73.9651637,40.8127244],[-73.9650417,40.8126877]]]},"properties":{"sport":"tennis","name":""}},{"type":"Feature","geometry":{"type":"Polygon","coordinates":[[[-73.9654295,40.8115944],[-73.9655312,40.8113963],[-73.9656531,40.8114321],[-73.9655514,40.8116303],[-73.9654295,40.8115944]]]},"properties":{"sport":"tennis","name":""}},{"type":"Feature","geometry":{"type":"Polygon","coordinates":[[[-73.9655963,40.8116436],[-73.9656978,40.8114464],[-73.9658217,40.8114829],[-73.9657202,40.8116801],[-73.9655963,40.8116436]]]},"properties":{"sport":"tennis","name":""}},{"type":"Feature","geometry":{"type":"Polygon","coordinates":[[[-73.9651313,40.8118551],[-73.9652261,40.8116538],[-73.9653497,40.8116871],[-73.965255,40.8118884],[-73.9651313,40.8118551]]]},"properties":{"sport":"tennis","name":""}},{"type":"Feature","geometry":{"type":"Polygon","coordinates":[[[-73.9652774,40.8118953],[-73.9653791,40.8116972],[-73.965501,40.811733],[-73.9653993,40.8119312],[-73.9652774,40.8118953]]]},"properties":{"sport":"tennis","name":""}},{"type":"Feature","geometry":{"type":"Polygon","coordinates":[[[-73.9655435,40.8120272],[-73.965416,40.8119915],[-73.9655143,40.811791],[-73.9656417,40.8118268],[-73.9655435,40.8120272]]]},"properties":{"sport":"tennis","name":""}},{"type":"Feature","geometry":{"type":"Polygon","coordinates":[[[-73.9649672,40.8121604],[-73.9650659,40.8119609],[-73.9651926,40.8119969],[-73.9650939,40.8121963],[-73.9649672,40.8121604]]]},"properties":{"sport":"tennis","name":""}},{"type":"Feature","geometry":{"type":"Polygon","coordinates":[[[-73.9651178,40.8122032],[-73.9652227,40.8120044],[-73.9653439,40.812041],[-73.9652391,40.8122398],[-73.9651178,40.8122032]]]},"properties":{"sport":"tennis","name":""}},{"type":"Feature","geometry":{"type":"Polygon","coordinates":[[[-73.9652385,40.8123396],[-73.965341,40.8121409],[-73.9654632,40.812177],[-73.9653607,40.8123757],[-73.9652385,40.8123396]]]},"properties":{"sport":"tennis","name":""}},{"type":"Feature","geometry":{"type":"Polygon","coordinates":[[[-73.9649366,40.812504],[-73.9650413,40.8123048],[-73.9651633,40.8123415],[-73.9650586,40.8125407],[-73.9649366,40.812504]]]},"properties":{"sport":"tennis","name":""}},{"type":"Feature","geometry":{"type":"Polygon","coordinates":[[[-73.9841368,40.7775056],[-73.9840687,40.777487],[-73.9840196,40.7774574],[-73.983985,40.7774076],[-73.9839616,40.7773585],[-73.9839661,40.7773002],[-73.9839895,40.7772453],[-73.9840274,40.7772056],[-73.9840732,40.7771786],[-73.9843477,40.7772918],[-73.9841948,40.7775123],[-73.9841368,40.7775056]]]},"properties":{"sport":"","name":""}},{"type":"Feature","geometry":{"type":"Polygon","coordinates":[[[-73.9440134,40.8293922],[-73.944172,40.8291708],[-73.9443784,40.8292606],[-73.944219,40.8294785],[-73.9440134,40.8293922]]]},"properties":{"sport":"basketball","name":""}},{"type":"Feature","geometry":{"type":"Polygon","coordinates":[[[-73.9904044,40.7739558],[-73.9905757,40.7737037],[-73.9906828,40.7737473],[-73.9907647,40.7737806],[-73.990756,40.7737928],[-73.9907121,40.7738547],[-73.9906921,40.7738829],[-73.9906501,40.773942],[-73.9905726,40.7739102],[-73.990507,40.773999],[-73.9904044,40.7739558]]]},"properties":{"sport":"","name":""}},{"type":"Feature","geometry":{"type":"Polygon","coordinates":[[[-73.9561636,40.8193065],[-73.9560428,40.8192543],[-73.9561105,40.8191647],[-73.9562312,40.8192169],[-73.9561636,40.8193065]]]},"properties":{"sport":"basketball","name":""}},{"type":"Feature","geometry":{"type":"Polygon","coordinates":[[[-73.9563816,40.8192669],[-73.9561166,40.8191578],[-73.9561873,40.8190595],[-73.9564523,40.8191686],[-73.9563816,40.8192669]]]},"properties":{"sport":"basketball","name":""}},{"type":"Feature","geometry":{"type":"Polygon","coordinates":[[[-73.9560881,40.8194029],[-73.9559674,40.8193507],[-73.956035,40.8192611],[-73.9561557,40.8193133],[-73.9560881,40.8194029]]]},"properties":{"sport":"basketball","name":""}},{"type":"Feature","geometry":{"type":"Polygon","coordinates":[[[-73.9560157,40.8195004],[-73.9558949,40.8194482],[-73.9559626,40.8193586],[-73.9560833,40.8194108],[-73.9560157,40.8195004]]]},"properties":{"sport":"basketball","name":""}},{"type":"Feature","geometry":{"type":"Polygon","coordinates":[[[-73.955942,40.8195978],[-73.9558212,40.8195456],[-73.9558888,40.819456],[-73.9560096,40.8195082],[-73.955942,40.8195978]]]},"properties":{"sport":"basketball","name":""}},{"type":"Feature","geometry":{"type":"Polygon","coordinates":[[[-73.9558004,40.8198096],[-73.9557648,40.8197155],[-73.9561816,40.8196252],[-73.9562172,40.8197193],[-73.9558004,40.8198096]]]},"properties":{"sport":"american_football","name":""}},{"type":"Feature","geometry":{"type":"Polygon","coordinates":[[[-73.9901411,40.777085],[-73.9901541,40.77704],[-73.9901831,40.7769426],[-73.9902098,40.776886],[-73.9903246,40.7767273],[-73.9903783,40.7766532],[-73.9904229,40.7765685],[-73.9904371,40.7765583],[-73.9904513,40.7765563],[-73.9905724,40.7766169],[-73.9902136,40.7771117],[-73.9901411,40.777085]]]},"properties":{"sport":"beachvolleyball","name":"Volleyball Courts"}},{"type":"Feature","geometry":{"type":"Polygon","coordinates":[[[-73.9867907,40.7736742],[-73.9869006,40.7735196],[-73.987016,40.7735667],[-73.9869061,40.7737213],[-73.9867907,40.7736742]]]},"properties":{"sport":"basketball","name":""}},{"type":"Feature","geometry":{"type":"Polygon","coordinates":[[[-73.9869307,40.7739833],[-73.9867643,40.7740172],[-73.9866876,40.7738013],[-73.9868541,40.7737674],[-73.9869307,40.7739833]]]},"properties":{"sport":"basketball","name":""}},{"type":"Feature","geometry":{"type":"Polygon","coordinates":[[[-73.9513709,40.8232178],[-73.951338,40.8232045],[-73.9513881,40.8231344],[-73.9514431,40.8230575],[-73.9514974,40.8229814],[-73.9516703,40.8230522],[-73.9515103,40.8232753],[-73.9513709,40.8232178]]]},"properties":{"sport":"handball","name":""}},{"type":"Feature","geometry":{"type":"Polygon","coordinates":[[[-73.9765163,40.7974036],[-73.9764952,40.7973525],[-73.9766755,40.7970941],[-73.9765306,40.797035],[-73.976614,40.7969257],[-73.976931,40.7964724],[-73.9769646,40.7964637],[-73.9770868,40.7965096],[-73.9772651,40.7962537],[-73.9773433,40.7962409],[-73.9776237,40.7963573],[-73.9768029,40.7975169],[-73.9765163,40.7974036]]]},"properties":{"sport":"tennis","name":"Riverside Clay Tennis Association"}},{"type":"Feature","geometry":{"type":"Polygon","coordinates":[[[-73.9659342,40.7989886],[-73.9661354,40.7990703],[-73.9660214,40.7992236],[-73.9658243,40.7991475],[-73.9659342,40.7989886]]]},"properties":{"sport":"basketball","name":""}},{"type":"Feature","geometry":{"type":"Polygon","coordinates":[[[-73.9637181,40.8012107],[-73.9632554,40.8010132],[-73.9636084,40.8005397],[-73.9640621,40.8007342],[-73.9637181,40.8012107]]]},"properties":{"sport":"soccer","name":""}},{"type":"Feature","geometry":{"type":"Polygon","coordinates":[[[-73.9878698,40.7815886],[-73.9877519,40.7817596],[-73.9876616,40.781732],[-73.9876142,40.7817237],[-73.9875536,40.781717],[-73.9875008,40.781707],[-73.98746,40.7816945],[-73.9874126,40.7816753],[-73.987373,40.7816461],[-73.9873476,40.7816169],[-73.9873309,40.7815772],[-73.9873245,40.781531],[-73.9873168,40.7814768],[-73.9873191,40.7814243],[-73.9873245,40.7813988],[-73.9874038,40.7813584],[-73.9874985,40.7813041],[-73.9875883,40.7812421],[-73.9877578,40.7813149],[-73.9878784,40.7813636],[-73.9878984,40.7813717],[-73.9879304,40.7813917],[-73.9879491,40.7814242],[-73.9879513,40.7814518],[-73.9879447,40.7814743],[-73.9879326,40.7814976],[-73.9878698,40.7815886]]]},"properties":{"sport":"softball","name":""}},{"type":"Feature","geometry":{"type":"Polygon","coordinates":[[[-73.9774155,40.796579],[-73.9773023,40.7965331],[-73.9774354,40.7963442],[-73.9775509,40.7963911],[-73.9774155,40.796579]]]},"properties":{"sport":"tennis","name":""}},{"type":"Feature","geometry":{"type":"Polygon","coordinates":[[[-73.9772722,40.7965183],[-73.977159,40.7964724],[-73.9772921,40.7962835],[-73.9774076,40.7963304],[-73.9772722,40.7965183]]]},"properties":{"sport":"tennis","name":""}},{"type":"Feature","geometry":{"type":"Polygon","coordinates":[[[-73.977007,40.7971584],[-73.9768937,40.7971125],[-73.9770269,40.7969236],[-73.9771423,40.7969705],[-73.977007,40.7971584]]]},"properties":{"sport":"tennis","name":""}},{"type":"Feature","geometry":{"type":"Polygon","coordinates":[[[-73.9768637,40.7971007],[-73.9767504,40.7970548],[-73.9768836,40.7968659],[-73.976999,40.7969128],[-73.9768637,40.7971007]]]},"properties":{"sport":"tennis","name":""}},{"type":"Feature","geometry":{"type":"Polygon","coordinates":[[[-73.9767203,40.7970415],[-73.9766071,40.7969956],[-73.9767403,40.7968067],[-73.9768557,40.7968536],[-73.9767203,40.7970415]]]},"properties":{"sport":"tennis","name":""}},{"type":"Feature","geometry":{"type":"Polygon","coordinates":[[[-73.9768047,40.7974516],[-73.9766915,40.7974057],[-73.9768246,40.7972168],[-73.9769401,40.7972637],[-73.9768047,40.7974516]]]},"properties":{"sport":"tennis","name":""}},{"type":"Feature","geometry":{"type":"Polygon","coordinates":[[[-73.9766573,40.79739],[-73.9765441,40.7973441],[-73.9766772,40.7971552],[-73.9767927,40.7972021],[-73.9766573,40.79739]]]},"properties":{"sport":"tennis","name":""}},{"type":"Feature","geometry":{"type":"Polygon","coordinates":[[[-73.9772052,40.7968668],[-73.9770919,40.7968209],[-73.9772251,40.796632],[-73.9773405,40.7966789],[-73.9772052,40.7968668]]]},"properties":{"sport":"tennis","name":""}},{"type":"Feature","geometry":{"type":"Polygon","coordinates":[[[-73.9770649,40.7968083],[-73.9769516,40.7967625],[-73.9770848,40.7965736],[-73.9772003,40.7966204],[-73.9770649,40.7968083]]]},"properties":{"sport":"tennis","name":""}},{"type":"Feature","geometry":{"type":"Polygon","coordinates":[[[-73.9769226,40.7967491],[-73.9768094,40.7967032],[-73.9769425,40.7965143],[-73.977058,40.7965612],[-73.9769226,40.7967491]]]},"properties":{"sport":"tennis","name":""}},{"type":"Feature","geometry":{"type":"Polygon","coordinates":[[[-73.988118,40.7810018],[-73.9878439,40.7808854],[-73.9884044,40.7801296],[-73.9886782,40.780246],[-73.988118,40.7810018]]]},"properties":{"sport":"soccer","name":"71st Street Riverside Soccer Field"}},{"type":"Feature","geometry":{"type":"Polygon","coordinates":[[[-73.9525362,40.8203355],[-73.9527144,40.8200909],[-73.9529965,40.8202104],[-73.9528181,40.8204517],[-73.9525362,40.8203355]]]},"properties":{"sport":"american_handball","name":""}},{"type":"Feature","geometry":{"type":"Polygon","coordinates":[[[-73.9524719,40.8205752],[-73.9526172,40.8203796],[-73.9527686,40.820444],[-73.9526233,40.8206396],[-73.9524719,40.8205752]]]},"properties":{"sport":"basketball","name":""}},{"type":"Feature","geometry":{"type":"Polygon","coordinates":[[[-73.952226,40.8204699],[-73.9523668,40.8202738],[-73.9525196,40.8203366],[-73.9523789,40.8205328],[-73.952226,40.8204699]]]},"properties":{"sport":"basketball","name":""}},{"type":"Feature","geometry":{"type":"Polygon","coordinates":[[[-73.9523864,40.8202492],[-73.9525317,40.8200536],[-73.9526831,40.820118],[-73.9525378,40.8203136],[-73.9523864,40.8202492]]]},"properties":{"sport":"basketball","name":""}},{"type":"Feature","geometry":{"type":"Polygon","coordinates":[[[-73.9706995,40.7912983],[-73.9708394,40.7911126],[-73.9709529,40.7911616],[-73.9708131,40.7913473],[-73.9706995,40.7912983]]]},"properties":{"sport":"tennis","name":""}},{"type":"Feature","geometry":{"type":"Polygon","coordinates":[[[-73.9705642,40.7912401],[-73.9707041,40.7910544],[-73.9708176,40.7911034],[-73.9706777,40.7912891],[-73.9705642,40.7912401]]]},"properties":{"sport":"tennis","name":""}},{"type":"Feature","geometry":{"type":"Polygon","coordinates":[[[-73.9871374,40.7779653],[-73.9873561,40.777668],[-73.9874973,40.7777276],[-73.9872786,40.7780249],[-73.9871374,40.7779653]]]},"properties":{"sport":"basketball","name":""}},{"type":"Feature","geometry":{"type":"Polygon","coordinates":[[[-73.9847454,40.7833395],[-73.9848156,40.7832196],[-73.9849763,40.7832723],[-73.9849018,40.783396],[-73.9847454,40.7833395]]]},"properties":{"sport":"basketball","name":""}},{"type":"Feature","geometry":{"type":"Polygon","coordinates":[[[-73.9848848,40.7831181],[-73.9849252,40.7830139],[-73.985132,40.7830626],[-73.9852006,40.7830784],[-73.9851549,40.7831847],[-73.9848848,40.7831181]]]},"properties":{"sport":"basketball","name":""}},{"type":"Feature","geometry":{"type":"Polygon","coordinates":[[[-73.9849252,40.7830139],[-73.9849694,40.7829061],[-73.9851763,40.7829548],[-73.985132,40.7830626],[-73.9849252,40.7830139]]]},"properties":{"sport":"basketball","name":""}},{"type":"Feature","geometry":{"type":"Polygon","coordinates":[[[-73.9886468,40.7706053],[-73.9888352,40.7703378],[-73.9889923,40.7704013],[-73.9888038,40.7706688],[-73.9886468,40.7706053]]]},"properties":{"sport":"tennis","name":""}},{"type":"Feature","geometry":{"type":"Polygon","coordinates":[[[-73.9888899,40.7702586],[-73.9889296,40.7702603],[-73.9890756,40.7703222],[-73.9890907,40.7703461],[-73.9890896,40.7703744],[-73.9888082,40.7707466],[-73.9887779,40.770759],[-73.988744,40.7707608],[-73.9886062,40.7707042],[-73.9885841,40.7706794],[-73.9885805,40.7706529],[-73.9888607,40.7702727],[-73.9888899,40.7702586]]]},"properties":{"sport":"running","name":""}},{"type":"Feature","geometry":{"type":"Polygon","coordinates":[[[-73.9754257,40.7863839],[-73.9751822,40.78628],[-73.9752464,40.7861938],[-73.9754899,40.7862977],[-73.9754257,40.7863839]]]},"properties":{"sport":"tennis","name":""}},{"type":"Feature","geometry":{"type":"Polygon","coordinates":[[[-73.9753476,40.7864932],[-73.9751041,40.7863892],[-73.9751683,40.786303],[-73.9754118,40.7864069],[-73.9753476,40.7864932]]]},"properties":{"sport":"tennis","name":""}},{"type":"Feature","geometry":{"type":"Polygon","coordinates":[[[-73.9750161,40.7863472],[-73.9749006,40.7862989],[-73.9750364,40.7861128],[-73.9751519,40.7861611],[-73.9750161,40.7863472]]]},"properties":{"sport":"tennis","name":""}},{"type":"Feature","geometry":{"type":"Polygon","coordinates":[[[-73.9559861,40.8148037],[-73.955847,40.8146425],[-73.9559212,40.8146059],[-73.9560602,40.8147671],[-73.9559861,40.8148037]]]},"properties":{"sport":"american_handball","name":""}},{"type":"Feature","geometry":{"type":"Polygon","coordinates":[[[-73.9559009,40.8148457],[-73.9557618,40.8146845],[-73.955836,40.8146478],[-73.9559751,40.814809],[-73.9559009,40.8148457]]]},"properties":{"sport":"american_handball","name":""}},{"type":"Feature","geometry":{"type":"Polygon","coordinates":[[[-73.9703072,40.8056211],[-73.9703793,40.8055163],[-73.9704396,40.80554],[-73.9703676,40.8056449],[-73.9703072,40.8056211]]]},"properties":{"sport":"pickleball","name":""}},{"type":"Feature","geometry":{"type":"Polygon","coordinates":[[[-73.9736299,40.8006724],[-73.9734954,40.8006189],[-73.9735456,40.8005467],[-73.97368,40.8006003],[-73.9736299,40.8006724]]]},"properties":{"sport":"basketball","name":""}},{"type":"Feature","geometry":{"type":"Polygon","coordinates":[[[-73.9953023,40.7718987],[-73.9955835,40.7720164],[-73.995734,40.7720794],[-73.9956988,40.7721276],[-73.9956057,40.7722552],[-73.995174,40.7720745],[-73.9953023,40.7718987]]]},"properties":{"sport":"soccer","name":""}},{"type":"Feature","geometry":{"type":"Polygon","coordinates":[[[-73.9722992,40.8025519],[-73.9722815,40.8025455],[-73.9722931,40.8025271],[-73.9723109,40.8025335],[-73.9722992,40.8025519]]]},"properties":{"sport":"table_tennis","name":""}},{"type":"Feature","geometry":{"type":"Polygon","coordinates":[[[-73.9723577,40.802496],[-73.972341,40.8024881],[-73.972356,40.8024708],[-73.9723728,40.8024787],[-73.9723577,40.802496]]]},"properties":{"sport":"table_tennis","name":""}},{"type":"Feature","geometry":{"type":"Polygon","coordinates":[[[-73.970217,40.805455],[-73.9702779,40.8054789],[-73.9702075,40.8055818],[-73.9701466,40.8055579],[-73.970217,40.805455]]]},"properties":{"sport":"pickleball","name":""}},{"type":"Feature","geometry":{"type":"Polygon","coordinates":[[[-73.9700204,40.8057184],[-73.9700939,40.805614],[-73.9701536,40.8056381],[-73.9700802,40.8057425],[-73.9700204,40.8057184]]]},"properties":{"sport":"pickleball","name":""}},{"type":"Feature","geometry":{"type":"Polygon","coordinates":[[[-73.9684955,40.7955796],[-73.9683703,40.7955262],[-73.9684766,40.7953835],[-73.9686017,40.7954369],[-73.9684955,40.7955796]]]},"properties":{"sport":"basketball","name":""}},{"type":"Feature","geometry":{"type":"Polygon","coordinates":[[[-73.9683622,40.7955232],[-73.9682371,40.7954706],[-73.9683424,40.7953272],[-73.9684674,40.7953798],[-73.9683622,40.7955232]]]},"properties":{"sport":"basketball","name":""}},{"type":"Feature","geometry":{"type":"Polygon","coordinates":[[[-73.9683695,40.7958043],[-73.9682301,40.795746],[-73.9683416,40.7955932],[-73.968481,40.7956515],[-73.9683695,40.7958043]]]},"properties":{"sport":"basketball","name":""}},{"type":"Feature","geometry":{"type":"Polygon","coordinates":[[[-73.9682251,40.7957431],[-73.9680855,40.7956863],[-73.9681952,40.7955319],[-73.9683348,40.7955888],[-73.9682251,40.7957431]]]},"properties":{"sport":"basketball","name":""}},{"type":"Feature","geometry":{"type":"Polygon","coordinates":[[[-73.9514527,40.8316704],[-73.9515009,40.8315764],[-73.9515638,40.8315949],[-73.9515156,40.8316889],[-73.9514527,40.8316704]]]},"properties":{"sport":"","name":""}},{"type":"Feature","geometry":{"type":"Polygon","coordinates":[[[-73.9850429,40.7832823],[-73.9850859,40.783177],[-73.9852236,40.7832093],[-73.9851779,40.7833156],[-73.9850429,40.7832823]]]},"properties":{"sport":"basketball","name":""}},{"type":"Feature","geometry":{"type":"Polygon","coordinates":[[[-73.9713557,40.7900542],[-73.97135,40.7900468],[-73.9713513,40.7900385],[-73.9713986,40.7899745],[-73.9714092,40.7899698],[-73.9714216,40.7899691],[-73.971565,40.7900291],[-73.9716154,40.7900415],[-73.9716384,40.7900401],[-73.9716557,40.7900368],[-73.9716725,40.7900391],[-73.9716826,40.7900458],[-73.9716902,40.7900592],[-73.9716919,40.7900743],[-73.9716871,40.7900854],[-73.9716747,40.7900941],[-73.9716596,40.7900961],[-73.9716225,40.7900897],[-73.9716088,40.7900907],[-73.9715946,40.7900961],[-73.9715809,40.7901058],[-73.9715645,40.7901202],[-73.9715517,40.7901242],[-73.9715349,40.7901259],[-73.9715181,40.7901239],[-73.9713557,40.7900542]]]},"properties":{"sport":"","name":""}},{"type":"Feature","geometry":{"type":"Polygon","coordinates":[[[-73.9721265,40.7901708],[-73.97225,40.7900012],[-73.9724101,40.790068],[-73.9722866,40.7902376],[-73.9721265,40.7901708]]]},"properties":{"sport":"basketball","name":""}},{"type":"Feature","geometry":{"type":"Polygon","coordinates":[[[-73.9720377,40.790284],[-73.9721012,40.7901978],[-73.9722579,40.7902639],[-73.9721945,40.7903501],[-73.9720377,40.790284]]]},"properties":{"sport":"basketball","name":""}},{"type":"Feature","geometry":{"type":"Polygon","coordinates":[[[-73.9700652,40.8059381],[-73.9699056,40.8058843],[-73.9699604,40.8057913],[-73.9701199,40.8058451],[-73.9700652,40.8059381]]]},"properties":{"sport":"basketball","name":""}},{"type":"Feature","geometry":{"type":"Polygon","coordinates":[[[-73.9695049,40.8062693],[-73.9697789,40.806353],[-73.9697106,40.806481],[-73.9694367,40.8063974],[-73.9695049,40.8062693]]]},"properties":{"sport":"basketball","name":""}},{"type":"Feature","geometry":{"type":"Polygon","coordinates":[[[-73.9694077,40.8064307],[-73.9696816,40.8065143],[-73.9696134,40.8066424],[-73.9693394,40.8065588],[-73.9694077,40.8064307]]]},"properties":{"sport":"basketball","name":""}},{"type":"Feature","geometry":{"type":"Polygon","coordinates":[[[-73.9694743,40.8067837],[-73.969311,40.8067368],[-73.9693587,40.8066417],[-73.969522,40.8066886],[-73.9694743,40.8067837]]]},"properties":{"sport":"basketball","name":""}},{"type":"Feature","geometry":{"type":"Polygon","coordinates":[[[-73.9697809,40.8061006],[-73.9698898,40.8059086],[-73.9700498,40.8059606],[-73.9699409,40.8061526],[-73.9697809,40.8061006]]]},"properties":{"sport":"basketball","name":""}},{"type":"Feature","geometry":{"type":"Polygon","coordinates":[[[-73.9695936,40.8061073],[-73.9698676,40.8061909],[-73.9697993,40.806319],[-73.9695254,40.8062354],[-73.9695936,40.8061073]]]},"properties":{"sport":"basketball","name":""}},{"type":"Feature","geometry":{"type":"Polygon","coordinates":[[[-73.9701309,40.8055469],[-73.9700663,40.8055214],[-73.9701396,40.8054147],[-73.9702043,40.8054402],[-73.9701309,40.8055469]]]},"properties":{"sport":"pickleball","name":""}},{"type":"Feature","geometry":{"type":"Polygon","coordinates":[[[-73.9702878,40.8056122],[-73.9702283,40.8055885],[-73.9702996,40.8054861],[-73.9703591,40.8055098],[-73.9702878,40.8056122]]]},"properties":{"sport":"pickleball","name":""}},{"type":"Feature","geometry":{"type":"Polygon","coordinates":[[[-73.952012,40.8296691],[-73.9521388,40.8294653],[-73.9522897,40.8295207],[-73.9521526,40.8297242],[-73.952012,40.8296691]]]},"properties":{"sport":"basketball","name":""}},{"type":"Feature","geometry":{"type":"Polygon","coordinates":[[[-73.9523141,40.8297702],[-73.9524431,40.829585],[-73.9525774,40.8296415],[-73.9524449,40.8298206],[-73.9523141,40.8297702]]]},"properties":{"sport":"volleyball","name":""}},{"type":"Feature","geometry":{"type":"Polygon","coordinates":[[[-73.9568728,40.8256806],[-73.9567894,40.825686],[-73.9567108,40.8256815],[-73.9566721,40.8256759],[-73.9566386,40.8256692],[-73.9566057,40.8256616],[-73.9565728,40.8256506],[-73.956539,40.8256365],[-73.9565104,40.825623],[-73.9564783,40.8256044],[-73.9564518,40.8255849],[-73.9564228,40.8255611],[-73.9564002,40.8255381],[-73.956377,40.8255105],[-73.9563577,40.8254828],[-73.9563125,40.8254529],[-73.9561931,40.8254043],[-73.9568985,40.8243595],[-73.9569422,40.8243074],[-73.9570014,40.8242588],[-73.9570337,40.8242382],[-73.9570723,40.8242184],[-73.9571098,40.8242031],[-73.9571539,40.8241878],[-73.9571927,40.8241785],[-73.9572445,40.8241693],[-73.9572934,40.8241646],[-73.957342,40.8241652],[-73.9573946,40.8241698],[-73.9574433,40.8241774],[-73.9574998,40.824191],[-73.9575486,40.824208],[-73.9575965,40.8242304],[-73.9576377,40.8242574],[-73.957676,40.8242862],[-73.9577048,40.8243124],[-73.9577332,40.8243438],[-73.957753,40.8243731],[-73.9577715,40.8244061],[-73.9577827,40.8244373],[-73.9577915,40.8244706],[-73.9577949,40.8245024],[-73.9577914,40.8245665],[-73.9577741,40.824628],[-73.9577457,40.8246841],[-73.9570504,40.8257336],[-73.9569356,40.8256913],[-73.9568728,40.8256806]],[[-73.9564168,40.8252867],[-73.9564136,40.8253161],[-73.9564136,40.8253457],[-73.9564189,40.8253764],[-73.9564254,40.8254005],[-73.9564351,40.8254256],[-73.9564494,40.8254503],[-73.9564642,40.8254721],[-73.9564831,40.8254941],[-73.9565032,40.8255137],[-73.9565239,40.8255311],[-73.9565479,40.8255468],[-73.9565691,40.8255605],[-73.9566099,40.8255787],[-73.9566438,40.8255903],[-73.9566675,40.8255958],[-73.9566943,40.8256016],[-73.9567258,40.8256058],[-73.9567554,40.8256086],[-73.9567889,40.8256094],[-73.9568225,40.8256089],[-73.9568549,40.8256051],[-73.9568883,40.8255999],[-73.9569216,40.8255912],[-73.9569543,40.8255812],[-73.956987,40.825566],[-73.9570191,40.8255494],[-73.9570489,40.8255277],[-73.957076,40.8255043],[-73.9571054,40.8254748],[-73.9576533,40.8246531],[-73.9576771,40.8246063],[-73.957685,40.8245817],[-73.9576909,40.8245569],[-73.9576935,40.8245319],[-73.9576937,40.8245062],[-73.957691,40.8244808],[-73.9576842,40.8244554],[-73.9576743,40.8244316],[-73.9576612,40.8244057],[-73.9576445,40.824384],[-73.9576236,40.8243584],[-73.9575999,40.8243369],[-73.9575702,40.8243146],[-73.9575387,40.8242949],[-73.9574998,40.8242756],[-73.9574621,40.8242629],[-73.957417,40.8242516],[-73.9573814,40.824246],[-73.9573368,40.8242419],[-73.9573008,40.8242421],[-73.9572606,40.8242451],[-73.9572224,40.8242512],[-73.9571897,40.8242596],[-73.9571544,40.8242711],[-73.9571255,40.8242836],[-73.9570938,40.8242992],[-73.9570694,40.8243157],[-73.9570417,40.8243347],[-73.9570124,40.8243626],[-73.9569864,40.8243972],[-73.9564375,40.8252245],[-73.956425,40.8252561],[-73.9564168,40.8252867]]]},"properties":{"sport":"running","name":""}},{"type":"Feature","geometry":{"type":"Polygon","coordinates":[[[-73.9720172,40.803584],[-73.9713369,40.8045489],[-73.9706503,40.8042715],[-73.9713306,40.8033066],[-73.9720172,40.803584]]]},"properties":{"sport":"soccer","name":"Neville Colman Field"}},{"type":"Feature","geometry":{"type":"Polygon","coordinates":[[[-73.9855984,40.7842091],[-73.9856884,40.7841243],[-73.9857957,40.7840444],[-73.9859137,40.7839856],[-73.985994,40.7839602],[-73.986088,40.7839486],[-73.9861666,40.78396],[-73.9862689,40.7839994],[-73.9859971,40.7843905],[-73.9858814,40.784557],[-73.9857517,40.7847508],[-73.9854733,40.785167],[-73.9853975,40.7851308],[-73.985322,40.7850686],[-73.9852854,40.7850177],[-73.9852556,40.784953],[-73.9852523,40.7848908],[-73.9852639,40.7848149],[-73.9852922,40.784713],[-73.9853386,40.7845904],[-73.9854065,40.7844764],[-73.9854636,40.7843919],[-73.985533,40.7842909],[-73.9855984,40.7842091]]]},"properties":{"sport":"baseball","name":"77th Street Baseball Fields"}}]}