{"type":"FeatureCollection","features":[{"type":"Feature","geometry":{"type":"Polygon","coordinates":[[[-73.955715,40.810141],[-73.955797,40.810044],[-73.955883,40.810066],[-73.955945,40.810104],[-73.956044,40.810125],[-73.956143,40.809967],[-73.956132,40.80995],[-73.956097,40.809957],[-73.955927,40.809883],[-73.95601,40.809768],[-73.956219,40.809853],[-73.95627,40.809817],[-73.956349,40.809821],[-73.956316,40.809985],[-73.956223,40.810173],[-73.95613,40.810248],[-73.95603,40.810266],[-73.955919,40.810228],[-73.95589,40.810188],[-73.955851,40.810194],[-73.955812,40.810187],[-73.955715,40.810141]]]},"properties":{"name":""}},{"type":"Feature","geometry":{"type":"Polygon","coordinates":[[[-73.959975,40.802058],[-73.959833,40.801997],[-73.959856,40.801961],[-73.959862,40.801919],[-73.959886,40.801898],[-73.959922,40.801889],[-73.959962,40.801897],[-73.960041,40.801927],[-73.960072,40.801948],[-73.960077,40.801996],[-73.960068,40.802014],[-73.959975,40.802058]]]},"properties":{"name":""}},{"type":"Feature","geometry":{"type":"Polygon","coordinates":[[[-73.92764,40.82785],[-73.927776,40.827632],[-73.927837,40.827643],[-73.927851,40.827614],[-73.928169,40.827612],[-73.928212,40.827626],[-73.927662,40.827874],[-73.92764,40.82785]]]},"properties":{"name":""}},{"type":"Feature","geometry":{"type":"Polygon","coordinates":[[[-73.979066,40.781837],[-73.978854,40.782127],[-73.978582,40.782012],[-73.978794,40.781722],[-73.979066,40.781837]]]},"properties":{"name":""}},{"type":"Feature","geometry":{"type":"Polygon","coordinates":[[[-73.956569,40.788008],[-73.956504,40.787998],[-73.956473,40.787983],[-73.956429,40.787935],[-73.956417,40.787891],[-73.956418,40.787776],[-73.956429,40.787716],[-73.956492,40.787553],[-73.956538,40.787486],[-73.956605,40.787452],[-73.956691,40.787451],[-73.956718,40.787458],[-73.956768,40.78749],[-73.956799,40.787539],[-73.956788,40.787742],[-73.956756,40.787849],[-73.956703,40.787953],[-73.956626,40.788001],[-73.956569,40.788008]]]},"properties":{"name":"Margaret L. Kempner Playground"}},{"type":"Feature","geometry":{"type":"Polygon","coordinates":[[[-73.96275,40.793591],[-73.962824,40.793615],[-73.962874,40.793649],[-73.962912,40.793702],[-73.962917,40.793756],[-73.962901,40.793785],[-73.962696,40.793971],[-73.962629,40.793985],[-73.962553,40.793965],[-73.962472,40.793906],[-73.96238,40.793804],[-73.962364,40.793758],[-73.962355,40.793652],[-73.962388,40.793604],[-73.962465,40.793577],[-73.962553,40.793572],[-73.96275,40.793591]]]},"properties":{"name":"Tarr Family Playground"}},{"type":"Feature","geometry":{"type":"Polygon","coordinates":[[[-73.943699,40.806049],[-73.943246,40.805857],[-73.943333,40.80574],[-73.943785,40.805932],[-73.943699,40.806049]]]},"properties":{"name":""}},{"type":"Feature","geometry":{"type":"Polygon","coordinates":[[[-73.942399,40.805497],[-73.941855,40.805263],[-73.9419,40.805201],[-73.941953,40.805189],[-73.942475,40.805396],[-73.942399,40.805497]]]},"properties":{"name":""}},{"type":"Feature","geometry":{"type":"Polygon","coordinates":[[[-73.937976,40.815796],[-73.937895,40.815762],[-73.937372,40.815541],[-73.937542,40.815311],[-73.938146,40.815566],[-73.937976,40.815796]]]},"properties":{"name":"McCray Playground"}},{"type":"Feature","geometry":{"type":"Polygon","coordinates":[[[-73.938815,40.817318],[-73.93919,40.816818],[-73.939626,40.817005],[-73.939251,40.817505],[-73.938815,40.817318]]]},"properties":{"name":"Fred Samuel Playground"}},{"type":"Feature","geometry":{"type":"Polygon","coordinates":[[[-73.940844,40.817341],[-73.940695,40.81728],[-73.940867,40.817038],[-73.940787,40.817005],[-73.940968,40.816757],[-73.941108,40.816819],[-73.940933,40.817059],[-73.941021,40.817096],[-73.940844,40.817341]]]},"properties":{"name":"Abyssinian Tot Lot"}},{"type":"Feature","geometry":{"type":"Polygon","coordinates":[[[-73.947046,40.812173],[-73.946794,40.812533],[-73.946216,40.812301],[-73.946468,40.811941],[-73.947046,40.812173]]]},"properties":{"name":"Langston Hughes Playground"}},{"type":"Feature","geometry":{"type":"Polygon","coordinates":[[[-73.947457,40.810857],[-73.947581,40.810907],[-73.947259,40.811359],[-73.947144,40.811313],[-73.946927,40.811618],[-73.946759,40.81155],[-73.94751,40.810493],[-73.94767,40.810558],[-73.947457,40.810857]]]},"properties":{"name":"St. Nicholas Playground South"}},{"type":"Feature","geometry":{"type":"Polygon","coordinates":[[[-73.95153,40.806902],[-73.951842,40.806475],[-73.951181,40.806197],[-73.951039,40.806391],[-73.950944,40.806349],[-73.951139,40.806084],[-73.952081,40.806471],[-73.951705,40.806977],[-73.95153,40.806902]]]},"properties":{"name":"P.S. 76"}},{"type":"Feature","geometry":{"type":"Polygon","coordinates":[[[-73.955966,40.801888],[-73.956006,40.801833],[-73.955273,40.801535],[-73.955368,40.8014],[-73.955723,40.801548],[-73.955844,40.801381],[-73.956314,40.801577],[-73.956146,40.801808],[-73.956177,40.801821],[-73.95609,40.80194],[-73.955966,40.801888]]]},"properties":{"name":""}},{"type":"Feature","geometry":{"type":"Polygon","coordinates":[[[-73.948687,40.80298],[-73.948419,40.802868],[-73.948639,40.802566],[-73.948907,40.802678],[-73.948687,40.80298]]]},"properties":{"name":""}},{"type":"Feature","geometry":{"type":"Polygon","coordinates":[[[-73.947615,40.802132],[-73.947684,40.80216],[-73.947562,40.802333],[-73.947914,40.802476],[-73.94769,40.802793],[-73.947267,40.802622],[-73.947615,40.802132]]]},"properties":{"name":""}},{"type":"Feature","geometry":{"type":"Polygon","coordinates":[[[-73.946524,40.802486],[-73.946361,40.802707],[-73.946123,40.802607],[-73.946287,40.802386],[-73.946524,40.802486]]]},"properties":{"name":"Milbank"}},{"type":"Feature","geometry":{"type":"Polygon","coordinates":[[[-73.956129,40.807763],[-73.95635,40.807457],[-73.956585,40.807557],[-73.956365,40.807862],[-73.956129,40.807763]]]},"properties":{"name":""}},{"type":"Feature","geometry":{"type":"Polygon","coordinates":[[[-73.949756,40.810551],[-73.949543,40.810837],[-73.948725,40.81049],[-73.948937,40.810203],[-73.949756,40.810551]]]},"properties":{"name":""}},{"type":"Feature","geometry":{"type":"Polygon","coordinates":[[[-73.975017,40.795857],[-73.974576,40.795674],[-73.974742,40.795434],[-73.975308,40.795677],[-73.975017,40.795857]]]},"properties":{"name":"PS75 Playground"}},{"type":"Feature","geometry":{"type":"Polygon","coordinates":[[[-73.942245,40.831731],[-73.942082,40.831953],[-73.941325,40.831636],[-73.941407,40.83138],[-73.942245,40.831731]]]},"properties":{"name":"Orville And Wilbur Playground"}},{"type":"Feature","geometry":{"type":"Polygon","coordinates":[[[-73.961815,40.780693],[-73.96217,40.781099],[-73.962092,40.781123],[-73.96145,40.780865],[-73.961364,40.780752],[-73.961364,40.780699],[-73.961423,40.78057],[-73.961542,40.780475],[-73.961815,40.780693]]]},"properties":{"name":"Ancient Playground"}},{"type":"Feature","geometry":{"type":"Polygon","coordinates":[[[-73.968523,40.784716],[-73.968416,40.784717],[-73.968286,40.784698],[-73.968134,40.784641],[-73.968079,40.784592],[-73.968026,40.784529],[-73.968017,40.784473],[-73.968036,40.784409],[-73.968073,40.784356],[-73.968111,40.784327],[-73.968203,40.784302],[-73.968377,40.784307],[-73.968502,40.784335],[-73.968664,40.784399],[-73.968758,40.784456],[-73.968803,40.784508],[-73.968809,40.784584],[-73.96877,40.784638],[-73.968718,40.784675],[-73.968654,40.784697],[-73.968523,40.784716]]]},"properties":{"name":"Abraham and Joseph Spector Playground"}},{"type":"Feature","geometry":{"type":"Polygon","coordinates":[[[-73.973565,40.788873],[-73.97339,40.789113],[-73.973206,40.789035],[-73.973381,40.788795],[-73.973565,40.788873]]]},"properties":{"name":""}},{"type":"Feature","geometry":{"type":"Polygon","coordinates":[[[-73.923403,40.834387],[-73.923538,40.834172],[-73.923648,40.834212],[-73.92371,40.834354],[-73.923637,40.834471],[-73.923403,40.834387]]]},"properties":{"name":""}},{"type":"Feature","geometry":{"type":"Polygon","coordinates":[[[-73.922955,40.83421],[-73.923033,40.834091],[-73.92324,40.834031],[-73.92335,40.834072],[-73.9232,40.834302],[-73.922955,40.83421]]]},"properties":{"name":""}},{"type":"Feature","geometry":{"type":"Polygon","coordinates":[[[-73.925591,40.831302],[-73.925627,40.831344],[-73.925623,40.831397],[-73.925591,40.831437],[-73.925514,40.831459],[-73.925422,40.831436],[-73.925349,40.831471],[-73.925303,40.831464],[-73.925257,40.83145],[-73.925209,40.831405],[-73.925207,40.831373],[-73.925217,40.831344],[-73.925284,40.83129],[-73.925331,40.831216],[-73.925591,40.831302]]]},"properties":{"name":""}},{"type":"Feature","geometry":{"type":"Polygon","coordinates":[[[-73.967405,40.783424],[-73.967345,40.783421],[-73.967314,40.7834],[-73.967244,40.78325],[-73.967123,40.783084],[-73.967114,40.783054],[-73.96713,40.783031],[-73.967154,40.783019],[-73.967191,40.78302],[-73.967248,40.783046],[-73.967371,40.783185],[-73.967426,40.78327],[-73.967456,40.783334],[-73.967454,40.783378],[-73.967432,40.783407],[-73.967405,40.783424]]]},"properties":{"name":"Pinetum Playground"}},{"type":"Feature","geometry":{"type":"Polygon","coordinates":[[[-74.01749,40.766563],[-74.017527,40.766603],[-74.017539,40.766649],[-74.017477,40.76676],[-74.01734,40.766745],[-74.017265,40.766714],[-74.017402,40.766523],[-74.01749,40.766563]]]},"properties":{"name":""}},{"type":"Feature","geometry":{"type":"Polygon","coordinates":[[[-74.008436,40.780935],[-74.008269,40.780856],[-74.008405,40.78069],[-74.008572,40.780768],[-74.008436,40.780935]]]},"properties":{"name":""}},{"type":"Feature","geometry":{"type":"Polygon","coordinates":[[[-73.968017,40.77194],[-73.967981,40.77199],[-73.968037,40.772078],[-73.967921,40.772226],[-73.96781,40.772223],[-73.967801,40.772236],[-73.967816,40.772256],[-73.967741,40.772353],[-73.967716,40.772352],[-73.9677,40.772368],[-73.967621,40.77237],[-73.967581,40.77231],[-73.967594,40.772293],[-73.96756,40.772238],[-73.967611,40.772178],[-73.967591,40.772139],[-73.967694,40.77201],[-73.96774,40.772011],[-73.96779,40.771949],[-73.967774,40.771931],[-73.967836,40.771853],[-73.967964,40.771853],[-73.968017,40.77194]]]},"properties":{"name":"East 72nd Street Playground"}},{"type":"Feature","geometry":{"type":"Polygon","coordinates":[[[-73.947922,40.839917],[-73.947878,40.839816],[-73.948083,40.839765],[-73.948127,40.839866],[-73.947922,40.839917]]]},"properties":{"name":"Swingsets"}},{"type":"Feature","geometry":{"type":"Polygon","coordinates":[[[-73.947779,40.840008],[-73.947685,40.839961],[-73.947791,40.83984],[-73.947884,40.839887],[-73.947779,40.840008]]]},"properties":{"name":"Kids Water Park Area"}},{"type":"Feature","geometry":{"type":"Polygon","coordinates":[[[-73.947833,40.840086],[-73.947753,40.84018],[-73.947761,40.840321],[-73.947633,40.840571],[-73.94731,40.840438],[-73.947593,40.83997],[-73.947833,40.840086]]]},"properties":{"name":"Discovery Playground"}},{"type":"Feature","geometry":{"type":"Polygon","coordinates":[[[-73.966971,40.794526],[-73.967148,40.794284],[-73.967234,40.79432],[-73.967057,40.794562],[-73.966971,40.794526]]]},"properties":{"name":""}},{"type":"Feature","geometry":{"type":"Polygon","coordinates":[[[-73.964221,40.7918],[-73.964166,40.791801],[-73.96409,40.791903],[-73.964168,40.791928],[-73.964117,40.792008],[-73.964077,40.792035],[-73.963942,40.792053],[-73.963878,40.79205],[-73.963837,40.792034],[-73.963725,40.791944],[-73.96372,40.791861],[-73.963746,40.791786],[-73.96378,40.791744],[-73.963837,40.791706],[-73.963984,40.791686],[-73.964185,40.791708],[-73.964275,40.791754],[-73.964302,40.791796],[-73.964261,40.791829],[-73.964221,40.7918]]]},"properties":{"name":"Rudin Family Playground"}},{"type":"Feature","geometry":{"type":"Polygon","coordinates":[[[-73.970244,40.832402],[-73.97015,40.832339],[-73.970073,40.83223],[-73.970052,40.83217],[-73.970043,40.832106],[-73.97009,40.83209],[-73.970145,40.832052],[-73.970175,40.831998],[-73.970162,40.831943],[-73.970116,40.8319],[-73.970199,40.831832],[-73.970309,40.831786],[-73.970497,40.831759],[-73.970617,40.831783],[-73.970649,40.831807],[-73.970636,40.831839],[-73.970467,40.831925],[-73.970358,40.832034],[-73.970319,40.832121],[-73.970305,40.832211],[-73.970348,40.832394],[-73.970319,40.83242],[-73.970244,40.832402]]]},"properties":{"name":""}},{"type":"Feature","geometry":{"type":"Polygon","coordinates":[[[-73.949258,40.806112],[-73.949155,40.806253],[-73.948756,40.806084],[-73.948859,40.805943],[-73.949258,40.806112]]]},"properties":{"name":""}},{"type":"Feature","geometry":{"type":"Polygon","coordinates":[[[-73.969987,40.769326],[-73.970183,40.769418],[-73.970192,40.769537],[-73.970071,40.769617],[-73.969866,40.769559],[-73.969686,40.76955],[-73.96963,40.769402],[-73.96985,40.769316],[-73.969987,40.769326]]]},"properties":{"name":"Billy Johnson Playground"}},{"type":"Feature","geometry":{"type":"Polygon","coordinates":[[[-73.965318,40.775985],[-73.965113,40.776036],[-73.965055,40.776031],[-73.965005,40.776011],[-73.964965,40.775975],[-73.964946,40.775915],[-73.964959,40.775822],[-73.965022,40.775707],[-73.965116,40.775629],[-73.965197,40.775591],[-73.965268,40.775583],[-73.965335,40.775593],[-73.965392,40.775618],[-73.965425,40.775675],[-73.965435,40.775824],[-73.965389,40.775912],[-73.965318,40.775985]]]},"properties":{"name":"James Michael Levin Playground"}},{"type":"Feature","geometry":{"type":"Polygon","coordinates":[[[-73.963826,40.777567],[-73.96388,40.77756],[-73.963907,40.777567],[-73.963926,40.777579],[-73.963931,40.777602],[-73.963919,40.777624],[-73.96395,40.777644],[-73.964026,40.777621],[-73.964068,40.777625],[-73.964099,40.777639],[-73.964122,40.777666],[-73.964117,40.777705],[-73.964103,40.777721],[-73.964122,40.777733],[-73.964149,40.777721],[-73.964186,40.777722],[-73.964214,40.777736],[-73.96422,40.777758],[-73.964213,40.777783],[-73.964172,40.777822],[-73.964135,40.777828],[-73.964103,40.777814],[-73.964092,40.777778],[-73.9641,40.77775],[-73.964077,40.777735],[-73.964038,40.77775],[-73.963986,40.77775],[-73.963951,40.777741],[-73.963924,40.777724],[-73.963911,40.777703],[-73.963913,40.777682],[-73.963929,40.777663],[-73.963898,40.777639],[-73.963854,40.777649],[-73.963827,40.777644],[-73.963794,40.777616],[-73.963793,40.777594],[-73.963826,40.777567]]]},"properties":{"name":"Ruth and Arthur Smadbeck-Heckscher East Playground"}},{"type":"Feature","geometry":{"type":"Polygon","coordinates":[[[-73.976883,40.773322],[-73.976891,40.773288],[-73.976912,40.773257],[-73.976987,40.773219],[-73.977032,40.773215],[-73.977116,40.773241],[-73.977146,40.773268],[-73.977163,40.773302],[-73.977164,40.773338],[-73.977149,40.773372],[-73.97712,40.773401],[-73.97708,40.77342],[-73.977034,40.773429],[-73.976946,40.773411],[-73.976912,40.773387],[-73.976891,40.773356],[-73.976883,40.773322]]]},"properties":{"name":"Tarr-Coyne Tots Playground"}},{"type":"Feature","geometry":{"type":"Polygon","coordinates":[[[-73.965328,40.789619],[-73.96537,40.789605],[-73.965367,40.789571],[-73.965403,40.789543],[-73.965501,40.789507],[-73.965535,40.789539],[-73.96565,40.789547],[-73.96572,40.789586],[-73.965727,40.789599],[-73.965703,40.789647],[-73.965703,40.789664],[-73.965768,40.78973],[-73.965771,40.789778],[-73.965754,40.789803],[-73.965636,40.789875],[-73.965591,40.789936],[-73.965561,40.790012],[-73.965536,40.79003],[-73.965474,40.790034],[-73.965446,40.790025],[-73.965381,40.789979],[-73.96532,40.789983],[-73.965259,40.789971],[-73.965235,40.789958],[-73.965206,40.789924],[-73.965213,40.78982],[-73.965173,40.789759],[-73.965166,40.789729],[-73.965176,40.7897],[-73.965299,40.789648],[-73.965328,40.789619]]]},"properties":{"name":"Tarr-Coyne Wild West Playground"}},{"type":"Feature","geometry":{"type":"Polygon","coordinates":[[[-73.954409,40.790067],[-73.954543,40.790129],[-73.954524,40.79042],[-73.954387,40.790557],[-73.954149,40.790465],[-73.954409,40.790067]]]},"properties":{"name":"Robert Bendheim Playground"}},{"type":"Feature","geometry":{"type":"Polygon","coordinates":[[[-73.957212,40.799923],[-73.957172,40.799887],[-73.957161,40.799846],[-73.957116,40.799864],[-73.957074,40.799862],[-73.957036,40.799843],[-73.957016,40.799799],[-73.956935,40.799828],[-73.956848,40.799814],[-73.956822,40.799799],[-73.956786,40.799758],[-73.956778,40.799725],[-73.956783,40.799692],[-73.956816,40.799649],[-73.956858,40.799626],[-73.956897,40.799617],[-73.956972,40.799624],[-73.957002,40.799636],[-73.957043,40.799672],[-73.957058,40.799706],[-73.957053,40.799753],[-73.95708,40.799741],[-73.957134,40.799745],[-73.957171,40.79977],[-73.957181,40.799799],[-73.95722,40.79977],[-73.957251,40.799759],[-73.957308,40.799759],[-73.957367,40.799784],[-73.957401,40.799834],[-73.957439,40.799824],[-73.957473,40.79983],[-73.957497,40.799844],[-73.957512,40.79987],[-73.957499,40.79991],[-73.957445,40.799932],[-73.957407,40.799925],[-73.957379,40.799903],[-73.957321,40.799935],[-73.95726,40.799938],[-73.957212,40.799923]]]},"properties":{"name":"West 110th Street Playground"}},{"type":"Feature","geometry":{"type":"Polygon","coordinates":[[[-73.970736,40.782089],[-73.970822,40.782063],[-73.970887,40.782058],[-73.97098,40.78207],[-73.971069,40.782107],[-73.971139,40.782174],[-73.971169,40.782246],[-73.971167,40.782311],[-73.971133,40.782384],[-73.971044,40.782455],[-73.970951,40.782485],[-73.970876,40.78249],[-73.970785,40.782477],[-73.970717,40.782449],[-73.970649,40.782397],[-73.970608,40.78233],[-73.970599,40.782265],[-73.97062,40.782192],[-73.970672,40.78213],[-73.970736,40.782089]]]},"properties":{"name":"Diana Ross Playground"}},{"type":"Feature","geometry":{"type":"Polygon","coordinates":[[[-73.96834,40.789747],[-73.968671,40.789285],[-73.969242,40.789519],[-73.968912,40.789981],[-73.96834,40.789747]]]},"properties":{"name":""}},{"type":"Feature","geometry":{"type":"Polygon","coordinates":[[[-73.96676,40.794953],[-73.966814,40.794875],[-73.966965,40.794934],[-73.966904,40.795014],[-73.96676,40.794953]]]},"properties":{"name":""}},{"type":"Feature","geometry":{"type":"Polygon","coordinates":[[[-74.009469,40.790875],[-74.009379,40.790987],[-74.00909,40.79085],[-74.009175,40.79074],[-74.009469,40.790875]]]},"properties":{"name":""}},{"type":"Feature","geometry":{"type":"Polygon","coordinates":[[[-74.014553,40.776101],[-74.014524,40.775969],[-74.014596,40.77592],[-74.014658,40.775904],[-74.014761,40.775899],[-74.014816,40.775921],[-74.014839,40.775951],[-74.014701,40.776149],[-74.014553,40.776101]]]},"properties":{"name":""}},{"type":"Feature","geometry":{"type":"Polygon","coordinates":[[[-74.014443,40.776228],[-74.014463,40.77613],[-74.014513,40.776127],[-74.014679,40.776188],[-74.014814,40.776249],[-74.01473,40.776354],[-74.014443,40.776228]]]},"properties":{"name":""}},{"type":"Feature","geometry":{"type":"Polygon","coordinates":[[[-73.984717,40.783546],[-73.984802,40.783545],[-73.984842,40.783527],[-73.984916,40.783433],[-73.98505,40.783489],[-73.984943,40.783635],[-73.984844,40.783592],[-73.984819,40.783618],[-73.98484,40.783656],[-73.984836,40.783683],[-73.984817,40.783704],[-73.984771,40.783724],[-73.98472,40.783722],[-73.984676,40.783766],[-73.984645,40.783785],[-73.984596,40.783793],[-73.984504,40.783781],[-73.984399,40.783719],[-73.984626,40.783496],[-73.984717,40.783546]]]},"properties":{"name":"(Neufeld Playground) Children's Play Area"}},{"type":"Feature","geometry":{"type":"Polygon","coordinates":[[[-73.998669,40.790951],[-73.998614,40.791023],[-73.998581,40.79104],[-73.998555,40.791038],[-73.998506,40.790992],[-73.998512,40.790965],[-73.998599,40.790891],[-73.998623,40.790905],[-73.998667,40.790912],[-73.998669,40.790951]]]},"properties":{"name":""}},{"type":"Feature","geometry":{"type":"Polygon","coordinates":[[[-73.977543,40.773056],[-73.977618,40.773048],[-73.977682,40.773068],[-73.977718,40.773094],[-73.977736,40.773123],[-73.977753,40.773173],[-73.977749,40.773202],[-73.977735,40.77323],[-73.977425,40.773597],[-73.977397,40.773616],[-73.977359,40.773627],[-73.977286,40.773619],[-73.977249,40.773597],[-73.977236,40.773575],[-73.977232,40.773527],[-73.977439,40.773128],[-73.977462,40.773096],[-73.977543,40.773056]]]},"properties":{"name":"Adventure Playground"}},{"type":"Feature","geometry":{"type":"Polygon","coordinates":[[[-74.011272,40.787942],[-74.011126,40.788142],[-74.010939,40.788064],[-74.011085,40.787864],[-74.011272,40.787942]]]},"properties":{"name":""}},{"type":"Feature","geometry":{"type":"Polygon","coordinates":[[[-73.96245,40.812904],[-73.962544,40.812763],[-73.96264,40.812799],[-73.962546,40.812941],[-73.96245,40.812904]]]},"properties":{"name":"(Sakura Park Playground) Children's Play Area"}},{"type":"Feature","geometry":{"type":"Polygon","coordinates":[[[-73.984394,40.7539],[-73.984424,40.753859],[-73.984462,40.753875],[-73.984432,40.753916],[-73.984394,40.7539]]]},"properties":{"name":""}},{"type":"Feature","geometry":{"type":"Polygon","coordinates":[[[-73.984439,40.753843],[-73.984474,40.753798],[-73.984492,40.7538],[-73.984502,40.753812],[-73.984467,40.753857],[-73.984454,40.753861],[-73.984439,40.753843]]]},"properties":{"name":""}},{"type":"Feature","geometry":{"type":"Polygon","coordinates":[[[-73.988442,40.771293],[-73.988492,40.771221],[-73.988598,40.771132],[-73.988646,40.771017],[-73.988788,40.771046],[-73.988778,40.771089],[-73.988739,40.771154],[-73.988703,40.771192],[-73.988655,40.771216],[-73.988586,40.771273],[-73.988531,40.771388],[-73.988416,40.77136],[-73.988442,40.771293]]]},"properties":{"name":"Gertrude Ederle Playground"}},{"type":"Feature","geometry":{"type":"Polygon","coordinates":[[[-74.010937,40.775641],[-74.010708,40.775534],[-74.01069,40.775515],[-74.010683,40.775486],[-74.01069,40.775463],[-74.010809,40.775293],[-74.010857,40.775312],[-74.010832,40.775347],[-74.01085,40.775354],[-74.010848,40.775465],[-74.010871,40.775517],[-74.010903,40.775561],[-74.010965,40.775603],[-74.010937,40.775641]]]},"properties":{"name":""}},{"type":"Feature","geometry":{"type":"Polygon","coordinates":[[[-73.990597,40.774017],[-73.990692,40.773883],[-73.990726,40.773897],[-73.990801,40.773797],[-73.990765,40.773781],[-73.990792,40.773742],[-73.990961,40.773815],[-73.990914,40.77388],[-73.990891,40.773869],[-73.990835,40.773944],[-73.990859,40.773955],[-73.990762,40.774087],[-73.990597,40.774017]]]},"properties":{"name":""}},{"type":"Feature","geometry":{"type":"Polygon","coordinates":[[[-73.987169,40.771441],[-73.987114,40.771419],[-73.987134,40.771389],[-73.987123,40.771386],[-73.987263,40.771192],[-73.987328,40.771219],[-73.987169,40.771441]]]},"properties":{"name":""}},{"type":"Feature","geometry":{"type":"Polygon","coordinates":[[[-73.979048,40.827146],[-73.979011,40.827159],[-73.978956,40.827158],[-73.978912,40.827131],[-73.97891,40.827113],[-73.978958,40.827059],[-73.979013,40.827059],[-73.979037,40.827068],[-73.97907,40.827101],[-73.979065,40.82713],[-73.979048,40.827146]]]},"properties":{"name":""}},{"type":"Feature","geometry":{"type":"Polygon","coordinates":[[[-73.978336,40.827424],[-73.978329,40.82738],[-73.978291,40.827366],[-73.978284,40.827323],[-73.978312,40.827298],[-73.978351,40.827293],[-73.978374,40.827308],[-73.978428,40.827302],[-73.978503,40.827352],[-73.978505,40.827374],[-73.978477,40.827391],[-73.978401,40.827398],[-73.978404,40.827417],[-73.978336,40.827424]]]},"properties":{"name":""}},{"type":"Feature","geometry":{"type":"Polygon","coordinates":[[[-73.978859,40.828063],[-73.978844,40.827982],[-73.978997,40.827965],[-73.979013,40.828046],[-73.978859,40.828063]]]},"properties":{"name":""}},{"type":"Feature","geometry":{"type":"Polygon","coordinates":[[[-73.96352,40.797198],[-73.963671,40.797256],[-73.963659,40.797274],[-73.96368,40.797282],[-73.963558,40.797464],[-73.963204,40.797322],[-73.96337,40.797073],[-73.963556,40.797144],[-73.96352,40.797198]]]},"properties":{"name":""}},{"type":"Feature","geometry":{"type":"Polygon","coordinates":[[[-73.964508,40.795727],[-73.964335,40.795653],[-73.964505,40.795423],[-73.964678,40.795496],[-73.964508,40.795727]]]},"properties":{"name":""}},{"type":"Feature","geometry":{"type":"Polygon","coordinates":[[[-73.9639,40.796431],[-73.963978,40.796324],[-73.964193,40.796413],[-73.964115,40.79652],[-73.9639,40.796431]]]},"properties":{"name":""}},{"type":"Feature","geometry":{"type":"Polygon","coordinates":[[[-73.964955,40.79686],[-73.965031,40.79675],[-73.965205,40.79682],[-73.965129,40.79693],[-73.964955,40.79686]]]},"properties":{"name":""}},{"type":"Feature","geometry":{"type":"Polygon","coordinates":[[[-73.965901,40.79596],[-73.965702,40.795877],[-73.965806,40.795735],[-73.966004,40.795818],[-73.965901,40.79596]]]},"properties":{"name":""}},{"type":"Feature","geometry":{"type":"Polygon","coordinates":[[[-73.96821,40.79673],[-73.96747,40.797737],[-73.966875,40.797489],[-73.967298,40.796908],[-73.967268,40.796896],[-73.967575,40.796464],[-73.96821,40.79673]]]},"properties":{"name":"Frederick Douglass Playground"}},{"type":"Feature","geometry":{"type":"Polygon","coordinates":[[[-73.958431,40.814146],[-73.958277,40.814029],[-73.958325,40.813852],[-73.958568,40.8138],[-73.958681,40.814094],[-73.958431,40.814146]]]},"properties":{"name":""}},{"type":"Feature","geometry":{"type":"Polygon","coordinates":[[[-73.959155,40.814028],[-73.958999,40.813968],[-73.958936,40.813836],[-73.959034,40.813692],[-73.959309,40.813804],[-73.959155,40.814028]]]},"properties":{"name":""}},{"type":"Feature","geometry":{"type":"Polygon","coordinates":[[[-73.957438,40.813234],[-73.95766,40.813186],[-73.957807,40.813575],[-73.957575,40.813623],[-73.957438,40.813234]]]},"properties":{"name":""}},{"type":"Feature","geometry":{"type":"Polygon","coordinates":[[[-73.954849,40.811444],[-73.954931,40.811402],[-73.955123,40.811425],[-73.955174,40.811543],[-73.9551,40.811677],[-73.955069,40.811688],[-73.954849,40.811444]]]},"properties":{"name":""}},{"type":"Feature","geometry":{"type":"Polygon","coordinates":[[[-73.957387,40.811493],[-73.957217,40.811402],[-73.957193,40.811315],[-73.957275,40.811177],[-73.957531,40.811287],[-73.957387,40.811493]]]},"properties":{"name":""}},{"type":"Feature","geometry":{"type":"Polygon","coordinates":[[[-73.956109,40.811731],[-73.956119,40.811761],[-73.955952,40.811796],[-73.955941,40.811766],[-73.955844,40.811786],[-73.955812,40.811716],[-73.955863,40.811618],[-73.9561,40.811566],[-73.95616,40.81172],[-73.956109,40.811731]]]},"properties":{"name":""}},{"type":"Feature","geometry":{"type":"Polygon","coordinates":[[[-73.956944,40.812097],[-73.956795,40.812031],[-73.956747,40.811976],[-73.956734,40.811898],[-73.956831,40.811758],[-73.957105,40.811878],[-73.956944,40.812097]]]},"properties":{"name":""}},{"type":"Feature","geometry":{"type":"Polygon","coordinates":[[[-73.994493,40.810848],[-73.994556,40.810758],[-73.994615,40.810782],[-73.994552,40.810872],[-73.994493,40.810848]]]},"properties":{"name":""}},{"type":"Feature","geometry":{"type":"Polygon","coordinates":[[[-73.937342,40.811601],[-73.937303,40.811496],[-73.937331,40.811457],[-73.937494,40.811422],[-73.937529,40.811367],[-73.937484,40.811247],[-73.937503,40.811222],[-73.937646,40.811191],[-73.937745,40.811455],[-73.937702,40.811522],[-73.937342,40.811601]]]},"properties":{"name":""}},{"type":"Feature","geometry":{"type":"Polygon","coordinates":[[[-73.938216,40.810825],[-73.938142,40.810934],[-73.937994,40.810967],[-73.937926,40.81079],[-73.937798,40.810818],[-73.937886,40.810697],[-73.938216,40.810825]]]},"properties":{"name":""}},{"type":"Feature","geometry":{"type":"Polygon","coordinates":[[[-73.958344,40.812692],[-73.958501,40.812473],[-73.958726,40.812565],[-73.958569,40.812784],[-73.958344,40.812692]]]},"properties":{"name":""}},{"type":"Feature","geometry":{"type":"Polygon","coordinates":[[[-73.939459,40.819665],[-73.939615,40.819456],[-73.939852,40.819557],[-73.939695,40.819766],[-73.939459,40.819665]]]},"properties":{"name":""}},{"type":"Feature","geometry":{"type":"Polygon","coordinates":[[[-73.939033,40.820288],[-73.938905,40.820232],[-73.93906,40.820028],[-73.939189,40.820084],[-73.939033,40.820288]]]},"properties":{"name":""}},{"type":"Feature","geometry":{"type":"Polygon","coordinates":[[[-73.994775,40.768256],[-73.994695,40.768095],[-73.99473,40.768003],[-73.994812,40.767889],[-73.995164,40.768033],[-73.995173,40.768048],[-73.995137,40.7681],[-73.995152,40.768116],[-73.995157,40.768212],[-73.99515,40.768314],[-73.995124,40.768404],[-73.994775,40.768256]]]},"properties":{"name":"DeWitt Clinton Park Playground"}},{"type":"Feature","geometry":{"type":"Polygon","coordinates":[[[-73.957769,40.811041],[-73.95768,40.811006],[-73.957672,40.811017],[-73.957642,40.811006],[-73.957699,40.810926],[-73.957727,40.810937],[-73.957785,40.810854],[-73.957874,40.81089],[-73.957769,40.811041]]]},"properties":{"name":""}},{"type":"Feature","geometry":{"type":"Polygon","coordinates":[[[-73.950385,40.798686],[-73.95047,40.798575],[-73.950558,40.798613],[-73.950473,40.798725],[-73.950385,40.798686]]]},"properties":{"name":""}},{"type":"Feature","geometry":{"type":"Polygon","coordinates":[[[-73.956272,40.819434],[-73.956166,40.819574],[-73.956115,40.819587],[-73.956063,40.819564],[-73.956053,40.819528],[-73.956113,40.819447],[-73.956113,40.819424],[-73.956139,40.819393],[-73.956204,40.819383],[-73.956268,40.81941],[-73.956272,40.819434]]]},"properties":{"name":""}},{"type":"Feature","geometry":{"type":"Polygon","coordinates":[[[-73.988024,40.770835],[-73.988055,40.770779],[-73.988111,40.770801],[-73.988103,40.770812],[-73.988133,40.770824],[-73.988088,40.770888],[-73.987996,40.770861],[-73.988024,40.770835]]]},"properties":{"name":""}},{"type":"Feature","geometry":{"type":"Polygon","coordinates":[[[-73.978864,40.828219],[-73.978842,40.828091],[-73.978967,40.828078],[-73.978988,40.828207],[-73.978864,40.828219]]]},"properties":{"name":""}},{"type":"Feature","geometry":{"type":"Polygon","coordinates":[[[-73.97921,40.828036],[-73.979033,40.828053],[-73.97902,40.827978],[-73.979197,40.827962],[-73.97921,40.828036]]]},"properties":{"name":""}},{"type":"Feature","geometry":{"type":"Polygon","coordinates":[[[-73.936336,40.836688],[-73.936472,40.836393],[-73.936437,40.836364],[-73.936427,40.836334],[-73.936431,40.836301],[-73.936482,40.836256],[-73.936542,40.836248],[-73.9367,40.835898],[-73.936735,40.835853],[-73.936795,40.835826],[-73.936799,40.835847],[-73.936838,40.835873],[-73.936908,40.835954],[-73.936972,40.835901],[-73.937026,40.835888],[-73.93714,40.835923],[-73.936739,40.836789],[-73.936336,40.836688]]]},"properties":{"name":"Adventure Playground"}},{"type":"Feature","geometry":{"type":"Polygon","coordinates":[[[-73.98981,40.777699],[-73.989704,40.777678],[-73.989821,40.777488],[-73.989961,40.77733],[-73.990043,40.777379],[-73.98981,40.777699]]]},"properties":{"name":"Big River Playground"}},{"type":"Feature","geometry":{"type":"Polygon","coordinates":[[[-73.946711,40.820639],[-73.946688,40.820633],[-73.946725,40.82056],[-73.946863,40.8206],[-73.946832,40.820661],[-73.946857,40.820668],[-73.946814,40.820753],[-73.946674,40.820712],[-73.946711,40.820639]]]},"properties":{"name":"(Arlington \"Ollie\" Edinboro Playground) Children's Play Area"}},{"type":"Feature","geometry":{"type":"Polygon","coordinates":[[[-73.951024,40.82314],[-73.950932,40.823192],[-73.950839,40.823099],[-73.95093,40.823047],[-73.951024,40.82314]]]},"properties":{"name":""}},{"type":"Feature","geometry":{"type":"Polygon","coordinates":[[[-73.951206,40.823123],[-73.9513,40.823221],[-73.951233,40.823315],[-73.951018,40.823228],[-73.951206,40.823123]]]},"properties":{"name":""}},{"type":"Feature","geometry":{"type":"Polygon","coordinates":[[[-73.95128,40.823344],[-73.951371,40.823218],[-73.95151,40.823275],[-73.95142,40.823401],[-73.95128,40.823344]]]},"properties":{"name":""}},{"type":"Feature","geometry":{"type":"Polygon","coordinates":[[[-73.951525,40.822843],[-73.951442,40.822958],[-73.951371,40.822929],[-73.95125,40.822995],[-73.951173,40.822914],[-73.951398,40.822791],[-73.951525,40.822843]]]},"properties":{"name":""}},{"type":"Feature","geometry":{"type":"Polygon","coordinates":[[[-73.988881,40.778103],[-73.988811,40.778074],[-73.988937,40.777659],[-73.989188,40.777766],[-73.988881,40.778103]]]},"properties":{"name":"Little Engine Playground"}},{"type":"Feature","geometry":{"type":"Polygon","coordinates":[[[-73.939813,40.831649],[-73.939941,40.831433],[-73.940209,40.831479],[-73.94018,40.831626],[-73.940121,40.831751],[-73.939813,40.831649]]]},"properties":{"name":"Coogans Bluff Playground"}},{"type":"Feature","geometry":{"type":"Polygon","coordinates":[[[-73.945011,40.820665],[-73.945018,40.820654],[-73.944979,40.820639],[-73.945068,40.820512],[-73.945094,40.820523],[-73.945101,40.820514],[-73.945198,40.820553],[-73.945171,40.820591],[-73.945189,40.820598],[-73.945143,40.820664],[-73.945108,40.820649],[-73.945078,40.820692],[-73.945011,40.820665]]]},"properties":{"name":""}},{"type":"Feature","geometry":{"type":"Polygon","coordinates":[[[-73.991942,40.772826],[-73.991878,40.772728],[-73.991951,40.772695],[-73.991988,40.772699],[-73.992072,40.772661],[-73.992073,40.772563],[-73.992165,40.772564],[-73.992235,40.772601],[-73.992215,40.772618],[-73.99225,40.772669],[-73.992148,40.772847],[-73.992116,40.772847],[-73.992113,40.772821],[-73.991942,40.772826]]]},"properties":{"name":""}},{"type":"Feature","geometry":{"type":"Polygon","coordinates":[[[-74.019337,40.774059],[-74.019301,40.774193],[-74.018989,40.774135],[-74.019017,40.774003],[-74.019337,40.774059]]]},"properties":{"name":""}},{"type":"Feature","geometry":{"type":"Polygon","coordinates":[[[-73.976692,40.780615],[-73.976781,40.780486],[-73.976896,40.780532],[-73.976808,40.78066],[-73.976692,40.780615]]]},"properties":{"name":""}},{"type":"Feature","geometry":{"type":"Polygon","coordinates":[[[-73.986362,40.783208],[-73.986277,40.783237],[-73.986214,40.783281],[-73.986169,40.783342],[-73.986143,40.783399],[-73.986136,40.783451],[-73.986143,40.783502],[-73.986175,40.783584],[-73.986086,40.783609],[-73.986044,40.783519],[-73.986039,40.783458],[-73.986047,40.783389],[-73.986081,40.783306],[-73.986142,40.783235],[-73.986216,40.783182],[-73.986286,40.78315],[-73.986433,40.783122],[-73.986447,40.783194],[-73.986362,40.783208]]]},"properties":{"name":""}},{"type":"Feature","geometry":{"type":"Polygon","coordinates":[[[-73.982282,40.787341],[-73.98191,40.78725],[-73.981899,40.787158],[-73.981904,40.787081],[-73.98193,40.786999],[-73.981988,40.78689],[-73.982032,40.786829],[-73.982089,40.786777],[-73.982143,40.786747],[-73.982214,40.78673],[-73.982282,40.786729],[-73.98236,40.786742],[-73.982417,40.786763],[-73.982462,40.786803],[-73.982488,40.786846],[-73.982505,40.786933],[-73.982501,40.787013],[-73.982482,40.787097],[-73.982441,40.787186],[-73.982391,40.78725],[-73.982282,40.787341]]]},"properties":{"name":"(River Run Playground) Children's Play Area"}},{"type":"Feature","geometry":{"type":"Polygon","coordinates":[[[-73.989151,40.777399],[-73.989317,40.777155],[-73.989569,40.777214],[-73.989384,40.777521],[-73.989363,40.777521],[-73.989151,40.777399]]]},"properties":{"name":"Big River Playground"}},{"type":"Feature","geometry":{"type":"Polygon","coordinates":[[[-73.966381,40.788657],[-73.96629,40.788669],[-73.966224,40.788648],[-73.966201,40.788631],[-73.966182,40.78861],[-73.966175,40.788567],[-73.966191,40.788504],[-73.966233,40.788452],[-73.966322,40.788379],[-73.966471,40.788282],[-73.966524,40.788256],[-73.9666,40.78824],[-73.966659,40.788258],[-73.966688,40.788291],[-73.966693,40.788315],[-73.966686,40.788352],[-73.966658,40.788403],[-73.966608,40.788471],[-73.96653,40.788554],[-73.966453,40.788616],[-73.966381,40.788657]]]},"properties":{"name":"Safari Playground"}},{"type":"Feature","geometry":{"type":"Polygon","coordinates":[[[-73.969501,40.784104],[-73.969513,40.784012],[-73.969562,40.78388],[-73.969583,40.783839],[-73.969644,40.783789],[-73.969723,40.783767],[-73.969798,40.783774],[-73.969859,40.7838],[-73.969895,40.783844],[-73.969911,40.783884],[-73.969913,40.783914],[-73.969893,40.783979],[-73.969812,40.7841],[-73.969714,40.784203],[-73.969661,40.784228],[-73.969612,40.784236],[-73.969559,40.784224],[-73.969508,40.784174],[-73.969501,40.784104]]]},"properties":{"name":"Toll Family Playground"}},{"type":"Feature","geometry":{"type":"Polygon","coordinates":[[[-73.98866,40.770263],[-73.98872,40.770182],[-73.988825,40.770226],[-73.98884,40.770206],[-73.988882,40.770225],[-73.988807,40.770323],[-73.98866,40.770263]]]},"properties":{"name":""}},{"type":"Feature","geometry":{"type":"Polygon","coordinates":[[[-73.970767,40.801923],[-73.971027,40.801565],[-73.971118,40.801603],[-73.970858,40.801961],[-73.970767,40.801923]]]},"properties":{"name":"(105th Street Tot Lot) Children's Play Area"}},{"type":"Feature","geometry":{"type":"Polygon","coordinates":[[[-73.994799,40.771931],[-73.994931,40.771749],[-73.995271,40.771891],[-73.995139,40.772072],[-73.994799,40.771931]]]},"properties":{"name":""}},{"type":"Feature","geometry":{"type":"Polygon","coordinates":[[[-73.978296,40.793276],[-73.978171,40.793339],[-73.977934,40.793248],[-73.977917,40.793198],[-73.977936,40.793102],[-73.977976,40.792993],[-73.978117,40.792861],[-73.978247,40.792793],[-73.978364,40.792786],[-73.978436,40.792815],[-73.978477,40.792849],[-73.978501,40.792935],[-73.978486,40.793035],[-73.978463,40.79309],[-73.97837,40.793217],[-73.978296,40.793276]]]},"properties":{"name":"Hippo Playground"}},{"type":"Feature","geometry":{"type":"Polygon","coordinates":[[[-73.974873,40.79745],[-73.974809,40.797492],[-73.974718,40.797497],[-73.974681,40.797483],[-73.97463,40.797434],[-73.974607,40.797379],[-73.974631,40.797313],[-73.974715,40.79715],[-73.974685,40.797137],[-73.974733,40.797043],[-73.974692,40.797054],[-73.974648,40.79705],[-73.974639,40.797032],[-73.97469,40.796949],[-73.974696,40.796853],[-73.974771,40.796733],[-73.974897,40.79664],[-73.974997,40.79661],[-73.975117,40.796633],[-73.97532,40.796699],[-73.975352,40.796748],[-73.975355,40.796787],[-73.975345,40.796812],[-73.975171,40.797016],[-73.975129,40.79703],[-73.974873,40.79745]]]},"properties":{"name":"(Dinosaur Playground) Children's Play Area"}},{"type":"Feature","geometry":{"type":"Polygon","coordinates":[[[-73.935773,40.838087],[-73.935911,40.837914],[-73.936117,40.838008],[-73.935964,40.838183],[-73.935773,40.838087]]]},"properties":{"name":"Sunken Playground"}},{"type":"Feature","geometry":{"type":"Polygon","coordinates":[[[-73.960754,40.803304],[-73.960737,40.803295],[-73.960874,40.803038],[-73.960896,40.803046],[-73.960923,40.803005],[-73.961169,40.803091],[-73.961096,40.803199],[-73.961025,40.803201],[-73.960999,40.803238],[-73.960965,40.803245],[-73.960913,40.803224],[-73.960857,40.803249],[-73.960859,40.803291],[-73.96084,40.803318],[-73.960782,40.803294],[-73.960754,40.803304]]]},"properties":{"name":""}},{"type":"Feature","geometry":{"type":"Polygon","coordinates":[[[-73.962545,40.80385],[-73.962189,40.803705],[-73.96227,40.803594],[-73.962623,40.803745],[-73.962545,40.80385]]]},"properties":{"name":""}},{"type":"Feature","geometry":{"type":"Polygon","coordinates":[[[-73.954104,40.82551],[-73.953627,40.826017],[-73.953566,40.826003],[-73.953426,40.825938],[-73.953553,40.825775],[-73.953731,40.825598],[-73.954003,40.825453],[-73.954104,40.82551]]]},"properties":{"name":"(Riverbank Playground) Children's Play Area"}},{"type":"Feature","geometry":{"type":"Polygon","coordinates":[[[-73.958455,40.806066],[-73.958411,40.80613],[-73.958415,40.8062],[-73.958389,40.806241],[-73.958333,40.806286],[-73.958269,40.806314],[-73.95821,40.806323],[-73.958162,40.806314],[-73.95812,40.806283],[-73.958104,40.806238],[-73.958115,40.806169],[-73.958139,40.80612],[-73.958179,40.806069],[-73.958265,40.806017],[-73.958251,40.805994],[-73.958248,40.80597],[-73.958281,40.805935],[-73.958343,40.805926],[-73.958416,40.805968],[-73.95846,40.806035],[-73.958455,40.806066]]]},"properties":{"name":""}},{"type":"Feature","geometry":{"type":"Polygon","coordinates":[[[-73.946,40.839059],[-73.945957,40.83905],[-73.945901,40.839018],[-73.945889,40.838998],[-73.94589,40.838957],[-73.946115,40.838642],[-73.946392,40.838516],[-73.946416,40.838511],[-73.946459,40.838522],[-73.946471,40.838538],[-73.946463,40.838577],[-73.946346,40.83874],[-73.946189,40.839018],[-73.946107,40.839047],[-73.946,40.839059]]]},"properties":{"name":"Lily Brown Playground"}},{"type":"Feature","geometry":{"type":"Polygon","coordinates":[[[-73.970893,40.797534],[-73.970974,40.797421],[-73.971053,40.797453],[-73.970973,40.797568],[-73.970893,40.797534]]]},"properties":{"name":""}},{"type":"Feature","geometry":{"type":"Polygon","coordinates":[[[-73.953689,40.812519],[-73.953863,40.812278],[-73.953989,40.812333],[-73.954011,40.812361],[-73.953847,40.812586],[-73.953689,40.812519]]]},"properties":{"name":""}},{"type":"Feature","geometry":{"type":"Polygon","coordinates":[[[-73.989035,40.814975],[-73.989048,40.814949],[-73.989168,40.81491],[-73.989169,40.814863],[-73.989121,40.814824],[-73.989193,40.814769],[-73.989277,40.814825],[-73.989242,40.814871],[-73.989258,40.814932],[-73.989265,40.81502],[-73.989197,40.81508],[-73.989157,40.815085],[-73.989039,40.815009],[-73.989035,40.814975]]]},"properties":{"name":""}},{"type":"Feature","geometry":{"type":"Polygon","coordinates":[[[-73.989376,40.765669],[-73.989405,40.765685],[-73.989335,40.765783],[-73.989177,40.765717],[-73.989401,40.76541],[-73.989525,40.765462],[-73.989376,40.765669]]]},"properties":{"name":""}},{"type":"Feature","geometry":{"type":"Polygon","coordinates":[[[-74.01113,40.774882],[-74.011132,40.774859],[-74.011095,40.774851],[-74.011078,40.774808],[-74.01107,40.774751],[-74.011073,40.774695],[-74.01111,40.774605],[-74.011184,40.774608],[-74.011197,40.774657],[-74.011192,40.774749],[-74.011162,40.774748],[-74.011162,40.774763],[-74.011144,40.774786],[-74.011153,40.774797],[-74.011191,40.774802],[-74.011178,40.774857],[-74.011187,40.77486],[-74.011186,40.774872],[-74.011157,40.774887],[-74.01113,40.774882]]]},"properties":{"name":""}},{"type":"Feature","geometry":{"type":"Polygon","coordinates":[[[-73.950727,40.829026],[-73.950677,40.8291],[-73.950644,40.829112],[-73.950614,40.829111],[-73.950564,40.829091],[-73.950545,40.82905],[-73.950544,40.829027],[-73.950592,40.828966],[-73.950617,40.82897],[-73.950623,40.828958],[-73.950637,40.828963],[-73.950666,40.828952],[-73.950721,40.828977],[-73.950734,40.828993],[-73.950727,40.829026]]]},"properties":{"name":"(Palisades Playground) Children's Play Area"}},{"type":"Feature","geometry":{"type":"Polygon","coordinates":[[[-73.97164,40.7901],[-73.971592,40.790165],[-73.971271,40.790028],[-73.971377,40.789882],[-73.971353,40.789872],[-73.971498,40.789668],[-73.971899,40.789835],[-73.971689,40.790119],[-73.97164,40.7901]]]},"properties":{"name":""}},{"type":"Feature","geometry":{"type":"Polygon","coordinates":[[[-73.961871,40.81527],[-73.962122,40.814663],[-73.962265,40.814671],[-73.962205,40.814823],[-73.962316,40.814848],[-73.962145,40.815269],[-73.962052,40.81525],[-73.962033,40.815305],[-73.961871,40.81527]]]},"properties":{"name":"(Claremount (Dolphin) Playground) Children's Play Area"}},{"type":"Feature","geometry":{"type":"Polygon","coordinates":[[[-73.962465,40.793908],[-73.962411,40.793858],[-73.962351,40.793772],[-73.962336,40.793635],[-73.96234,40.793596],[-73.962369,40.793571],[-73.962458,40.793545],[-73.962565,40.793543],[-73.962642,40.793551],[-73.962824,40.793611],[-73.962894,40.793651],[-73.962928,40.793694],[-73.962928,40.793717],[-73.962908,40.793768],[-73.962847,40.793832],[-73.962728,40.79393],[-73.962652,40.793975],[-73.96263,40.793985],[-73.962551,40.793967],[-73.962465,40.793908]]]},"properties":{"name":"Tarr Family Playground"}},{"type":"Feature","geometry":{"type":"Polygon","coordinates":[[[-73.968464,40.805322],[-73.968659,40.804973],[-73.968788,40.805019],[-73.968587,40.80536],[-73.968464,40.805322]]]},"properties":{"name":"(110th Street Tot Lot) Children's Play Area"}},{"type":"Feature","geometry":{"type":"Polygon","coordinates":[[[-73.967831,40.806518],[-73.968045,40.806126],[-73.968144,40.806156],[-73.967951,40.80654],[-73.967943,40.806546],[-73.967831,40.806518]]]},"properties":{"name":"(112th Street Tot Lot) Children's Play Area"}},{"type":"Feature","geometry":{"type":"Polygon","coordinates":[[[-73.9503,40.795972],[-73.950259,40.795988],[-73.950223,40.795984],[-73.950192,40.795954],[-73.950186,40.795927],[-73.950193,40.795906],[-73.950211,40.795889],[-73.950259,40.795877],[-73.950285,40.795853],[-73.950277,40.795826],[-73.950282,40.795788],[-73.950315,40.795724],[-73.950362,40.795689],[-73.950414,40.795678],[-73.950435,40.795652],[-73.950427,40.795608],[-73.950463,40.795542],[-73.950517,40.795513],[-73.950565,40.795517],[-73.950591,40.795558],[-73.950572,40.795606],[-73.950548,40.795637],[-73.950478,40.79568],[-73.95047,40.79577],[-73.950438,40.795825],[-73.95031,40.795899],[-73.9503,40.795972]]]},"properties":{"name":"Bernard Family Playground"}},{"type":"Feature","geometry":{"type":"Polygon","coordinates":[[[-73.965013,40.810162],[-73.965191,40.809922],[-73.965339,40.809999],[-73.965177,40.810221],[-73.965013,40.810162]]]},"properties":{"name":"(117th St. Playground) Children's Play Area"}},{"type":"Feature","geometry":{"type":"Polygon","coordinates":[[[-73.951841,40.797649],[-73.951763,40.797614],[-73.95173,40.797585],[-73.951686,40.797624],[-73.951643,40.797638],[-73.951578,40.797628],[-73.951527,40.797597],[-73.951511,40.79755],[-73.951514,40.797512],[-73.951437,40.797513],[-73.951382,40.797489],[-73.951358,40.797434],[-73.951429,40.797375],[-73.951482,40.797366],[-73.951523,40.797382],[-73.95155,40.797413],[-73.951547,40.79746],[-73.951586,40.797446],[-73.951638,40.797444],[-73.951699,40.79746],[-73.951742,40.797494],[-73.951766,40.797539],[-73.951791,40.797502],[-73.951836,40.797487],[-73.951887,40.797489],[-73.951926,40.797519],[-73.951945,40.79756],[-73.951918,40.797612],[-73.951981,40.797605],[-73.952038,40.797627],[-73.952075,40.797655],[-73.952097,40.7977],[-73.952084,40.797761],[-73.952056,40.797754],[-73.952012,40.797788],[-73.951962,40.797801],[-73.951902,40.797789],[-73.951857,40.797761],[-73.951844,40.797722],[-73.951849,40.797681],[-73.95187,40.797649],[-73.951841,40.797649]]]},"properties":{"name":"East 110th Street Playground"}},{"type":"Feature","geometry":{"type":"Polygon","coordinates":[[[-73.949308,40.815132],[-73.949333,40.815184],[-73.949306,40.815255],[-73.949081,40.815722],[-73.948916,40.815678],[-73.949198,40.815088],[-73.949308,40.815132]]]},"properties":{"name":"(St. Nicholas Park Playground) Children's Play Area"}},{"type":"Feature","geometry":{"type":"Polygon","coordinates":[[[-73.950925,40.813868],[-73.950676,40.813763],[-73.950884,40.813461],[-73.951141,40.813555],[-73.950925,40.813868]]]},"properties":{"name":"(St. Nicholas Park Playground) Children's Play Area"}},{"type":"Feature","geometry":{"type":"Polygon","coordinates":[[[-73.938144,40.813456],[-73.938213,40.813371],[-73.93835,40.813424],[-73.938278,40.813516],[-73.938144,40.813456]]]},"properties":{"name":"Bennett Park Playground"}},{"type":"Feature","geometry":{"type":"Polygon","coordinates":[[[-73.95738,40.799901],[-73.957303,40.799935],[-73.957242,40.799932],[-73.957188,40.799905],[-73.95716,40.79985],[-73.957106,40.799865],[-73.957062,40.799854],[-73.95703,40.799832],[-73.957013,40.799799],[-73.956957,40.799825],[-73.95692,40.799831],[-73.956869,40.79982],[-73.956796,40.799774],[-73.956776,40.799744],[-73.95678,40.799682],[-73.956828,40.799637],[-73.956866,40.799621],[-73.956947,40.799616],[-73.957023,40.799653],[-73.957048,40.799686],[-73.957053,40.799753],[-73.957116,40.799738],[-73.957174,40.799768],[-73.957182,40.799796],[-73.957229,40.799765],[-73.957304,40.799758],[-73.95737,40.799787],[-73.957401,40.799833],[-73.957448,40.799823],[-73.957483,40.799834],[-73.957504,40.799855],[-73.957501,40.799907],[-73.957462,40.799928],[-73.95743,40.799928],[-73.95738,40.799901]]]},"properties":{"name":"West 110th Street Playground"}},{"type":"Feature","geometry":{"type":"Polygon","coordinates":[[[-73.939657,40.82844],[-73.939606,40.828449],[-73.939556,40.828445],[-73.939481,40.828406],[-73.939452,40.828373],[-73.939434,40.828325],[-73.939452,40.828275],[-73.939662,40.827972],[-73.939797,40.827797],[-73.939965,40.827854],[-73.939961,40.827889],[-73.939992,40.827897],[-73.940022,40.827938],[-73.940027,40.827976],[-73.94001,40.827999],[-73.940026,40.82801],[-73.939734,40.828407],[-73.939657,40.82844]]]},"properties":{"name":"Playground 152 CLII"}},{"type":"Feature","geometry":{"type":"Polygon","coordinates":[[[-73.951719,40.818635],[-73.951809,40.818514],[-73.951967,40.818583],[-73.951874,40.818703],[-73.951719,40.818635]]]},"properties":{"name":"Annunciation Playground"}},{"type":"Feature","geometry":{"type":"Polygon","coordinates":[[[-73.951883,40.829847],[-73.951976,40.829736],[-73.952078,40.829782],[-73.952092,40.829813],[-73.952033,40.829901],[-73.951883,40.829847]]]},"properties":{"name":"(Ten Mile River Playground) Children's Play Area"}},{"type":"Feature","geometry":{"type":"Polygon","coordinates":[[[-73.937372,40.825266],[-73.937296,40.82528],[-73.937193,40.825234],[-73.937273,40.825122],[-73.937349,40.825154],[-73.937356,40.825172],[-73.937408,40.825193],[-73.93738,40.825227],[-73.937387,40.825243],[-73.937372,40.825266]]]},"properties":{"name":""}},{"type":"Feature","geometry":{"type":"Polygon","coordinates":[[[-73.999882,40.760896],[-73.999679,40.760811],[-73.999745,40.760714],[-73.999951,40.760795],[-73.999882,40.760896]]]},"properties":{"name":"Tom Otterness Playground"}},{"type":"Feature","geometry":{"type":"Polygon","coordinates":[[[-73.939039,40.84099],[-73.938906,40.84093],[-73.938952,40.840863],[-73.939113,40.840928],[-73.939083,40.840969],[-73.939039,40.84099]]]},"properties":{"name":""}},{"type":"Feature","geometry":{"type":"Polygon","coordinates":[[[-73.947956,40.805725],[-73.947952,40.805731],[-73.94796,40.805735],[-73.947897,40.805827],[-73.947876,40.805819],[-73.947861,40.805841],[-73.947807,40.80582],[-73.947816,40.805807],[-73.947776,40.805792],[-73.947834,40.805689],[-73.947935,40.805728],[-73.947941,40.80572],[-73.947956,40.805725]]]},"properties":{"name":""}}]}