{"type":"FeatureCollection","features":[{"type":"Feature","geometry":{"type":"Point","coordinates":[-73.974426,40.7979084]},"properties":{"kind":"monument","name":"Carrere Memorial"}},{"type":"Feature","geometry":{"type":"Point","coordinates":[-73.9732326,40.7986199]},"properties":{"kind":"monument","name":"Firemen's Memorial"}},{"type":"Feature","geometry":{"type":"Point","coordinates":[-73.9631689,40.8148085]},"properties":{"kind":"monument","name":"Amiable Child Memorial"}},{"type":"Feature","geometry":{"type":"Point","coordinates":[-73.9621219,40.815006]},"properties":{"kind":"playground","name":"Claremont Playground"}},{"type":"Feature","geometry":{"type":"Point","coordinates":[-73.9725,40.8024]},"properties":{"kind":"water","name":""}},{"type":"Feature","geometry":{"type":"Point","coordinates":[-73.970887,40.8019243]},"properties":{"kind":"water","name":""}},{"type":"Feature","geometry":{"type":"Point","coordinates":[-73.9876506,40.7817858]},"properties":{"kind":"water","name":""}},{"type":"Feature","geometry":{"type":"Point","coordinates":[-73.9884308,40.7800755]},"properties":{"kind":"water","name":""}},{"type":"Feature","geometry":{"type":"Point","coordinates":[-73.991465,40.7761508]},"properties":{"kind":"water","name":""}},{"type":"Feature","geometry":{"type":"Point","coordinates":[-73.9737,40.8011]},"properties":{"kind":"water","name":""}},{"type":"Feature","geometry":{"type":"Point","coordinates":[-73.9767,40.7976]},"properties":{"kind":"water","name":""}},{"type":"Feature","geometry":{"type":"Point","coordinates":[-73.975,40.7968]},"properties":{"kind":"water","name":""}},{"type":"Feature","geometry":{"type":"Point","coordinates":[-73.9782,40.7933]},"properties":{"kind":"water","name":""}},{"type":"Feature","geometry":{"type":"Point","coordinates":[-73.9809797,40.7899749]},"properties":{"kind":"water","name":""}},{"type":"Feature","geometry":{"type":"Point","coordinates":[-73.9821107,40.7872797]},"properties":{"kind":"water","name":""}},{"type":"Feature","geometry":{"type":"Point","coordinates":[-73.9848354,40.7834889]},"properties":{"kind":"water","name":""}},{"type":"Feature","geometry":{"type":"Point","coordinates":[-73.9860446,40.7810663]},"properties":{"kind":"water","name":""}},{"type":"Feature","geometry":{"type":"Point","coordinates":[-73.9701026,40.8022938]},"properties":{"kind":"monument","name":"Franz Sigel Memorial"}},{"type":"Feature","geometry":{"type":"Point","coordinates":[-73.9923314,40.7748668]},"properties":{"kind":"water","name":""}},{"type":"Feature","geometry":{"type":"Point","coordinates":[-73.9781294,40.7934015]},"properties":{"kind":"toilets","name":""}},{"type":"Feature","geometry":{"type":"Point","coordinates":[-73.9830223,40.788578]},"properties":{"kind":"water","name":""}},{"type":"Feature","geometry":{"type":"Point","coordinates":[-73.9857836,40.7806464]},"properties":{"kind":"monument","name":"Eleanor Roosevelt Monument"}},{"type":"Feature","geometry":{"type":"Point","coordinates":[-73.9753221,40.7991902]},"properties":{"kind":"viewpoint","name":""}},{"type":"Feature","geometry":{"type":"Point","coordinates":[-73.9863363,40.7838537]},"properties":{"kind":"water","name":""}},{"type":"Feature","geometry":{"type":"Point","coordinates":[-73.986856,40.7830903]},"properties":{"kind":"water","name":""}},{"type":"Feature","geometry":{"type":"Point","coordinates":[-73.9619788,40.8155501]},"properties":{"kind":"viewpoint","name":""}},{"type":"Feature","geometry":{"type":"Point","coordinates":[-73.9876112,40.7807928]},"properties":{"kind":"water","name":""}},{"type":"Feature","geometry":{"type":"Point","coordinates":[-73.9923303,40.7746454]},"properties":{"kind":"water","name":""}},{"type":"Feature","geometry":{"type":"Point","coordinates":[-73.9832178,40.7884147]},"properties":{"kind":"water","name":""}},{"type":"Feature","geometry":{"type":"Point","coordinates":[-73.9849146,40.7859179]},"properties":{"kind":"viewpoint","name":""}},{"type":"Feature","geometry":{"type":"Point","coordinates":[-73.9847675,40.7834624]},"properties":{"kind":"toilets","name":""}},{"type":"Feature","geometry":{"type":"Point","coordinates":[-73.9882952,40.7797008]},"properties":{"kind":"toilets","name":""}},{"type":"Feature","geometry":{"type":"Point","coordinates":[-73.9703,40.8017808]},"properties":{"kind":"monument","name":""}},{"type":"Feature","geometry":{"type":"Point","coordinates":[-73.9679338,40.8064948]},"properties":{"kind":"playground","name":"Tot Lot 112"}},{"type":"Feature","geometry":{"type":"Point","coordinates":[-73.9686339,40.8052035]},"properties":{"kind":"playground","name":"Tot Lot 110"}},{"type":"Feature","geometry":{"type":"Point","coordinates":[-73.9661697,40.8091128]},"properties":{"kind":"water","name":""}},{"type":"Feature","geometry":{"type":"Point","coordinates":[-73.9719504,40.8024765]},"properties":{"kind":"toilets","name":""}},{"type":"Feature","geometry":{"type":"Point","coordinates":[-73.9767156,40.7976618]},"properties":{"kind":"water","name":""}},{"type":"Feature","geometry":{"type":"Point","coordinates":[-73.9655025,40.8096121]},"properties":{"kind":"playground","name":"Tot Lot 116"}},{"type":"Feature","geometry":{"type":"Point","coordinates":[-73.9498955,40.8303033]},"properties":{"kind":"monument","name":"Invisible Man: A Memorial to Ralph Ellison"}},{"type":"Feature","geometry":{"type":"Point","coordinates":[-73.9923669,40.774738]},"properties":{"kind":"monument","name":"New York Central Locomotive"}},{"type":"Feature","geometry":{"type":"Point","coordinates":[-73.9628563,40.8138662]},"properties":{"kind":"monument","name":""}},{"type":"Feature","geometry":{"type":"Point","coordinates":[-73.964198,40.8115591]},"properties":{"kind":"water","name":""}},{"type":"Feature","geometry":{"type":"Point","coordinates":[-73.9934936,40.7734224]},"properties":{"kind":"water","name":""}},{"type":"Feature","geometry":{"type":"Point","coordinates":[-73.9732499,40.8006253]},"properties":{"kind":"toilets","name":""}},{"type":"Feature","geometry":{"type":"Point","coordinates":[-73.9712405,40.800923]},"properties":{"kind":"monument","name":""}},{"type":"Feature","geometry":{"type":"Point","coordinates":[-73.9702776,40.8058737]},"properties":{"kind":"water","name":""}},{"type":"Feature","geometry":{"type":"Point","coordinates":[-73.9782778,40.7955877]},"properties":{"kind":"monument","name":"Jacobo Villano Pardo"}},{"type":"Feature","geometry":{"type":"Point","coordinates":[-73.9713293,40.8011702]},"properties":{"kind":"monument","name":""}},{"type":"Feature","geometry":{"type":"Point","coordinates":[-73.9914155,40.7796765]},"properties":{"kind":"viewpoint","name":""}},{"type":"Feature","geometry":{"type":"Point","coordinates":[-73.9730011,40.8021569]},"properties":{"kind":"water","name":""}},{"type":"Feature","geometry":{"type":"Point","coordinates":[-73.9538681,40.825639]},"properties":{"kind":"water","name":""}},{"type":"Feature","geometry":{"type":"Point","coordinates":[-73.9614422,40.8177329]},"properties":{"kind":"monument","name":"Welcome to Harlem"}},{"type":"Feature","geometry":{"type":"Point","coordinates":[-73.9892363,40.7789823]},"properties":{"kind":"monument","name":"New York Central Railroad 69th Street Transfer Bridge"}},{"type":"Feature","geometry":{"type":"Point","coordinates":[-73.9553269,40.8235145]},"properties":{"kind":"monument","name":""}},{"type":"Feature","geometry":{"type":"Point","coordinates":[-73.9846732809406,40.7836051]},"properties":{"kind":"playground","name":"Neufeld Playground"}},{"type":"Feature","geometry":{"type":"Point","coordinates":[-73.98986060801872,40.77753525]},"properties":{"kind":"playground","name":"Big River Playground"}},{"type":"Feature","geometry":{"type":"Point","coordinates":[-73.98895283860858,40.77792005]},"properties":{"kind":"playground","name":"Little Engine Playground"}},{"type":"Feature","geometry":{"type":"Point","coordinates":[-73.9861076371875,40.78336565]},"properties":{"kind":"playground","name":""}},{"type":"Feature","geometry":{"type":"Point","coordinates":[-73.9822040160804,40.7870472]},"properties":{"kind":"playground","name":"River Run Playground"}},{"type":"Feature","geometry":{"type":"Point","coordinates":[-73.9709424,40.8017629]},"properties":{"kind":"playground","name":"105th Street Tot Lot"}},{"type":"Feature","geometry":{"type":"Point","coordinates":[-73.97821250100918,40.7930625]},"properties":{"kind":"playground","name":"Hippo Playground"}},{"type":"Feature","geometry":{"type":"Point","coordinates":[-73.97492135067444,40.797052199999996]},"properties":{"kind":"playground","name":"Dinosaur Playground"}},{"type":"Feature","geometry":{"type":"Point","coordinates":[-73.95376894818413,40.825705049999996]},"properties":{"kind":"playground","name":"Riverbank Playground"}},{"type":"Feature","geometry":{"type":"Point","coordinates":[-73.95063216951439,40.8290387]},"properties":{"kind":"playground","name":"Palisades Playground"}}]}