{"type":"FeatureCollection","features":[{"type":"Feature","geometry":{"type":"LineString","coordinates":[[-73.997934,40.758403],[-73.996294,40.7599],[-73.996034,40.760173],[-73.995615,40.760658],[-73.994698,40.761917]]},"properties":{"tunnel":"yes","name":"Hudson Line","operator":"Amtrak"}},{"type":"Feature","geometry":{"type":"LineString","coordinates":[[-73.994351,40.762398],[-73.993331,40.763797]]},"properties":{"tunnel":"yes","name":"Hudson Line","operator":"Amtrak"}},{"type":"Feature","geometry":{"type":"LineString","coordinates":[[-73.993331,40.763797],[-73.99297,40.764276]]},"properties":{"tunnel":"no","name":"Hudson Line","operator":"Amtrak"}},{"type":"Feature","geometry":{"type":"LineString","coordinates":[[-73.979234,40.792747],[-73.977852,40.794082],[-73.977178,40.794785],[-73.976505,40.795599],[-73.969905,40.805084],[-73.969627,40.805553],[-73.968765,40.807215],[-73.968499,40.807652],[-73.965617,40.811663]]},"properties":{"tunnel":"yes","name":"Hudson Line","operator":"Amtrak"}},{"type":"Feature","geometry":{"type":"LineString","coordinates":[[-73.964182,40.814512],[-73.963999,40.814831],[-73.963761,40.815215],[-73.963319,40.815796],[-73.962821,40.816369]]},"properties":{"tunnel":"no","name":"Hudson Line","operator":"Amtrak"}},{"type":"Feature","geometry":{"type":"LineString","coordinates":[[-73.961464,40.817727],[-73.959232,40.820228],[-73.95856,40.821004]]},"properties":{"tunnel":"no","name":"Hudson Line","operator":"Amtrak"}},{"type":"Feature","geometry":{"type":"LineString","coordinates":[[-73.933274,40.830787],[-73.933298,40.830254],[-73.93323,40.8296],[-73.933063,40.828359],[-73.932932,40.827126],[-73.932701,40.825112],[-73.932573,40.823538],[-73.932401,40.821291],[-73.932316,40.819293],[-73.932297,40.81835]]},"properties":{"tunnel":"no","name":"Oak Point Link Running Track","operator":"CSX Transportation"}},{"type":"Feature","geometry":{"type":"LineString","coordinates":[[-73.932145,40.835863],[-73.93189,40.836763],[-73.931275,40.838117]]},"properties":{"tunnel":"no","name":"","operator":"Metro-North Railroad"}},{"type":"Feature","geometry":{"type":"LineString","coordinates":[[-73.93302,40.832265],[-73.933001,40.832624],[-73.932926,40.833273],[-73.932907,40.833366]]},"properties":{"tunnel":"no","name":"","operator":"Metro-North Railroad"}},{"type":"Feature","geometry":{"type":"LineString","coordinates":[[-73.932322,40.835892],[-73.932118,40.83661],[-73.931934,40.837044]]},"properties":{"tunnel":"no","name":"","operator":"Metro-North Railroad"}},{"type":"Feature","geometry":{"type":"LineString","coordinates":[[-73.932026,40.835844],[-73.931672,40.8371],[-73.931597,40.83731],[-73.93115,40.838291],[-73.931072,40.838432]]},"properties":{"tunnel":"no","name":"","operator":"Metro-North Railroad"}},{"type":"Feature","geometry":{"type":"LineString","coordinates":[[-73.931482,40.83699],[-73.931251,40.837793],[-73.931054,40.838241],[-73.930661,40.839063]]},"properties":{"tunnel":"no","name":"","operator":"Metro-North Railroad"}},{"type":"Feature","geometry":{"type":"LineString","coordinates":[[-73.932263,40.835882],[-73.932064,40.836615],[-73.931985,40.83681],[-73.931632,40.837576]]},"properties":{"tunnel":"no","name":"","operator":"Metro-North Railroad"}},{"type":"Feature","geometry":{"type":"LineString","coordinates":[[-73.932808,40.832384],[-73.932853,40.832965],[-73.932842,40.833061],[-73.932781,40.833346]]},"properties":{"tunnel":"no","name":"","operator":"Metro-North Railroad"}},{"type":"Feature","geometry":{"type":"LineString","coordinates":[[-73.931934,40.837044],[-73.932183,40.83661],[-73.932229,40.836492],[-73.93306,40.833555],[-73.933111,40.833352],[-73.933123,40.833102],[-73.933038,40.832626]]},"properties":{"tunnel":"no","name":"","operator":"Metro-North Railroad"}},{"type":"Feature","geometry":{"type":"LineString","coordinates":[[-73.932965,40.832924],[-73.932859,40.833359]]},"properties":{"tunnel":"no","name":"","operator":"Metro-North Railroad"}},{"type":"Feature","geometry":{"type":"LineString","coordinates":[[-73.932739,40.83209],[-73.932669,40.832431],[-73.932078,40.834086],[-73.931938,40.834515],[-73.930831,40.838462],[-73.930732,40.838756],[-73.930625,40.839001],[-73.930403,40.839461]]},"properties":{"tunnel":"no","name":"","operator":"Metro-North Railroad"}},{"type":"Feature","geometry":{"type":"LineString","coordinates":[[-73.948348,40.837845],[-73.948194,40.838243],[-73.947894,40.838845],[-73.947716,40.839173],[-73.947303,40.839824],[-73.946482,40.841151],[-73.946274,40.841539],[-73.946124,40.841851],[-73.946028,40.842079],[-73.945861,40.842531],[-73.945801,40.842732],[-73.945713,40.843102],[-73.945625,40.843618],[-73.945587,40.843981],[-73.945568,40.844411],[-73.945594,40.845038],[-73.945617,40.845242],[-73.945778,40.84637],[-73.945897,40.847302]]},"properties":{"tunnel":"no","name":"Hudson Line","operator":"Amtrak"}},{"type":"Feature","geometry":{"type":"LineString","coordinates":[[-73.932415,40.832455],[-73.932598,40.831749],[-73.932799,40.830729],[-73.932824,40.830567],[-73.932854,40.830252],[-73.932853,40.830069],[-73.932836,40.82984],[-73.932806,40.829673],[-73.932751,40.82943],[-73.932621,40.829074],[-73.932438,40.828722],[-73.932284,40.828465],[-73.931716,40.827606],[-73.929978,40.825252],[-73.928959,40.823967],[-73.928572,40.823451]]},"properties":{"tunnel":"no","name":"Hudson Line","operator":"Metro-North Railroad"}},{"type":"Feature","geometry":{"type":"LineString","coordinates":[[-73.929801,40.840369],[-73.929904,40.840044],[-73.929986,40.83973],[-73.930068,40.839482],[-73.930404,40.838648],[-73.930699,40.837822],[-73.930786,40.837529],[-73.930844,40.83719],[-73.930934,40.836841],[-73.930974,40.836585]]},"properties":{"tunnel":"no","name":"","operator":"Metro-North Railroad"}},{"type":"Feature","geometry":{"type":"LineString","coordinates":[[-73.93098,40.838393],[-73.931286,40.837351]]},"properties":{"tunnel":"no","name":"","operator":"Metro-North Railroad"}},{"type":"Feature","geometry":{"type":"LineString","coordinates":[[-73.930844,40.83719],[-73.930649,40.83782],[-73.930354,40.83864],[-73.930021,40.839463],[-73.929951,40.83972],[-73.929904,40.840044]]},"properties":{"tunnel":"no","name":"","operator":"Metro-North Railroad"}},{"type":"Feature","geometry":{"type":"LineString","coordinates":[[-73.929906,40.84056],[-73.930212,40.839934],[-73.930549,40.839347],[-73.930897,40.838806],[-73.932043,40.837075],[-73.932425,40.836599],[-73.932522,40.83645],[-73.932585,40.836321],[-73.932627,40.8362],[-73.933135,40.834403],[-73.933275,40.833867],[-73.933308,40.833666],[-73.933309,40.833227],[-73.933279,40.832574],[-73.933233,40.83197],[-73.93322,40.831414],[-73.933274,40.830787]]},"properties":{"tunnel":"no","name":"Oak Point Link Running Track","operator":"CSX Transportation"}},{"type":"Feature","geometry":{"type":"LineString","coordinates":[[-73.931926,40.827784],[-73.932052,40.828011],[-73.932339,40.82846],[-73.932514,40.828765],[-73.932666,40.829065],[-73.932794,40.829426],[-73.932851,40.82967],[-73.93289,40.829986],[-73.932899,40.830232],[-73.932869,40.830542],[-73.932734,40.831364],[-73.932723,40.831481],[-73.932742,40.831781]]},"properties":{"tunnel":"no","name":"","operator":"Metro-North Railroad"}},{"type":"Feature","geometry":{"type":"LineString","coordinates":[[-73.994698,40.761917],[-73.994351,40.762398]]},"properties":{"tunnel":"no","name":"Hudson Line","operator":"Amtrak"}},{"type":"Feature","geometry":{"type":"LineString","coordinates":[[-73.962866,40.816393],[-73.963033,40.81621],[-73.96346,40.815708],[-73.963899,40.815094],[-73.964229,40.814527]]},"properties":{"tunnel":"no","name":"Hudson Line","operator":"Amtrak"}},{"type":"Feature","geometry":{"type":"LineString","coordinates":[[-73.958597,40.821033],[-73.959396,40.820111],[-73.961506,40.817742]]},"properties":{"tunnel":"no","name":"Hudson Line","operator":"Amtrak"}},{"type":"Feature","geometry":{"type":"LineString","coordinates":[[-73.945951,40.847325],[-73.945669,40.845253],[-73.945629,40.844735],[-73.945621,40.844401],[-73.945652,40.843804],[-73.945675,40.843617],[-73.945755,40.843136],[-73.94584,40.842792],[-73.945942,40.842461],[-73.946072,40.8421],[-73.946266,40.84166],[-73.946442,40.841322],[-73.946743,40.840814],[-73.947771,40.839177],[-73.947942,40.838866],[-73.948199,40.838364],[-73.9483,40.838136],[-73.948421,40.837824]]},"properties":{"tunnel":"no","name":"Hudson Line","operator":"Amtrak"}},{"type":"Feature","geometry":{"type":"LineString","coordinates":[[-73.965663,40.81168],[-73.968547,40.807668],[-73.968812,40.807231],[-73.969674,40.805569],[-73.969952,40.805101],[-73.976551,40.795618],[-73.977222,40.794806],[-73.977893,40.794106],[-73.979276,40.792771]]},"properties":{"tunnel":"yes","name":"Hudson Line","operator":"Amtrak"}},{"type":"Feature","geometry":{"type":"LineString","coordinates":[[-73.993016,40.764298],[-73.993379,40.763818]]},"properties":{"tunnel":"no","name":"Hudson Line","operator":"Amtrak"}},{"type":"Feature","geometry":{"type":"LineString","coordinates":[[-73.993379,40.763818],[-73.994401,40.76242]]},"properties":{"tunnel":"yes","name":"Hudson Line","operator":"Amtrak"}},{"type":"Feature","geometry":{"type":"LineString","coordinates":[[-73.994401,40.76242],[-73.994758,40.761938]]},"properties":{"tunnel":"no","name":"Hudson Line","operator":"Amtrak"}},{"type":"Feature","geometry":{"type":"LineString","coordinates":[[-73.994758,40.761938],[-73.99567,40.760681],[-73.996083,40.760199],[-73.996339,40.75993],[-73.997979,40.758422]]},"properties":{"tunnel":"yes","name":"Hudson Line","operator":"Amtrak"}},{"type":"Feature","geometry":{"type":"LineString","coordinates":[[-73.928586,40.823431],[-73.929517,40.824537]]},"properties":{"tunnel":"no","name":"","operator":"Metro-North Railroad"}},{"type":"Feature","geometry":{"type":"LineString","coordinates":[[-73.928518,40.823524],[-73.932196,40.828504],[-73.932425,40.828875],[-73.932536,40.8291],[-73.93266,40.829441],[-73.932714,40.829675],[-73.932743,40.829834],[-73.932761,40.830252],[-73.932733,40.830568],[-73.932709,40.830727],[-73.932558,40.831486],[-73.932338,40.832447]]},"properties":{"tunnel":"no","name":"Hudson Line","operator":"Metro-North Railroad"}},{"type":"Feature","geometry":{"type":"LineString","coordinates":[[-73.932381,40.832451],[-73.93263,40.831397],[-73.932783,40.830566],[-73.932809,40.830257],[-73.932809,40.830068],[-73.932792,40.829835],[-73.93276,40.829673],[-73.932704,40.829434],[-73.932583,40.829086],[-73.932391,40.828722],[-73.932248,40.828486],[-73.931886,40.827936],[-73.931486,40.827355],[-73.929931,40.825257],[-73.928907,40.823975],[-73.928544,40.823488]]},"properties":{"tunnel":"no","name":"Hudson Line","operator":"Metro-North Railroad"}},{"type":"Feature","geometry":{"type":"LineString","coordinates":[[-73.930215,40.839486],[-73.929966,40.83997],[-73.929748,40.840494]]},"properties":{"tunnel":"no","name":"","operator":"Metro-North Railroad"}},{"type":"Feature","geometry":{"type":"LineString","coordinates":[[-73.930841,40.838779],[-73.930403,40.839461]]},"properties":{"tunnel":"no","name":"","operator":"Metro-North Railroad"}},{"type":"Feature","geometry":{"type":"LineString","coordinates":[[-73.931072,40.838432],[-73.931458,40.837827],[-73.931774,40.837358],[-73.931934,40.837044]]},"properties":{"tunnel":"no","name":"","operator":"Metro-North Railroad"}},{"type":"Feature","geometry":{"type":"LineString","coordinates":[[-73.932779,40.832084],[-73.932904,40.832608],[-73.932918,40.832767],[-73.932909,40.832968],[-73.932857,40.833358]]},"properties":{"tunnel":"no","name":"","operator":"Metro-North Railroad"}},{"type":"Feature","geometry":{"type":"LineString","coordinates":[[-73.932739,40.83209],[-73.932721,40.832384]]},"properties":{"tunnel":"no","name":"","operator":"Metro-North Railroad"}},{"type":"Feature","geometry":{"type":"LineString","coordinates":[[-73.932742,40.831781],[-73.932808,40.832384]]},"properties":{"tunnel":"no","name":"","operator":"Metro-North Railroad"}},{"type":"Feature","geometry":{"type":"LineString","coordinates":[[-73.933038,40.832626],[-73.932963,40.831151],[-73.932952,40.829836],[-73.932943,40.829701],[-73.932898,40.829421],[-73.932767,40.829034],[-73.932591,40.828705],[-73.932514,40.828587],[-73.931926,40.827784]]},"properties":{"tunnel":"no","name":"","operator":"Metro-North Railroad"}},{"type":"Feature","geometry":{"type":"LineString","coordinates":[[-73.930403,40.839461],[-73.930251,40.839706],[-73.930119,40.839967]]},"properties":{"tunnel":"no","name":"","operator":"Metro-North Railroad"}},{"type":"Feature","geometry":{"type":"LineString","coordinates":[[-73.932742,40.831781],[-73.932739,40.83209]]},"properties":{"tunnel":"no","name":"","operator":"Metro-North Railroad"}},{"type":"Feature","geometry":{"type":"LineString","coordinates":[[-73.932721,40.832384],[-73.932711,40.832869],[-73.932685,40.83301],[-73.932628,40.833251],[-73.93225,40.834584]]},"properties":{"tunnel":"no","name":"","operator":"Metro-North Railroad"}},{"type":"Feature","geometry":{"type":"LineString","coordinates":[[-73.931072,40.838432],[-73.930841,40.838779]]},"properties":{"tunnel":"no","name":"","operator":"Metro-North Railroad"}},{"type":"Feature","geometry":{"type":"LineString","coordinates":[[-73.929517,40.824537],[-73.930206,40.825363],[-73.930562,40.825824],[-73.931582,40.827224],[-73.931803,40.827565],[-73.931926,40.827784]]},"properties":{"tunnel":"no","name":"","operator":"Metro-North Railroad"}},{"type":"Feature","geometry":{"type":"LineString","coordinates":[[-73.932338,40.832447],[-73.932294,40.832629],[-73.9309,40.837589],[-73.930679,40.838274],[-73.930418,40.838976],[-73.929792,40.840512]]},"properties":{"tunnel":"no","name":"Hudson Line","operator":"Metro-North Railroad"}},{"type":"Feature","geometry":{"type":"LineString","coordinates":[[-73.929837,40.840531],[-73.930464,40.838985],[-73.930729,40.838287],[-73.930944,40.837599],[-73.931254,40.836511],[-73.932381,40.832451]]},"properties":{"tunnel":"no","name":"Hudson Line","operator":"Metro-North Railroad"}},{"type":"Feature","geometry":{"type":"LineString","coordinates":[[-73.929884,40.840551],[-73.930511,40.838991],[-73.930777,40.838288],[-73.930993,40.837604],[-73.931303,40.836514],[-73.932415,40.832455]]},"properties":{"tunnel":"no","name":"Hudson Line","operator":"Metro-North Railroad"}},{"type":"Feature","geometry":{"type":"LineString","coordinates":[[-73.995457,40.760981],[-73.995702,40.760693],[-73.996385,40.759954]]},"properties":{"tunnel":"yes","name":"Hudson Line","operator":"Amtrak"}},{"type":"Feature","geometry":{"type":"LineString","coordinates":[[-73.99343,40.763835],[-73.993949,40.763127],[-73.994187,40.762712]]},"properties":{"tunnel":"yes","name":"Tail Track","operator":"Amtrak"}},{"type":"Feature","geometry":{"type":"LineString","coordinates":[[-73.993096,40.764296],[-73.99343,40.763835]]},"properties":{"tunnel":"no","name":"Tail Track","operator":"Amtrak"}},{"type":"Feature","geometry":{"type":"LineString","coordinates":[[-73.932161,40.83457],[-73.931482,40.83699]]},"properties":{"tunnel":"building_passage","name":"","operator":"Metro-North Railroad"}},{"type":"Feature","geometry":{"type":"LineString","coordinates":[[-73.93225,40.834584],[-73.931566,40.837004]]},"properties":{"tunnel":"building_passage","name":"","operator":"Metro-North Railroad"}},{"type":"Feature","geometry":{"type":"LineString","coordinates":[[-73.933025,40.833385],[-73.932322,40.835892]]},"properties":{"tunnel":"building_passage","name":"","operator":"Metro-North Railroad"}},{"type":"Feature","geometry":{"type":"LineString","coordinates":[[-73.932978,40.833378],[-73.932263,40.835882]]},"properties":{"tunnel":"building_passage","name":"","operator":"Metro-North Railroad"}},{"type":"Feature","geometry":{"type":"LineString","coordinates":[[-73.932907,40.833366],[-73.932204,40.835873]]},"properties":{"tunnel":"building_passage","name":"","operator":"Metro-North Railroad"}},{"type":"Feature","geometry":{"type":"LineString","coordinates":[[-73.932855,40.833375],[-73.932145,40.835863]]},"properties":{"tunnel":"building_passage","name":"","operator":"Metro-North Railroad"}},{"type":"Feature","geometry":{"type":"LineString","coordinates":[[-73.932781,40.833346],[-73.932085,40.835854]]},"properties":{"tunnel":"building_passage","name":"","operator":"Metro-North Railroad"}},{"type":"Feature","geometry":{"type":"LineString","coordinates":[[-73.932727,40.833337],[-73.932026,40.835844]]},"properties":{"tunnel":"building_passage","name":"","operator":"Metro-North Railroad"}},{"type":"Feature","geometry":{"type":"LineString","coordinates":[[-73.932721,40.832384],[-73.932676,40.832709],[-73.932611,40.832965],[-73.932161,40.83457]]},"properties":{"tunnel":"no","name":"","operator":"Metro-North Railroad"}},{"type":"Feature","geometry":{"type":"LineString","coordinates":[[-73.931566,40.837004],[-73.931441,40.837467],[-73.931398,40.837587],[-73.931092,40.838261],[-73.930841,40.838779]]},"properties":{"tunnel":"no","name":"","operator":"Metro-North Railroad"}},{"type":"Feature","geometry":{"type":"LineString","coordinates":[[-73.932808,40.832384],[-73.932793,40.83287],[-73.932771,40.833135],[-73.932727,40.833337]]},"properties":{"tunnel":"no","name":"","operator":"Metro-North Railroad"}},{"type":"Feature","geometry":{"type":"LineString","coordinates":[[-73.932085,40.835854],[-73.931749,40.837002],[-73.931652,40.8373]]},"properties":{"tunnel":"no","name":"","operator":"Metro-North Railroad"}},{"type":"Feature","geometry":{"type":"LineString","coordinates":[[-73.932857,40.833358],[-73.932855,40.833375]]},"properties":{"tunnel":"building_passage","name":"","operator":""}},{"type":"Feature","geometry":{"type":"LineString","coordinates":[[-73.932859,40.833359],[-73.932855,40.833375]]},"properties":{"tunnel":"building_passage","name":"","operator":""}},{"type":"Feature","geometry":{"type":"LineString","coordinates":[[-73.932204,40.835873],[-73.931929,40.836802],[-73.931458,40.837827]]},"properties":{"tunnel":"no","name":"","operator":"Metro-North Railroad"}},{"type":"Feature","geometry":{"type":"LineString","coordinates":[[-73.933001,40.832624],[-73.933008,40.83309],[-73.932996,40.833308],[-73.932978,40.833378]]},"properties":{"tunnel":"no","name":"","operator":"Metro-North Railroad"}},{"type":"Feature","geometry":{"type":"LineString","coordinates":[[-73.933038,40.832626],[-73.933058,40.833097],[-73.933049,40.833279],[-73.933025,40.833385]]},"properties":{"tunnel":"no","name":"","operator":"Metro-North Railroad"}},{"type":"Feature","geometry":{"type":"LineString","coordinates":[[-73.948421,40.837824],[-73.949048,40.835752],[-73.949942,40.832684],[-73.950387,40.831104]]},"properties":{"tunnel":"no","name":"Hudson Line","operator":"Amtrak"}},{"type":"Feature","geometry":{"type":"LineString","coordinates":[[-73.949861,40.832771],[-73.949289,40.834711],[-73.948348,40.837845]]},"properties":{"tunnel":"no","name":"Hudson Line","operator":"Amtrak"}},{"type":"Feature","geometry":{"type":"LineString","coordinates":[[-73.957295,40.822305],[-73.956584,40.823006],[-73.956115,40.823499],[-73.953284,40.82654],[-73.952074,40.827873]]},"properties":{"tunnel":"no","name":"Hudson Line","operator":"Amtrak"}},{"type":"Feature","geometry":{"type":"LineString","coordinates":[[-73.952116,40.827889],[-73.95662,40.823024],[-73.957342,40.822325]]},"properties":{"tunnel":"no","name":"Hudson Line","operator":"Amtrak"}},{"type":"Feature","geometry":{"type":"LineString","coordinates":[[-73.952074,40.827873],[-73.951645,40.828371],[-73.951184,40.829018],[-73.950823,40.829742],[-73.95057,40.830367],[-73.950347,40.8311]]},"properties":{"tunnel":"no","name":"Hudson Line","operator":"Amtrak"}},{"type":"Feature","geometry":{"type":"LineString","coordinates":[[-73.950387,40.831104],[-73.950627,40.830362],[-73.950782,40.82997],[-73.951258,40.829015],[-73.95156,40.828576],[-73.951877,40.828167],[-73.952116,40.827889]]},"properties":{"tunnel":"no","name":"Hudson Line","operator":"Amtrak"}},{"type":"Feature","geometry":{"type":"LineString","coordinates":[[-73.957342,40.822325],[-73.958104,40.821571],[-73.958597,40.821033]]},"properties":{"tunnel":"no","name":"Hudson Line","operator":"Amtrak"}},{"type":"Feature","geometry":{"type":"LineString","coordinates":[[-73.95856,40.821004],[-73.958069,40.821548],[-73.957295,40.822305]]},"properties":{"tunnel":"no","name":"Hudson Line","operator":"Amtrak"}},{"type":"Feature","geometry":{"type":"LineString","coordinates":[[-73.961506,40.817742],[-73.962866,40.816393]]},"properties":{"tunnel":"no","name":"Hudson Line","operator":"Amtrak"}},{"type":"Feature","geometry":{"type":"LineString","coordinates":[[-73.962821,40.816369],[-73.961464,40.817727]]},"properties":{"tunnel":"no","name":"Hudson Line","operator":"Amtrak"}},{"type":"Feature","geometry":{"type":"LineString","coordinates":[[-73.965617,40.811663],[-73.965428,40.811965],[-73.964182,40.814512]]},"properties":{"tunnel":"yes","name":"Hudson Line","operator":"Amtrak"}},{"type":"Feature","geometry":{"type":"LineString","coordinates":[[-73.964229,40.814527],[-73.965475,40.81198],[-73.965663,40.81168]]},"properties":{"tunnel":"yes","name":"Hudson Line","operator":"Amtrak"}},{"type":"Feature","geometry":{"type":"LineString","coordinates":[[-73.979276,40.792771],[-73.979806,40.792164],[-73.980246,40.791546],[-73.980626,40.790906]]},"properties":{"tunnel":"yes","name":"Hudson Line","operator":"Amtrak"}},{"type":"Feature","geometry":{"type":"LineString","coordinates":[[-73.980577,40.790891],[-73.980199,40.79153],[-73.979761,40.792144],[-73.979234,40.792747]]},"properties":{"tunnel":"yes","name":"Hudson Line","operator":"Amtrak"}},{"type":"Feature","geometry":{"type":"LineString","coordinates":[[-73.980626,40.790906],[-73.98128,40.789642],[-73.981664,40.788997],[-73.985112,40.783853],[-73.985346,40.783475],[-73.985549,40.7831],[-73.988099,40.777811]]},"properties":{"tunnel":"yes","name":"Hudson Line","operator":"Amtrak"}},{"type":"Feature","geometry":{"type":"LineString","coordinates":[[-73.988046,40.777797],[-73.987367,40.779215],[-73.986446,40.781076],[-73.985479,40.783079],[-73.985277,40.783453],[-73.984862,40.784138],[-73.981618,40.788979],[-73.981233,40.789626],[-73.980577,40.790891]]},"properties":{"tunnel":"yes","name":"Hudson Line","operator":"Amtrak"}},{"type":"Feature","geometry":{"type":"LineString","coordinates":[[-73.988099,40.777811],[-73.988309,40.777421],[-73.989508,40.775481],[-73.989646,40.775226],[-73.98975,40.77494],[-73.989802,40.774691],[-73.989951,40.773415],[-73.990003,40.773167],[-73.990086,40.772906],[-73.99021,40.772609]]},"properties":{"tunnel":"yes","name":"Hudson Line","operator":"Amtrak"}},{"type":"Feature","geometry":{"type":"LineString","coordinates":[[-73.990159,40.772597],[-73.990035,40.772894],[-73.989951,40.773161],[-73.9899,40.773411],[-73.98975,40.774687],[-73.989701,40.774931],[-73.9896,40.775213],[-73.989463,40.775468],[-73.988263,40.777403],[-73.988046,40.777797]]},"properties":{"tunnel":"yes","name":"Hudson Line","operator":"Amtrak"}},{"type":"Feature","geometry":{"type":"LineString","coordinates":[[-73.990791,40.769651],[-73.990276,40.772214],[-73.990226,40.772406],[-73.990159,40.772597]]},"properties":{"tunnel":"yes","name":"Hudson Line","operator":"Amtrak"}},{"type":"Feature","geometry":{"type":"LineString","coordinates":[[-73.99021,40.772609],[-73.990278,40.772415],[-73.990329,40.772222],[-73.990844,40.769658]]},"properties":{"tunnel":"yes","name":"Hudon Line","operator":"Amtrak"}},{"type":"Feature","geometry":{"type":"LineString","coordinates":[[-73.99297,40.764276],[-73.992117,40.765478],[-73.991964,40.765711],[-73.991823,40.765949],[-73.991694,40.76619],[-73.991577,40.766435],[-73.991474,40.766683],[-73.991303,40.767187],[-73.991236,40.767443],[-73.990791,40.769651]]},"properties":{"tunnel":"yes","name":"Hudson Line","operator":"Amtrak"}},{"type":"Feature","geometry":{"type":"LineString","coordinates":[[-73.990844,40.769658],[-73.991291,40.767449],[-73.991356,40.767196],[-73.991435,40.766945],[-73.991526,40.766695],[-73.99163,40.766449],[-73.991745,40.766206],[-73.991873,40.765967],[-73.992013,40.765731],[-73.992164,40.765499],[-73.993016,40.764298]]},"properties":{"tunnel":"yes","name":"Hudson Line","operator":"Amtrak"}},{"type":"Feature","geometry":{"type":"LineString","coordinates":[[-73.950347,40.8311],[-73.949894,40.832659]]},"properties":{"tunnel":"no","name":"Hudson Line","operator":"Amtrak"}},{"type":"Feature","geometry":{"type":"LineString","coordinates":[[-73.949894,40.832659],[-73.949861,40.832771]]},"properties":{"tunnel":"no","name":"Hudson Line","operator":"Amtrak"}},{"type":"Feature","geometry":{"type":"LineString","coordinates":[[-73.934984,40.821841],[-73.934708,40.822226],[-73.934506,40.822471],[-73.934397,40.822584],[-73.93435,40.822807]]},"properties":{"tunnel":"no","name":"","operator":""}},{"type":"Feature","geometry":{"type":"LineString","coordinates":[[-73.997979,40.758422],[-73.998042,40.758364]]},"properties":{"tunnel":"yes","name":"Hudson Line","operator":"Amtrak"}},{"type":"Feature","geometry":{"type":"LineString","coordinates":[[-73.998002,40.758347],[-73.997934,40.758403]]},"properties":{"tunnel":"yes","name":"Hudson Line","operator":"Amtrak"}}]}