{"type":"FeatureCollection","features":[{"type":"Feature","geometry":{"type":"LineString","coordinates":[[-73.9513562,40.8293638],[-73.9514441,40.8292609],[-73.9514849,40.8292786]]},"properties":{}},{"type":"Feature","geometry":{"type":"LineString","coordinates":[[-73.9573047,40.8265285],[-73.9570203,40.8266057]]},"properties":{}},{"type":"Feature","geometry":{"type":"LineString","coordinates":[[-73.95372,40.8275492],[-73.9538208,40.8276053]]},"properties":{}},{"type":"Feature","geometry":{"type":"LineString","coordinates":[[-73.9576909,40.8239631],[-73.9575997,40.8239286]]},"properties":{}},{"type":"Feature","geometry":{"type":"LineString","coordinates":[[-73.9587619,40.8244089],[-73.9589274,40.8244725],[-73.9589462,40.82444],[-73.9588764,40.8244116]]},"properties":{}},{"type":"Feature","geometry":{"type":"LineString","coordinates":[[-73.9846893,40.7861492],[-73.9847305,40.7861178],[-73.9847732,40.7860729],[-73.9848013,40.7860385]]},"properties":{}},{"type":"Feature","geometry":{"type":"LineString","coordinates":[[-73.9568628,40.8100258],[-73.9569324,40.8100517]]},"properties":{}},{"type":"Feature","geometry":{"type":"LineString","coordinates":[[-73.973454,40.7937908],[-73.9734769,40.7937597]]},"properties":{}},{"type":"Feature","geometry":{"type":"LineString","coordinates":[[-73.9731356,40.7942231],[-73.973155,40.7941968]]},"properties":{}},{"type":"Feature","geometry":{"type":"LineString","coordinates":[[-73.961884,40.80741],[-73.9619458,40.8073263]]},"properties":{}},{"type":"Feature","geometry":{"type":"LineString","coordinates":[[-73.9617143,40.8074412],[-73.9617286,40.8074469],[-73.9618271,40.807494]]},"properties":{}},{"type":"Feature","geometry":{"type":"LineString","coordinates":[[-73.9617808,40.8100317],[-73.9617191,40.8101201],[-73.9617617,40.8101381],[-73.9617567,40.810145]]},"properties":{}},{"type":"Feature","geometry":{"type":"LineString","coordinates":[[-73.9627297,40.8077689],[-73.9627923,40.8076884]]},"properties":{}},{"type":"Feature","geometry":{"type":"LineString","coordinates":[[-73.9746011,40.7966791],[-73.9745231,40.7966346]]},"properties":{}},{"type":"Feature","geometry":{"type":"LineString","coordinates":[[-73.974544,40.7967568],[-73.9744475,40.7967264]]},"properties":{}},{"type":"Feature","geometry":{"type":"LineString","coordinates":[[-73.9646317,40.8114609],[-73.9645178,40.8115824],[-73.9644788,40.8116177],[-73.9643985,40.8116777],[-73.9642288,40.8117821]]},"properties":{}},{"type":"Feature","geometry":{"type":"LineString","coordinates":[[-73.9657602,40.8111435],[-73.9656494,40.8111965],[-73.9655402,40.8112232],[-73.9654304,40.8112393],[-73.965332,40.8112354],[-73.9652464,40.8112192],[-73.9651836,40.8111939],[-73.9650921,40.8111497]]},"properties":{}},{"type":"Feature","geometry":{"type":"LineString","coordinates":[[-73.9841221,40.7857541],[-73.984128,40.7857967],[-73.9841441,40.7858407],[-73.9841653,40.7858793],[-73.984189,40.785911],[-73.9842169,40.785937],[-73.9842528,40.7859585]]},"properties":{}},{"type":"Feature","geometry":{"type":"LineString","coordinates":[[-73.9630488,40.8087435],[-73.9628968,40.8086784]]},"properties":{}},{"type":"Feature","geometry":{"type":"LineString","coordinates":[[-73.9631447,40.8080504],[-73.9631349,40.8080646]]},"properties":{}},{"type":"Feature","geometry":{"type":"LineString","coordinates":[[-73.9606267,40.8097473],[-73.9604611,40.8096796]]},"properties":{}},{"type":"Feature","geometry":{"type":"LineString","coordinates":[[-73.9607892,40.8098138],[-73.9609551,40.8098817]]},"properties":{}},{"type":"Feature","geometry":{"type":"LineString","coordinates":[[-73.9610625,40.8072276],[-73.9610012,40.8072019]]},"properties":{}},{"type":"Feature","geometry":{"type":"LineString","coordinates":[[-73.9610223,40.8098727],[-73.9610973,40.8097676]]},"properties":{}},{"type":"Feature","geometry":{"type":"LineString","coordinates":[[-73.9609049,40.8076789],[-73.9607093,40.8075966]]},"properties":{}},{"type":"Feature","geometry":{"type":"LineString","coordinates":[[-73.9604233,40.8096181],[-73.9604877,40.809528]]},"properties":{}},{"type":"Feature","geometry":{"type":"LineString","coordinates":[[-73.9606095,40.807716],[-73.9606878,40.8077499]]},"properties":{}},{"type":"Feature","geometry":{"type":"LineString","coordinates":[[-73.9608031,40.8076879],[-73.9609109,40.8077346]]},"properties":{}},{"type":"Feature","geometry":{"type":"LineString","coordinates":[[-73.9606869,40.8078394],[-73.9607632,40.8078716]]},"properties":{}},{"type":"Feature","geometry":{"type":"LineString","coordinates":[[-73.9624309,40.8084738],[-73.9625205,40.8085139]]},"properties":{}},{"type":"Feature","geometry":{"type":"LineString","coordinates":[[-73.9495201,40.8345061],[-73.9495727,40.8343198]]},"properties":{}},{"type":"Feature","geometry":{"type":"LineString","coordinates":[[-73.9493905,40.8206188],[-73.9493513,40.8206027]]},"properties":{}},{"type":"Feature","geometry":{"type":"LineString","coordinates":[[-73.9489472,40.8212532],[-73.9489081,40.8212371]]},"properties":{}},{"type":"Feature","geometry":{"type":"LineString","coordinates":[[-73.9495511,40.8206849],[-73.9495373,40.8206792]]},"properties":{}},{"type":"Feature","geometry":{"type":"LineString","coordinates":[[-73.9490956,40.8213143],[-73.9490757,40.8213062]]},"properties":{}},{"type":"Feature","geometry":{"type":"LineString","coordinates":[[-73.9496643,40.8207316],[-73.949678,40.8207372]]},"properties":{}},{"type":"Feature","geometry":{"type":"LineString","coordinates":[[-73.9492311,40.8212394],[-73.9492426,40.8212234]]},"properties":{}},{"type":"Feature","geometry":{"type":"LineString","coordinates":[[-73.9492393,40.8213735],[-73.9492131,40.8213627]]},"properties":{}},{"type":"Feature","geometry":{"type":"LineString","coordinates":[[-73.9492638,40.8209788],[-73.949242,40.8209696]]},"properties":{}},{"type":"Feature","geometry":{"type":"LineString","coordinates":[[-73.9498025,40.821195],[-73.9498209,40.8212026]]},"properties":{}},{"type":"Feature","geometry":{"type":"LineString","coordinates":[[-73.9491551,40.8209329],[-73.9491354,40.8209246]]},"properties":{}},{"type":"Feature","geometry":{"type":"LineString","coordinates":[[-73.9495051,40.8210725],[-73.9495616,40.8210958]]},"properties":{}},{"type":"Feature","geometry":{"type":"LineString","coordinates":[[-73.9499415,40.8212522],[-73.9499703,40.8212641]]},"properties":{}},{"type":"Feature","geometry":{"type":"LineString","coordinates":[[-73.9500896,40.8213132],[-73.9501162,40.8213241]]},"properties":{}},{"type":"Feature","geometry":{"type":"LineString","coordinates":[[-73.9495694,40.8207687],[-73.9495866,40.8207449]]},"properties":{}},{"type":"Feature","geometry":{"type":"LineString","coordinates":[[-73.9669537,40.8084116],[-73.9670216,40.808345]]},"properties":{}},{"type":"Feature","geometry":{"type":"LineString","coordinates":[[-73.9719222,40.8007897],[-73.9718104,40.800947]]},"properties":{}},{"type":"Feature","geometry":{"type":"LineString","coordinates":[[-73.9669537,40.8084116],[-73.966884,40.8084752]]},"properties":{}},{"type":"Feature","geometry":{"type":"LineString","coordinates":[[-73.969751,40.8037633],[-73.9698134,40.8036746]]},"properties":{}},{"type":"Feature","geometry":{"type":"LineString","coordinates":[[-73.966197,40.8090805],[-73.9663406,40.808986],[-73.9664245,40.8089716]]},"properties":{}},{"type":"Feature","geometry":{"type":"LineString","coordinates":[[-73.9872995,40.7817558],[-73.9872505,40.7817472],[-73.9871872,40.7817297],[-73.987128,40.7817075],[-73.9870866,40.7816853]]},"properties":{}},{"type":"Feature","geometry":{"type":"LineString","coordinates":[[-73.962308,40.8075899],[-73.9623663,40.8075087]]},"properties":{}},{"type":"Feature","geometry":{"type":"LineString","coordinates":[[-73.9628035,40.8078972],[-73.962789,40.807891],[-73.9626742,40.8078423]]},"properties":{}},{"type":"Feature","geometry":{"type":"LineString","coordinates":[[-73.9698593,40.8036674],[-73.9699199,40.8036886]]},"properties":{}},{"type":"Feature","geometry":{"type":"LineString","coordinates":[[-73.9682715,40.8065552],[-73.9685426,40.8066819]]},"properties":{}},{"type":"Feature","geometry":{"type":"LineString","coordinates":[[-73.9694525,40.8053315],[-73.9692984,40.8052873],[-73.9691192,40.8052616],[-73.9689997,40.8052549]]},"properties":{}},{"type":"Feature","geometry":{"type":"LineString","coordinates":[[-73.9640987,40.8127076],[-73.9640365,40.8127359]]},"properties":{}},{"type":"Feature","geometry":{"type":"LineString","coordinates":[[-73.9698092,40.804066],[-73.9697584,40.8039104]]},"properties":{}},{"type":"Feature","geometry":{"type":"LineString","coordinates":[[-73.9701658,40.8033699],[-73.9704674,40.8033162]]},"properties":{}},{"type":"Feature","geometry":{"type":"LineString","coordinates":[[-73.9890378,40.7783874],[-73.9888505,40.7783114]]},"properties":{}},{"type":"Feature","geometry":{"type":"LineString","coordinates":[[-73.9858698,40.7835292],[-73.9858749,40.7835533],[-73.9858936,40.7836163],[-73.9859239,40.7836754],[-73.985962,40.7837216],[-73.9860125,40.7837662],[-73.9860766,40.7838124],[-73.9861302,40.7838362]]},"properties":{}},{"type":"Feature","geometry":{"type":"LineString","coordinates":[[-73.9936833,40.7734344],[-73.9936131,40.7734055]]},"properties":{}},{"type":"Feature","geometry":{"type":"LineString","coordinates":[[-73.9905052,40.7797922],[-73.9904836,40.7797933]]},"properties":{}},{"type":"Feature","geometry":{"type":"LineString","coordinates":[[-73.9892449,40.7798565],[-73.9892266,40.7798575]]},"properties":{}},{"type":"Feature","geometry":{"type":"LineString","coordinates":[[-73.9905746,40.7796954],[-73.990554,40.7796946]]},"properties":{}},{"type":"Feature","geometry":{"type":"LineString","coordinates":[[-73.9893263,40.7797561],[-73.9893014,40.7797512]]},"properties":{}},{"type":"Feature","geometry":{"type":"LineString","coordinates":[[-73.986691,40.7830176],[-73.9865993,40.7829954],[-73.986497,40.782985],[-73.9864208,40.7829837],[-73.9863303,40.7829954],[-73.9862461,40.7830195]]},"properties":{}},{"type":"Feature","geometry":{"type":"LineString","coordinates":[[-73.9621933,40.8077429],[-73.9621333,40.8078256]]},"properties":{}},{"type":"Feature","geometry":{"type":"LineString","coordinates":[[-73.9595393,40.8070516],[-73.9593826,40.8069835]]},"properties":{}},{"type":"Feature","geometry":{"type":"LineString","coordinates":[[-73.9636097,40.8075028],[-73.9636483,40.8074529]]},"properties":{}},{"type":"Feature","geometry":{"type":"LineString","coordinates":[[-73.9896056,40.7708044],[-73.9896438,40.7708199],[-73.9899357,40.7709388],[-73.9900749,40.7709955]]},"properties":{}},{"type":"Feature","geometry":{"type":"LineString","coordinates":[[-73.9625991,40.8062178],[-73.9625466,40.8061956]]},"properties":{}},{"type":"Feature","geometry":{"type":"LineString","coordinates":[[-73.949971,40.8309467],[-73.9501272,40.8307579]]},"properties":{}},{"type":"Feature","geometry":{"type":"LineString","coordinates":[[-73.9576417,40.8213629],[-73.9576177,40.8213956],[-73.9574637,40.8215959],[-73.9573698,40.8215679],[-73.957155,40.8216924],[-73.9570463,40.8218257]]},"properties":{}},{"type":"Feature","geometry":{"type":"LineString","coordinates":[[-73.955526,40.8227222],[-73.9556549,40.8227708]]},"properties":{}},{"type":"Feature","geometry":{"type":"LineString","coordinates":[[-73.960728,40.8159592],[-73.9607606,40.8160213],[-73.9607997,40.8160818],[-73.960833,40.816108],[-73.9608786,40.8161309],[-73.9609124,40.8161449],[-73.9609377,40.816153]]},"properties":{}},{"type":"Feature","geometry":{"type":"LineString","coordinates":[[-73.9610288,40.8161435],[-73.9609879,40.8161514],[-73.9609735,40.8161548],[-73.9609377,40.816153]]},"properties":{}},{"type":"Feature","geometry":{"type":"LineString","coordinates":[[-73.9614519,40.8169441],[-73.9612908,40.8170986],[-73.9612428,40.8171716],[-73.9611993,40.8172417],[-73.961176,40.8172872],[-73.9611539,40.8173344],[-73.9611387,40.8173729],[-73.9611244,40.8174188],[-73.9611131,40.8174682],[-73.9611029,40.8175173]]},"properties":{}},{"type":"Feature","geometry":{"type":"LineString","coordinates":[[-73.9622315,40.8125258],[-73.9622563,40.8124909],[-73.9622676,40.8124537]]},"properties":{}},{"type":"Feature","geometry":{"type":"LineString","coordinates":[[-73.9629968,40.807463],[-73.9629822,40.8074839]]},"properties":{}},{"type":"Feature","geometry":{"type":"LineString","coordinates":[[-73.9635113,40.8073949],[-73.9634726,40.8074451]]},"properties":{}},{"type":"Feature","geometry":{"type":"LineString","coordinates":[[-73.9617071,40.8066414],[-73.9616863,40.8066714]]},"properties":{}},{"type":"Feature","geometry":{"type":"LineString","coordinates":[[-73.96187,40.8067089],[-73.9618425,40.8067485]]},"properties":{}},{"type":"Feature","geometry":{"type":"LineString","coordinates":[[-73.9858628,40.7718959],[-73.9858929,40.7718523]]},"properties":{}},{"type":"Feature","geometry":{"type":"LineString","coordinates":[[-73.9856158,40.7728682],[-73.9854957,40.7728178]]},"properties":{}},{"type":"Feature","geometry":{"type":"LineString","coordinates":[[-73.9849744,40.7718936],[-73.9849386,40.7719435]]},"properties":{}},{"type":"Feature","geometry":{"type":"LineString","coordinates":[[-73.9848926,40.7718591],[-73.9848575,40.7719088]]},"properties":{}},{"type":"Feature","geometry":{"type":"LineString","coordinates":[[-73.9782428,40.7942303],[-73.9782041,40.7941942],[-73.9781685,40.7941689],[-73.9781288,40.7941522],[-73.978071,40.7941419],[-73.9779336,40.7941363]]},"properties":{}},{"type":"Feature","geometry":{"type":"LineString","coordinates":[[-73.9799137,40.7912366],[-73.9799806,40.79116],[-73.9800485,40.7910647],[-73.9800797,40.7910055]]},"properties":{}},{"type":"Feature","geometry":{"type":"LineString","coordinates":[[-73.9792693,40.7920268],[-73.9792514,40.791955],[-73.9792186,40.7919261]]},"properties":{}},{"type":"Feature","geometry":{"type":"LineString","coordinates":[[-73.9792693,40.7920268],[-73.9791818,40.7920337],[-73.9791299,40.7920196]]},"properties":{}},{"type":"Feature","geometry":{"type":"LineString","coordinates":[[-73.9789756,40.7924433],[-73.9788118,40.7923746]]},"properties":{}},{"type":"Feature","geometry":{"type":"LineString","coordinates":[[-73.9823441,40.7885035],[-73.9823812,40.7883762],[-73.9824354,40.7882507],[-73.9824997,40.7881449],[-73.9825359,40.7880764],[-73.9825346,40.7880237],[-73.9825132,40.7879556],[-73.9824279,40.7878567]]},"properties":{}},{"type":"Feature","geometry":{"type":"LineString","coordinates":[[-73.9595101,40.8085662],[-73.9595283,40.808541],[-73.9595306,40.8085382]]},"properties":{}},{"type":"Feature","geometry":{"type":"LineString","coordinates":[[-73.9572801,40.8099145],[-73.9572907,40.8099122]]},"properties":{}},{"type":"Feature","geometry":{"type":"LineString","coordinates":[[-73.9572475,40.8097345],[-73.9572697,40.8097361]]},"properties":{}},{"type":"Feature","geometry":{"type":"LineString","coordinates":[[-73.9572969,40.8099109],[-73.9572992,40.8099104]]},"properties":{}},{"type":"Feature","geometry":{"type":"LineString","coordinates":[[-73.9620835,40.8078965],[-73.9620229,40.8079864]]},"properties":{}},{"type":"Feature","geometry":{"type":"LineString","coordinates":[[-73.9580086,40.8121646],[-73.9580457,40.8121119],[-73.9580878,40.8120675],[-73.9581272,40.8120354],[-73.9582034,40.8119984],[-73.958324,40.8119501],[-73.9583847,40.8119295]]},"properties":{}},{"type":"Feature","geometry":{"type":"LineString","coordinates":[[-73.9624252,40.8072088],[-73.9624032,40.8072402]]},"properties":{}},{"type":"Feature","geometry":{"type":"LineString","coordinates":[[-73.9629914,40.8066506],[-73.9630095,40.8066256]]},"properties":{}},{"type":"Feature","geometry":{"type":"LineString","coordinates":[[-73.9626836,40.8073183],[-73.962673,40.8073329],[-73.9626609,40.8073494]]},"properties":{}},{"type":"Feature","geometry":{"type":"LineString","coordinates":[[-73.9574698,40.809905],[-73.9574263,40.8098867],[-73.9574237,40.8098902]]},"properties":{}},{"type":"Feature","geometry":{"type":"LineString","coordinates":[[-73.9575515,40.8101704],[-73.9575522,40.8101694]]},"properties":{}},{"type":"Feature","geometry":{"type":"LineString","coordinates":[[-73.9575401,40.8101864],[-73.9575477,40.8101756]]},"properties":{}},{"type":"Feature","geometry":{"type":"LineString","coordinates":[[-73.9568137,40.8099273],[-73.9568338,40.8099358]]},"properties":{}},{"type":"Feature","geometry":{"type":"LineString","coordinates":[[-73.9566681,40.8100319],[-73.9566846,40.8100179]]},"properties":{}},{"type":"Feature","geometry":{"type":"LineString","coordinates":[[-73.9568647,40.8099484],[-73.9568817,40.809954]]},"properties":{}},{"type":"Feature","geometry":{"type":"LineString","coordinates":[[-73.95662795888003,40.81005795688469],[-73.9566475,40.8100456]]},"properties":{}},{"type":"Feature","geometry":{"type":"LineString","coordinates":[[-73.9622678,40.8060309],[-73.9622828,40.8060112]]},"properties":{}},{"type":"Feature","geometry":{"type":"LineString","coordinates":[[-73.956949,40.8100544],[-73.9570175,40.8100438]]},"properties":{}},{"type":"Feature","geometry":{"type":"LineString","coordinates":[[-73.9567305,40.809968],[-73.9567401,40.8099534]]},"properties":{}},{"type":"Feature","geometry":{"type":"LineString","coordinates":[[-73.9567749,40.8099157],[-73.9567919,40.8099202]]},"properties":{}},{"type":"Feature","geometry":{"type":"LineString","coordinates":[[-73.9567036,40.8100008],[-73.9567164,40.8099862]]},"properties":{}},{"type":"Feature","geometry":{"type":"LineString","coordinates":[[-73.9615796,40.8135924],[-73.9613738,40.8135072]]},"properties":{}},{"type":"Feature","geometry":{"type":"LineString","coordinates":[[-73.9715807,40.7996475],[-73.971573,40.7996585]]},"properties":{}},{"type":"Feature","geometry":{"type":"LineString","coordinates":[[-73.9715058,40.7997543],[-73.9714977,40.7997659]]},"properties":{}},{"type":"Feature","geometry":{"type":"LineString","coordinates":[[-73.9735328,40.7987442],[-73.9733021,40.7986456]]},"properties":{}},{"type":"Feature","geometry":{"type":"LineString","coordinates":[[-73.9612875,40.8073898],[-73.9612992,40.8073753]]},"properties":{}},{"type":"Feature","geometry":{"type":"LineString","coordinates":[[-73.9680847,40.8018426],[-73.9681123,40.8018416]]},"properties":{}},{"type":"Feature","geometry":{"type":"LineString","coordinates":[[-73.9677376,40.8057153],[-73.9677717,40.8057537],[-73.9678088,40.8057891],[-73.9678433,40.8058117],[-73.9679136,40.8058293]]},"properties":{}},{"type":"Feature","geometry":{"type":"LineString","coordinates":[[-73.9722347,40.8020789],[-73.9723164,40.8021097]]},"properties":{}},{"type":"Feature","geometry":{"type":"LineString","coordinates":[[-73.9720765,40.8022982],[-73.9722347,40.8020789]]},"properties":{}},{"type":"Feature","geometry":{"type":"LineString","coordinates":[[-73.9692913,40.8066097],[-73.9692118,40.8067656]]},"properties":{}},{"type":"Feature","geometry":{"type":"LineString","coordinates":[[-73.9617594,40.8092905],[-73.9617738,40.8092706]]},"properties":{}},{"type":"Feature","geometry":{"type":"LineString","coordinates":[[-73.9617849,40.8092553],[-73.9617976,40.8092376]]},"properties":{}},{"type":"Feature","geometry":{"type":"LineString","coordinates":[[-73.9617567,40.810145],[-73.961732,40.8101786],[-73.9616893,40.8101607],[-73.9616728,40.8101837]]},"properties":{}},{"type":"Feature","geometry":{"type":"LineString","coordinates":[[-73.9616728,40.8101837],[-73.9616492,40.8102143]]},"properties":{}},{"type":"Feature","geometry":{"type":"LineString","coordinates":[[-73.9582986,40.8115929],[-73.9582999,40.81162],[-73.9583045,40.8116374],[-73.9583125,40.8116662],[-73.9583125,40.8116845],[-73.9583097,40.8117045],[-73.958301,40.8117276],[-73.9582861,40.8117485],[-73.9582671,40.8117672],[-73.9582493,40.8117833]]},"properties":{}},{"type":"Feature","geometry":{"type":"LineString","coordinates":[[-73.9702875,40.8018085],[-73.9702626,40.801798]]},"properties":{}},{"type":"Feature","geometry":{"type":"LineString","coordinates":[[-73.9909862,40.773801],[-73.9909807,40.7738088]]},"properties":{}},{"type":"Feature","geometry":{"type":"LineString","coordinates":[[-73.9910365,40.7736545],[-73.99101,40.7736434]]},"properties":{}},{"type":"Feature","geometry":{"type":"LineString","coordinates":[[-73.9909334,40.7735824],[-73.9909165,40.7736086]]},"properties":{}},{"type":"Feature","geometry":{"type":"LineString","coordinates":[[-73.987115,40.77144],[-73.9871347,40.771448]]},"properties":{}},{"type":"Feature","geometry":{"type":"LineString","coordinates":[[-73.9871548,40.7714562],[-73.9872136,40.7714817]]},"properties":{}},{"type":"Feature","geometry":{"type":"LineString","coordinates":[[-73.9905638,40.7737212],[-73.9905276,40.7737059]]},"properties":{}},{"type":"Feature","geometry":{"type":"LineString","coordinates":[[-73.986558,40.7710057],[-73.986569,40.7709911]]},"properties":{}},{"type":"Feature","geometry":{"type":"LineString","coordinates":[[-73.9593288,40.8127861],[-73.9593576,40.8125845],[-73.9593273,40.8124269],[-73.9592752,40.8123695]]},"properties":{}},{"type":"Feature","geometry":{"type":"LineString","coordinates":[[-73.9595691,40.8124191],[-73.9596117,40.8123342],[-73.959681,40.8122635],[-73.9597785,40.812212]]},"properties":{}},{"type":"Feature","geometry":{"type":"LineString","coordinates":[[-73.9887782,40.7744087],[-73.9887431,40.7742642]]},"properties":{}},{"type":"Feature","geometry":{"type":"LineString","coordinates":[[-73.9878187,40.7700992],[-73.9877214,40.7700587],[-73.9876332,40.770022]]},"properties":{}},{"type":"Feature","geometry":{"type":"LineString","coordinates":[[-73.9919512,40.7729332],[-73.9919193,40.7729784]]},"properties":{}},{"type":"Feature","geometry":{"type":"LineString","coordinates":[[-73.9905107,40.7718256],[-73.990489,40.771816]]},"properties":{}},{"type":"Feature","geometry":{"type":"LineString","coordinates":[[-73.990431,40.7719356],[-73.9904101,40.7719268]]},"properties":{}},{"type":"Feature","geometry":{"type":"LineString","coordinates":[[-73.9610757,40.8163652],[-73.961016,40.8164802],[-73.9609738,40.8165866],[-73.9609572,40.81664]]},"properties":{}},{"type":"Feature","geometry":{"type":"LineString","coordinates":[[-73.9607315,40.8164399],[-73.9605207,40.8164739]]},"properties":{}},{"type":"Feature","geometry":{"type":"LineString","coordinates":[[-73.9497698,40.8314728],[-73.9498466,40.8315055],[-73.9499029,40.8315228],[-73.9499432,40.8315197],[-73.9499794,40.8315086],[-73.9500089,40.8314903],[-73.9500303,40.831468],[-73.9500377,40.8314147],[-73.9500277,40.8313858],[-73.9499955,40.8313569],[-73.9499814,40.8313178]]},"properties":{}},{"type":"Feature","geometry":{"type":"LineString","coordinates":[[-73.949256,40.831695],[-73.9493263,40.8316248],[-73.9493933,40.8315466],[-73.9494362,40.8314878],[-73.9495626,40.8314922]]},"properties":{}},{"type":"Feature","geometry":{"type":"LineString","coordinates":[[-73.9496118,40.8308493],[-73.9495288,40.83095],[-73.949462,40.830962]]},"properties":{}},{"type":"Feature","geometry":{"type":"LineString","coordinates":[[-73.9511589,40.8311596],[-73.9512152,40.8311636],[-73.9513079,40.8307585]]},"properties":{}},{"type":"Feature","geometry":{"type":"LineString","coordinates":[[-73.9900482,40.7742958],[-73.9900229,40.7742818]]},"properties":{}},{"type":"Feature","geometry":{"type":"LineString","coordinates":[[-73.9902091,40.7764225],[-73.9900314,40.7763456]]},"properties":{}},{"type":"Feature","geometry":{"type":"LineString","coordinates":[[-73.9507437,40.8289346],[-73.9507796,40.8289665],[-73.9507839,40.8290307],[-73.9507749,40.8290757]]},"properties":{}},{"type":"Feature","geometry":{"type":"LineString","coordinates":[[-73.9513562,40.8293638],[-73.9512837,40.8294727],[-73.951306,40.8294774],[-73.9513354,40.829443]]},"properties":{}},{"type":"Feature","geometry":{"type":"LineString","coordinates":[[-73.9507749,40.8290757],[-73.9507034,40.8291249],[-73.9506518,40.8291474],[-73.9505842,40.8291434]]},"properties":{}},{"type":"Feature","geometry":{"type":"LineString","coordinates":[[-73.989911,40.7771451],[-73.9897639,40.7770839]]},"properties":{}},{"type":"Feature","geometry":{"type":"LineString","coordinates":[[-73.9894868,40.7771835],[-73.9895095,40.7771882]]},"properties":{}},{"type":"Feature","geometry":{"type":"LineString","coordinates":[[-73.9896727,40.7768179],[-73.9896953,40.7768314]]},"properties":{}},{"type":"Feature","geometry":{"type":"LineString","coordinates":[[-73.9896661,40.7769319],[-73.9897033,40.7769482]]},"properties":{}},{"type":"Feature","geometry":{"type":"LineString","coordinates":[[-73.989529,40.7771007],[-73.9895852,40.7771205]]},"properties":{}},{"type":"Feature","geometry":{"type":"LineString","coordinates":[[-73.962062,40.8070928],[-73.9620902,40.8070555]]},"properties":{}},{"type":"Feature","geometry":{"type":"LineString","coordinates":[[-73.9614334,40.8087738],[-73.9614575,40.8087396]]},"properties":{}},{"type":"Feature","geometry":{"type":"LineString","coordinates":[[-73.9680737,40.7996269],[-73.9680906,40.7995925]]},"properties":{}},{"type":"Feature","geometry":{"type":"LineString","coordinates":[[-73.992721,40.7732623],[-73.9926815,40.7732389],[-73.9926175,40.7732804]]},"properties":{}},{"type":"Feature","geometry":{"type":"LineString","coordinates":[[-73.9927898,40.7731483],[-73.992783,40.7731313]]},"properties":{}},{"type":"Feature","geometry":{"type":"LineString","coordinates":[[-73.9926175,40.7732804],[-73.9925914,40.7732655]]},"properties":{}},{"type":"Feature","geometry":{"type":"LineString","coordinates":[[-73.9927728,40.773133],[-73.9927294,40.7731404]]},"properties":{}},{"type":"Feature","geometry":{"type":"LineString","coordinates":[[-73.9761603,40.7984016],[-73.9762053,40.7981983]]},"properties":{}},{"type":"Feature","geometry":{"type":"LineString","coordinates":[[-73.9922325,40.773559],[-73.9923373,40.7735787]]},"properties":{}},{"type":"Feature","geometry":{"type":"LineString","coordinates":[[-73.9884504,40.7747137],[-73.9885242,40.7747004]]},"properties":{}},{"type":"Feature","geometry":{"type":"LineString","coordinates":[[-73.9636732,40.813142],[-73.963556,40.8131109]]},"properties":{}},{"type":"Feature","geometry":{"type":"LineString","coordinates":[[-73.9637805,40.8135423],[-73.9638669,40.8135189]]},"properties":{}},{"type":"Feature","geometry":{"type":"LineString","coordinates":[[-73.9631904,40.8147567],[-73.9630777,40.8147262]]},"properties":{}},{"type":"Feature","geometry":{"type":"LineString","coordinates":[[-73.9615627,40.8133834],[-73.9614658,40.8135141],[-73.9614118,40.8134902],[-73.9614934,40.8133759],[-73.9614418,40.8133558]]},"properties":{}},{"type":"Feature","geometry":{"type":"LineString","coordinates":[[-73.9618085,40.8165515],[-73.9617891,40.8166151],[-73.9617574,40.8166746],[-73.9617156,40.8167535],[-73.9616318,40.8168301],[-73.9614519,40.8169441]]},"properties":{}},{"type":"Feature","geometry":{"type":"LineString","coordinates":[[-73.9629266,40.8137266],[-73.9629566,40.8136678]]},"properties":{}},{"type":"Feature","geometry":{"type":"LineString","coordinates":[[-73.9565641,40.8222846],[-73.9564648,40.8223457],[-73.9563816,40.8223672],[-73.9563338,40.8223725],[-73.9562392,40.822347]]},"properties":{}},{"type":"Feature","geometry":{"type":"LineString","coordinates":[[-73.9676215,40.8081051],[-73.967506,40.8081004],[-73.9674198,40.8081056],[-73.9673422,40.8081197],[-73.9672909,40.8081323],[-73.9672237,40.80816]]},"properties":{}},{"type":"Feature","geometry":{"type":"LineString","coordinates":[[-73.9716383,40.8028215],[-73.9716971,40.802845],[-73.9715348,40.8030835]]},"properties":{}},{"type":"Feature","geometry":{"type":"LineString","coordinates":[[-73.9715348,40.8030835],[-73.971614,40.803122]]},"properties":{}},{"type":"Feature","geometry":{"type":"LineString","coordinates":[[-73.9706188,40.8045381],[-73.9706559,40.8045535],[-73.9705657,40.8046901]]},"properties":{}},{"type":"Feature","geometry":{"type":"LineString","coordinates":[[-73.9704277,40.8048211],[-73.9704618,40.8048332],[-73.9705657,40.8046901]]},"properties":{}},{"type":"Feature","geometry":{"type":"LineString","coordinates":[[-73.970487,40.8044866],[-73.9706188,40.8045381]]},"properties":{}},{"type":"Feature","geometry":{"type":"LineString","coordinates":[[-73.9762599,40.7976536],[-73.9763684,40.797604],[-73.9764467,40.7975817],[-73.9765219,40.7975694],[-73.9766001,40.7975694],[-73.9766386,40.7975725]]},"properties":{}},{"type":"Feature","geometry":{"type":"LineString","coordinates":[[-73.9746963,40.796733],[-73.9747646,40.7967716]]},"properties":{}},{"type":"Feature","geometry":{"type":"LineString","coordinates":[[-73.9868199,40.7830224],[-73.986852,40.7829734]]},"properties":{}},{"type":"Feature","geometry":{"type":"LineString","coordinates":[[-73.9868621,40.7822096],[-73.9869095,40.7822298]]},"properties":{}},{"type":"Feature","geometry":{"type":"LineString","coordinates":[[-73.9879803,40.7814837],[-73.988008,40.7814896]]},"properties":{}},{"type":"Feature","geometry":{"type":"LineString","coordinates":[[-73.9922979,40.7725869],[-73.9923562,40.7725539]]},"properties":{}},{"type":"Feature","geometry":{"type":"LineString","coordinates":[[-73.9866346,40.7832243],[-73.9866156,40.783217]]},"properties":{}},{"type":"Feature","geometry":{"type":"LineString","coordinates":[[-73.9863168,40.7836889],[-73.9862959,40.7836805]]},"properties":{}},{"type":"Feature","geometry":{"type":"LineString","coordinates":[[-73.9862002,40.7839129],[-73.9861666,40.78396]]},"properties":{}},{"type":"Feature","geometry":{"type":"LineString","coordinates":[[-73.9846893,40.7861492],[-73.9847086,40.7861684]]},"properties":{}},{"type":"Feature","geometry":{"type":"LineString","coordinates":[[-73.9848765,40.7827623],[-73.984849,40.7827726],[-73.9848088,40.7827943],[-73.9847728,40.7828253],[-73.9847441,40.7828612],[-73.9847175,40.7829183]]},"properties":{}},{"type":"Feature","geometry":{"type":"LineString","coordinates":[[-73.9842456,40.7837123],[-73.9842413,40.7836813],[-73.9842435,40.7836552],[-73.9842507,40.7836203],[-73.9842651,40.7835844],[-73.9842924,40.7835479],[-73.9843456,40.7834963]]},"properties":{}},{"type":"Feature","geometry":{"type":"LineString","coordinates":[[-73.9531702,40.8258139],[-73.9533671,40.825922]]},"properties":{}},{"type":"Feature","geometry":{"type":"LineString","coordinates":[[-73.9534465,40.8259647],[-73.9534792,40.8259801]]},"properties":{}},{"type":"Feature","geometry":{"type":"LineString","coordinates":[[-73.9875492,40.769987],[-73.9875021,40.7699674],[-73.987424,40.7699346]]},"properties":{}},{"type":"Feature","geometry":{"type":"LineString","coordinates":[[-73.9676882,40.8062724],[-73.9675869,40.8062267]]},"properties":{}},{"type":"Feature","geometry":{"type":"LineString","coordinates":[[-73.9674064,40.8061514],[-73.967459,40.8061708]]},"properties":{}},{"type":"Feature","geometry":{"type":"LineString","coordinates":[[-73.9700905,40.8022603],[-73.9701722,40.8022952],[-73.97018,40.8022989]]},"properties":{}},{"type":"Feature","geometry":{"type":"LineString","coordinates":[[-73.9700665,40.8023077],[-73.9701409,40.8023373],[-73.9701508,40.8023413]]},"properties":{}},{"type":"Feature","geometry":{"type":"LineString","coordinates":[[-73.9722213,40.7940708],[-73.9721716,40.794145]]},"properties":{}},{"type":"Feature","geometry":{"type":"LineString","coordinates":[[-73.9720486,40.7943052],[-73.9721086,40.7942264]]},"properties":{}},{"type":"Feature","geometry":{"type":"LineString","coordinates":[[-73.9743829,40.7979274],[-73.9743745,40.797961]]},"properties":{}},{"type":"Feature","geometry":{"type":"LineString","coordinates":[[-73.9747298,40.7968156],[-73.97465,40.7967903]]},"properties":{}},{"type":"Feature","geometry":{"type":"LineString","coordinates":[[-73.9750404,40.7966336],[-73.9750042,40.7966309],[-73.974975,40.796638],[-73.9749543,40.796648],[-73.9749378,40.7966674],[-73.9749368,40.7966685]]},"properties":{}},{"type":"Feature","geometry":{"type":"LineString","coordinates":[[-73.975331,40.7967978],[-73.9753329,40.7967941],[-73.9753334,40.796793],[-73.9753409,40.7967753],[-73.9753404,40.7967627],[-73.9753288,40.7967396],[-73.9753054,40.7967193]]},"properties":{}},{"type":"Feature","geometry":{"type":"LineString","coordinates":[[-73.9798105,40.7924194],[-73.9797369,40.7925082],[-73.9796882,40.7925403],[-73.9796423,40.7925485],[-73.9796219,40.7925442]]},"properties":{}},{"type":"Feature","geometry":{"type":"LineString","coordinates":[[-73.9797931,40.7913034],[-73.9799137,40.7912366]]},"properties":{}},{"type":"Feature","geometry":{"type":"LineString","coordinates":[[-73.9800037,40.7910196],[-73.9799815,40.7909972]]},"properties":{}},{"type":"Feature","geometry":{"type":"LineString","coordinates":[[-73.9799815,40.7909972],[-73.979943,40.7909979]]},"properties":{}},{"type":"Feature","geometry":{"type":"LineString","coordinates":[[-73.9800131,40.7910399],[-73.9800037,40.7910196]]},"properties":{}},{"type":"Feature","geometry":{"type":"LineString","coordinates":[[-73.9632707,40.8035185],[-73.9632335,40.8035135],[-73.9632022,40.8035179]]},"properties":{}},{"type":"Feature","geometry":{"type":"LineString","coordinates":[[-73.9740232,40.7979082],[-73.9739935,40.7979152],[-73.9739667,40.7979332],[-73.973944,40.7979544],[-73.9739259,40.7979771],[-73.9739083,40.7979911],[-73.9738892,40.7980028],[-73.9738652,40.7980131]]},"properties":{}},{"type":"Feature","geometry":{"type":"LineString","coordinates":[[-73.9732686,40.7985587],[-73.9732197,40.7985405]]},"properties":{}},{"type":"Feature","geometry":{"type":"LineString","coordinates":[[-73.9731796,40.7986694],[-73.9731372,40.7986517]]},"properties":{}},{"type":"Feature","geometry":{"type":"LineString","coordinates":[[-73.9676504,40.7960642],[-73.9676256,40.7960544]]},"properties":{}},{"type":"Feature","geometry":{"type":"LineString","coordinates":[[-73.9677901,40.7960772],[-73.9678269,40.7960311]]},"properties":{}},{"type":"Feature","geometry":{"type":"LineString","coordinates":[[-73.9638546,40.8012569],[-73.9638733,40.8012651]]},"properties":{}},{"type":"Feature","geometry":{"type":"LineString","coordinates":[[-73.9608306,40.8044106],[-73.9608178,40.8044288]]},"properties":{}},{"type":"Feature","geometry":{"type":"LineString","coordinates":[[-73.9613567,40.8046227],[-73.9613679,40.8046073]]},"properties":{}},{"type":"Feature","geometry":{"type":"LineString","coordinates":[[-73.9626186,40.8126296],[-73.9626125,40.8126383]]},"properties":{}},{"type":"Feature","geometry":{"type":"LineString","coordinates":[[-73.9627967,40.8060225],[-73.9628267,40.8059812]]},"properties":{}},{"type":"Feature","geometry":{"type":"LineString","coordinates":[[-73.9637287,40.8065241],[-73.963718,40.8065385]]},"properties":{}},{"type":"Feature","geometry":{"type":"LineString","coordinates":[[-73.9638096,40.8064132],[-73.9637906,40.8064392]]},"properties":{}},{"type":"Feature","geometry":{"type":"LineString","coordinates":[[-73.9630833,40.8139207],[-73.9631323,40.8139343]]},"properties":{}},{"type":"Feature","geometry":{"type":"LineString","coordinates":[[-73.9636595,40.8137697],[-73.9636942,40.8138301]]},"properties":{}},{"type":"Feature","geometry":{"type":"LineString","coordinates":[[-73.9630449,40.8129726],[-73.9630316,40.8129685]]},"properties":{}},{"type":"Feature","geometry":{"type":"LineString","coordinates":[[-73.9576417,40.8213629],[-73.9576858,40.8213801]]},"properties":{}},{"type":"Feature","geometry":{"type":"LineString","coordinates":[[-73.9695299,40.7963472],[-73.9695261,40.7963522]]},"properties":{}},{"type":"Feature","geometry":{"type":"LineString","coordinates":[[-73.9475032,40.8326763],[-73.9477109,40.8327818],[-73.9477957,40.8328235],[-73.9478232,40.8328235],[-73.9479322,40.8328653],[-73.9479652,40.832878],[-73.9483737,40.8330516],[-73.9488127,40.8332313]]},"properties":{}},{"type":"Feature","geometry":{"type":"LineString","coordinates":[[-73.9483429,40.8323132],[-73.9483996,40.832296],[-73.9489092,40.8325005],[-73.9493659,40.8326872]]},"properties":{}},{"type":"Feature","geometry":{"type":"LineString","coordinates":[[-73.974363,40.7979016],[-73.9743727,40.7979028]]},"properties":{}},{"type":"Feature","geometry":{"type":"LineString","coordinates":[[-73.9915146,40.7725975],[-73.9913455,40.7726011]]},"properties":{}},{"type":"Feature","geometry":{"type":"LineString","coordinates":[[-73.992254,40.773274],[-73.9922553,40.7732536]]},"properties":{}},{"type":"Feature","geometry":{"type":"LineString","coordinates":[[-73.9922462,40.773395],[-73.9922471,40.7733804]]},"properties":{}},{"type":"Feature","geometry":{"type":"LineString","coordinates":[[-73.9918413,40.7727565],[-73.991884,40.772737]]},"properties":{}},{"type":"Feature","geometry":{"type":"LineString","coordinates":[[-73.9917268,40.7728045],[-73.9917708,40.7727291]]},"properties":{}},{"type":"Feature","geometry":{"type":"LineString","coordinates":[[-73.9918717,40.7732384],[-73.9918926,40.7732181]]},"properties":{}},{"type":"Feature","geometry":{"type":"LineString","coordinates":[[-73.9922687,40.773043],[-73.9922705,40.7730161]]},"properties":{}},{"type":"Feature","geometry":{"type":"LineString","coordinates":[[-73.9923654,40.7733046],[-73.992348,40.7733131]]},"properties":{}},{"type":"Feature","geometry":{"type":"LineString","coordinates":[[-73.9923328,40.7733206],[-73.9923176,40.773328]]},"properties":{}},{"type":"Feature","geometry":{"type":"LineString","coordinates":[[-73.9912403,40.7767409],[-73.9912291,40.776751]]},"properties":{}},{"type":"Feature","geometry":{"type":"LineString","coordinates":[[-73.9522617,40.8212653],[-73.9522212,40.8213222]]},"properties":{}},{"type":"Feature","geometry":{"type":"LineString","coordinates":[[-73.9630984,40.808114],[-73.9630841,40.8081335]]},"properties":{}},{"type":"Feature","geometry":{"type":"LineString","coordinates":[[-73.9607667,40.8082435],[-73.9607785,40.8082273]]},"properties":{}},{"type":"Feature","geometry":{"type":"LineString","coordinates":[[-73.9608041,40.8081922],[-73.9608162,40.8081755]]},"properties":{}},{"type":"Feature","geometry":{"type":"LineString","coordinates":[[-73.9609017,40.8080581],[-73.9609231,40.8080288]]},"properties":{}},{"type":"Feature","geometry":{"type":"LineString","coordinates":[[-73.9610628,40.8074639],[-73.9610887,40.8074736]]},"properties":{}},{"type":"Feature","geometry":{"type":"LineString","coordinates":[[-73.9621333,40.8078256],[-73.962116,40.8078495]]},"properties":{}}]}