{"type":"FeatureCollection","features":[{"type":"Feature","geometry":{"type":"Point","coordinates":[-73.9820041,40.7855915]},"properties":{"n":80,"label":"W 80 St"}},{"type":"Feature","geometry":{"type":"Point","coordinates":[-73.9810702,40.788486]},"properties":{"n":84,"label":"W 84 St"}},{"type":"Feature","geometry":{"type":"Point","coordinates":[-73.9920933,40.7739469]},"properties":{"n":61,"label":"W 61 St"}},{"type":"Feature","geometry":{"type":"Point","coordinates":[-73.978619,40.7917878]},"properties":{"n":89,"label":"W 89 St"}},{"type":"Feature","geometry":{"type":"Point","coordinates":[-73.9832997,40.7843551]},"properties":{"n":78,"label":"W 78 St"}},{"type":"Feature","geometry":{"type":"Point","coordinates":[-73.9601312,40.8197265]},"properties":{"n":132,"label":"W 132 St"}},{"type":"Feature","geometry":{"type":"Point","coordinates":[-73.9888384,40.7774787]},"properties":{"n":67,"label":"W 67 St"}},{"type":"Feature","geometry":{"type":"Point","coordinates":[-73.96956,40.802938]},"properties":{"n":107,"label":"W 107 St"}},{"type":"Feature","geometry":{"type":"Point","coordinates":[-73.9736411,40.7971483]},"properties":{"n":98,"label":"W 98 St"}},{"type":"Feature","geometry":{"type":"Point","coordinates":[-73.9812269,40.7868921]},"properties":{"n":82,"label":"W 82 St"}},{"type":"Feature","geometry":{"type":"Point","coordinates":[-73.95483,40.824126]},"properties":{"n":140,"label":"W 140 St"}},{"type":"Feature","geometry":{"type":"Point","coordinates":[-73.9596517,40.8203291]},"properties":{"n":133,"label":"W 133 St"}},{"type":"Feature","geometry":{"type":"Point","coordinates":[-73.9798657,40.7906175]},"properties":{"n":87,"label":"W 87 St"}},{"type":"Feature","geometry":{"type":"Point","coordinates":[-73.9501081,40.8296117]},"properties":{"n":149,"label":"W 149 St"}},{"type":"Feature","geometry":{"type":"Point","coordinates":[-73.95631,40.8231276]},"properties":{"n":138,"label":"W 138 St"}},{"type":"Feature","geometry":{"type":"Point","coordinates":[-73.9762395,40.794825]},"properties":{"n":94,"label":"W 94 St"}},{"type":"Feature","geometry":{"type":"Point","coordinates":[-73.9776753,40.792175]},"properties":{"n":90,"label":"W 90 St"}},{"type":"Feature","geometry":{"type":"Point","coordinates":[-73.9657902,40.8088175]},"properties":{"n":116,"label":"W 116 St"}},{"type":"Feature","geometry":{"type":"Point","coordinates":[-73.967373,40.806127]},"properties":{"n":112,"label":"W 112 St"}},{"type":"Feature","geometry":{"type":"Point","coordinates":[-73.9811521,40.7876839]},"properties":{"n":83,"label":"W 83 St"}},{"type":"Feature","geometry":{"type":"Point","coordinates":[-73.98858,40.7781959]},"properties":{"n":68,"label":"W 68 St"}},{"type":"Feature","geometry":{"type":"Point","coordinates":[-73.970545,40.80159]},"properties":{"n":105,"label":"W 105 St"}},{"type":"Feature","geometry":{"type":"Point","coordinates":[-73.9794014,40.7912444]},"properties":{"n":88,"label":"W 88 St"}},{"type":"Feature","geometry":{"type":"Point","coordinates":[-73.9598117,40.8187841]},"properties":{"n":131,"label":"W 131 St"}},{"type":"Feature","geometry":{"type":"Point","coordinates":[-73.9537502,40.8253994]},"properties":{"n":142,"label":"W 142 St"}},{"type":"Feature","geometry":{"type":"Point","coordinates":[-73.9586191,40.8216922]},"properties":{"n":135,"label":"W 135 St"}},{"type":"Feature","geometry":{"type":"Point","coordinates":[-73.9504477,40.8289475]},"properties":{"n":148,"label":"W 148 St"}},{"type":"Feature","geometry":{"type":"Point","coordinates":[-73.9936483,40.7729617]},"properties":{"n":59,"label":"W 59 St"}},{"type":"Feature","geometry":{"type":"Point","coordinates":[-73.976574,40.7933236]},"properties":{"n":92,"label":"W 92 St"}},{"type":"Feature","geometry":{"type":"Point","coordinates":[-73.949688,40.830244]},"properties":{"n":150,"label":"W 150 St"}},{"type":"Feature","geometry":{"type":"Point","coordinates":[-73.9530658,40.8258457]},"properties":{"n":143,"label":"W 143 St"}},{"type":"Feature","geometry":{"type":"Point","coordinates":[-73.949256,40.831695]},"properties":{"n":152,"label":"W 152 St"}},{"type":"Feature","geometry":{"type":"Point","coordinates":[-73.9525777,40.8264614]},"properties":{"n":144,"label":"W 144 St"}},{"type":"Feature","geometry":{"type":"Point","coordinates":[-73.9616769,40.8112551]},"properties":{"n":121,"label":"W 121 St"}},{"type":"Feature","geometry":{"type":"Point","coordinates":[-73.9561111,40.8222347]},"properties":{"n":137,"label":"W 137 St"}},{"type":"Feature","geometry":{"type":"Point","coordinates":[-73.9763032,40.7940047]},"properties":{"n":93,"label":"W 93 St"}},{"type":"Feature","geometry":{"type":"Point","coordinates":[-73.9677213,40.8054609]},"properties":{"n":111,"label":"W 111 St"}},{"type":"Feature","geometry":{"type":"Point","coordinates":[-73.966476,40.8082218]},"properties":{"n":115,"label":"W 115 St"}},{"type":"Feature","geometry":{"type":"Point","coordinates":[-73.9711777,40.8010338]},"properties":{"n":104,"label":"W 104 St"}},{"type":"Feature","geometry":{"type":"Point","coordinates":[-73.9584715,40.8206298]},"properties":{"n":134,"label":"W 134 St"}},{"type":"Feature","geometry":{"type":"Point","coordinates":[-73.9844643,40.7831868]},"properties":{"n":76,"label":"W 76 St"}},{"type":"Feature","geometry":{"type":"Point","coordinates":[-73.9509088,40.8283175]},"properties":{"n":147,"label":"W 147 St"}},{"type":"Feature","geometry":{"type":"Point","coordinates":[-73.9910498,40.7726974]},"properties":{"n":60,"label":"W 60 St"}},{"type":"Feature","geometry":{"type":"Point","coordinates":[-73.9567474,40.8216938]},"properties":{"n":136,"label":"W 136 St"}},{"type":"Feature","geometry":{"type":"Point","coordinates":[-73.9770873,40.792722]},"properties":{"n":91,"label":"W 91 St"}},{"type":"Feature","geometry":{"type":"Point","coordinates":[-73.9497813,40.8327035]},"properties":{"n":153,"label":"W 153 St"}},{"type":"Feature","geometry":{"type":"Point","coordinates":[-73.9752362,40.7961053]},"properties":{"n":96,"label":"W 96 St"}},{"type":"Feature","geometry":{"type":"Point","coordinates":[-73.971924,40.799705]},"properties":{"n":102,"label":"W 102 St"}},{"type":"Feature","geometry":{"type":"Point","coordinates":[-73.9808538,40.7892552]},"properties":{"n":85,"label":"W 85 St"}},{"type":"Feature","geometry":{"type":"Point","coordinates":[-73.985081,40.781771]},"properties":{"n":74,"label":"W 74 St"}},{"type":"Feature","geometry":{"type":"Point","coordinates":[-73.9840936,40.7856022]},"properties":{"n":79,"label":"W 79 St"}},{"type":"Feature","geometry":{"type":"Point","coordinates":[-73.9914364,40.7744841]},"properties":{"n":62,"label":"W 62 St"}},{"type":"Feature","geometry":{"type":"Point","coordinates":[-73.963002,40.8126411]},"properties":{"n":122,"label":"W 122 St"}},{"type":"Feature","geometry":{"type":"Point","coordinates":[-73.949462,40.830962]},"properties":{"n":151,"label":"W 151 St"}},{"type":"Feature","geometry":{"type":"Point","coordinates":[-73.966962,40.8075991]},"properties":{"n":114,"label":"W 114 St"}},{"type":"Feature","geometry":{"type":"Point","coordinates":[-73.97146,40.800334]},"properties":{"n":103,"label":"W 103 St"}},{"type":"Feature","geometry":{"type":"Point","coordinates":[-73.9643865,40.8107511]},"properties":{"n":119,"label":"W 119 St"}},{"type":"Feature","geometry":{"type":"Point","coordinates":[-73.9692822,40.8036478]},"properties":{"n":108,"label":"W 108 St"}},{"type":"Feature","geometry":{"type":"Point","coordinates":[-73.9734588,40.7978915]},"properties":{"n":99,"label":"W 99 St"}},{"type":"Feature","geometry":{"type":"Point","coordinates":[-73.9879995,40.7795541]},"properties":{"n":70,"label":"W 70 St"}},{"type":"Feature","geometry":{"type":"Point","coordinates":[-73.9513637,40.8276981]},"properties":{"n":146,"label":"W 146 St"}},{"type":"Feature","geometry":{"type":"Point","coordinates":[-73.9602609,40.818157]},"properties":{"n":130,"label":"W 130 St"}},{"type":"Feature","geometry":{"type":"Point","coordinates":[-73.9901444,40.7755748]},"properties":{"n":64,"label":"W 64 St"}},{"type":"Feature","geometry":{"type":"Point","coordinates":[-73.9553367,40.8235401]},"properties":{"n":139,"label":"W 139 St"}},{"type":"Feature","geometry":{"type":"Point","coordinates":[-73.9725352,40.7991459]},"properties":{"n":101,"label":"W 101 St"}},{"type":"Feature","geometry":{"type":"Point","coordinates":[-73.9760092,40.7954937]},"properties":{"n":95,"label":"W 95 St"}},{"type":"Feature","geometry":{"type":"Point","coordinates":[-73.9907549,40.7750338]},"properties":{"n":63,"label":"W 63 St"}},{"type":"Feature","geometry":{"type":"Point","coordinates":[-73.9681787,40.8049436]},"properties":{"n":110,"label":"W 110 St"}},{"type":"Feature","geometry":{"type":"Point","coordinates":[-73.9512706,40.8314619]},"properties":{"n":158,"label":"W 158 St"}},{"type":"Feature","geometry":{"type":"Point","coordinates":[-73.9493166,40.8342798]},"properties":{"n":155,"label":"W 155 St"}},{"type":"Feature","geometry":{"type":"Point","coordinates":[-73.9742913,40.7966023]},"properties":{"n":97,"label":"W 97 St"}},{"type":"Feature","geometry":{"type":"Point","coordinates":[-73.9847754,40.7824893]},"properties":{"n":75,"label":"W 75 St"}},{"type":"Feature","geometry":{"type":"Point","coordinates":[-73.9896122,40.7761698]},"properties":{"n":65,"label":"W 65 St"}},{"type":"Feature","geometry":{"type":"Point","coordinates":[-73.9891559,40.7768348]},"properties":{"n":66,"label":"W 66 St"}},{"type":"Feature","geometry":{"type":"Point","coordinates":[-73.9875459,40.780231]},"properties":{"n":71,"label":"W 71 St"}},{"type":"Feature","geometry":{"type":"Point","coordinates":[-73.9883218,40.7788958]},"properties":{"n":69,"label":"W 69 St"}},{"type":"Feature","geometry":{"type":"Point","coordinates":[-73.9700504,40.8022679]},"properties":{"n":106,"label":"W 106 St"}},{"type":"Feature","geometry":{"type":"Point","coordinates":[-73.9814421,40.7861933]},"properties":{"n":81,"label":"W 81 St"}},{"type":"Feature","geometry":{"type":"Point","coordinates":[-73.9610583,40.8186803]},"properties":{"n":125,"label":"W 125 St"}},{"type":"Feature","geometry":{"type":"Point","coordinates":[-73.9520649,40.8271028]},"properties":{"n":145,"label":"W 145 St"}},{"type":"Feature","geometry":{"type":"Point","coordinates":[-73.9803596,40.7899463]},"properties":{"n":86,"label":"W 86 St"}},{"type":"Feature","geometry":{"type":"Point","coordinates":[-73.9640405,40.8113749]},"properties":{"n":120,"label":"W 120 St"}},{"type":"Feature","geometry":{"type":"Point","coordinates":[-73.9673729,40.8069441]},"properties":{"n":113,"label":"W 113 St"}},{"type":"Feature","geometry":{"type":"Point","coordinates":[-73.9869955,40.7807084]},"properties":{"n":72,"label":"W 72 St"}},{"type":"Feature","geometry":{"type":"Point","coordinates":[-73.9838929,40.7837916]},"properties":{"n":77,"label":"W 77 St"}},{"type":"Feature","geometry":{"type":"Point","coordinates":[-73.9594934,40.8170071]},"properties":{"n":129,"label":"W 129 St"}},{"type":"Feature","geometry":{"type":"Point","coordinates":[-73.9853731,40.7810707]},"properties":{"n":73,"label":"W 73 St"}},{"type":"Feature","geometry":{"type":"Point","coordinates":[-73.954347,40.824739]},"properties":{"n":141,"label":"W 141 St"}},{"type":"Feature","geometry":{"type":"Point","coordinates":[-73.9731448,40.7985815]},"properties":{"n":100,"label":"W 100 St"}},{"type":"Feature","geometry":{"type":"Point","coordinates":[-73.9578477,40.8163297]},"properties":{"n":126,"label":"W 126 St"}},{"type":"Feature","geometry":{"type":"Point","coordinates":[-73.9605437,40.8124135]},"properties":{"n":123,"label":"W 123 St"}},{"type":"Feature","geometry":{"type":"Point","coordinates":[-73.968647,40.804206]},"properties":{"n":109,"label":"W 109 St"}}]}