{"type":"FeatureCollection","features":[{"type":"Feature","properties":{"i":0},"geometry":{"type":"MultiLineString","coordinates":[[[-74.003194,40.764506],[-74.003336,40.764571],[-74.003375,40.764631],[-74.003371,40.764677],[-74.003246,40.764834],[-74.003151,40.764864],[-74.003069,40.764859],[-74.001803,40.764327],[-74.001692,40.764335],[-74.001282,40.764168],[-74.001222,40.764121],[-74.001207,40.764074],[-73.999933,40.763533],[-73.999739,40.76364],[-73.99935,40.764171],[-74.002389,40.765454],[-74.002457,40.76552],[-74.002443,40.765604],[-74.002163,40.76596],[-74.00205,40.765999],[-74.001908,40.765984],[-74.000043,40.765175],[-73.998941,40.764725],[-73.998734,40.765008],[-73.998825,40.765099],[-73.998838,40.765168],[-73.998815,40.765248],[-73.998712,40.765344],[-73.998533,40.76539],[-73.998529,40.765404],[-74.001617,40.766704],[-74.001707,40.766759],[-74.001762,40.766832],[-74.001775,40.766924],[-74.001756,40.766968],[-74.001662,40.767074],[-74.00161,40.767092],[-74.001537,40.767091],[-74.001477,40.767175],[-74.001514,40.767222],[-74.001512,40.767287],[-74.001437,40.767386],[-74.001317,40.767442],[-74.001166,40.767445],[-73.998229,40.76622],[-73.998147,40.766233],[-73.99798,40.766214],[-73.997564,40.766788],[-74.000694,40.768107],[-74.000785,40.768179],[-74.000804,40.768243],[-74.000786,40.7683],[-74.000563,40.768595],[-74.000459,40.768621],[-74.000357,40.768611],[-73.997213,40.767275],[-73.996656,40.768062],[-73.999823,40.769389],[-73.999893,40.769457],[-73.999877,40.769542],[-73.999625,40.769857],[-73.999555,40.769889],[-73.999473,40.769888],[-73.997138,40.768893],[-73.996071,40.770372],[-73.996134,40.77042],[-73.996149,40.770483],[-73.996027,40.770666],[-73.99594,40.770718],[-73.99583,40.770708],[-73.995251,40.771512],[-73.995153,40.771566],[-73.995166,40.771615],[-73.997178,40.77245],[-73.997224,40.772504],[-73.997223,40.772568],[-73.996991,40.772888],[-73.996904,40.77294],[-73.996793,40.77293],[-73.994825,40.772093],[-73.994648,40.77234],[-73.996328,40.773055],[-73.996363,40.773089],[-73.996378,40.773152],[-73.996255,40.773334],[-73.996169,40.773385],[-73.99606,40.773376],[-73.994293,40.772643],[-73.994161,40.772822],[-73.994494,40.772976],[-73.994523,40.773057],[-73.994486,40.773124],[-73.994889,40.773301],[-73.994964,40.773216],[-73.995014,40.773196],[-73.995099,40.773197],[-73.996325,40.77372],[-73.99636,40.773754],[-73.996375,40.773817],[-73.996303,40.773927],[-73.996328,40.77398],[-73.996309,40.774042],[-73.996187,40.774188],[-73.996137,40.774207],[-73.996053,40.774206],[-73.993994,40.773321],[-73.993897,40.773439],[-73.993805,40.77363],[-73.993512,40.773921],[-73.99275,40.775019],[-73.992693,40.775063],[-73.992612,40.775078],[-73.992601,40.775452],[-73.992539,40.775578],[-73.991055,40.777612],[-73.990965,40.777665],[-73.990482,40.777687],[-73.989014,40.779727],[-73.989061,40.780223],[-73.989044,40.780282],[-73.988354,40.781273],[-73.988063,40.781879],[-73.98622,40.784548],[-73.986265,40.784561],[-73.986341,40.784531],[-73.986443,40.784538],[-73.986506,40.784573],[-73.986547,40.784635],[-73.986728,40.784677],[-73.98685,40.78468],[-73.987137,40.784819],[-73.987184,40.784871],[-73.987196,40.784938],[-73.987108,40.785081],[-73.987186,40.785108],[-73.987237,40.785159],[-73.987253,40.785226],[-73.987229,40.78529],[-73.986596,40.786046],[-73.986266,40.786216],[-73.986224,40.786292],[-73.986149,40.786335],[-73.986024,40.786334],[-73.985905,40.786257],[-73.985839,40.786348],[-73.985934,40.786333],[-73.986014,40.786355],[-73.986072,40.786405],[-73.986094,40.786479],[-73.986059,40.786556],[-73.985885,40.786715],[-73.985785,40.786741],[-73.984719,40.7867],[-73.983254,40.788822],[-73.982051,40.79052],[-73.981901,40.790773],[-73.981734,40.790963],[-73.980811,40.792259],[-73.980234,40.793108],[-73.977553,40.796866],[-73.972347,40.804337],[-73.972131,40.804631],[-73.971973,40.80477],[-73.971378,40.805647],[-73.969755,40.80783],[-73.969015,40.808763],[-73.967718,40.810739],[-73.96764,40.810892],[-73.966904,40.811968],[-73.966626,40.812421],[-73.96609,40.813176],[-73.965671,40.81371],[-73.96532,40.814202],[-73.964974,40.814786],[-73.964304,40.815775],[-73.963959,40.81621],[-73.963042,40.817238],[-73.962204,40.818093],[-73.961779,40.818575],[-73.962085,40.818707],[-73.962393,40.818538],[-73.962476,40.818539],[-73.962544,40.818574],[-73.96264,40.818667],[-73.96265,40.818752],[-73.962601,40.818805],[-73.96233,40.818965],[-73.962599,40.81911],[-73.962626,40.819174],[-73.962601,40.819245],[-73.962526,40.819324],[-73.962477,40.819347],[-73.962405,40.81936],[-73.962328,40.819342],[-73.961983,40.819167],[-73.961951,40.819131],[-73.961942,40.81907],[-73.961841,40.818967],[-73.961829,40.818905],[-73.961587,40.818796],[-73.961362,40.819057],[-73.961438,40.819141],[-73.961527,40.819154],[-73.961627,40.819239],[-73.961657,40.819299],[-73.961638,40.81936],[-73.96044,40.82009],[-73.960085,40.820474],[-73.95998,40.820491],[-73.959879,40.820454],[-73.959809,40.820544],[-73.959762,40.820571],[-73.958792,40.821833],[-73.95832,40.822407],[-73.958283,40.82254],[-73.958145,40.822734],[-73.958304,40.822801],[-73.958361,40.822846],[-73.958378,40.822907],[-73.958342,40.822977],[-73.959662,40.823543],[-73.959719,40.823588],[-73.959735,40.823648],[-73.957408,40.827188],[-73.957351,40.827234],[-73.95727,40.827248],[-73.957031,40.82717],[-73.956447,40.828015],[-73.956363,40.828069],[-73.956253,40.828062],[-73.955075,40.827609],[-73.954804,40.828002],[-73.95473,40.828039],[-73.954626,40.82803],[-73.954352,40.828395],[-73.954259,40.828481],[-73.954144,40.828548],[-73.954067,40.828649],[-73.953577,40.829411],[-73.953357,40.829793],[-73.951197,40.832981],[-73.951164,40.833108],[-73.950868,40.833629],[-73.950556,40.834052],[-73.950386,40.83433],[-73.950326,40.834386],[-73.950272,40.834496],[-73.950238,40.834679],[-73.950082,40.835167],[-73.949938,40.835544],[-73.949842,40.835983],[-73.949838,40.836144],[-73.949778,40.836271],[-73.949724,40.836581],[-73.949623,40.836736],[-73.949679,40.83683],[-73.949647,40.83705],[-73.949415,40.837642],[-73.949337,40.837867],[-73.949336,40.837926],[-73.949072,40.838673],[-73.948671,40.839655],[-73.948274,40.840413],[-73.947766,40.841475],[-73.946566,40.843374],[-73.946359,40.843769],[-73.946249,40.843903],[-73.946284,40.844015],[-73.946261,40.844104],[-73.946278,40.844183],[-73.946251,40.844361],[-73.946332,40.845059],[-73.946447,40.84567],[-73.946464,40.845709],[-73.946596,40.845806],[-73.946698,40.846],[-73.946653,40.846112],[-73.94653,40.846167],[-73.94649,40.846209],[-73.946614,40.84648],[-73.946789,40.846655],[-73.946981,40.846998],[-73.946987,40.84718],[-73.946964,40.84735],[-73.946875,40.847589],[-73.95237,40.849906],[-73.952438,40.849971],[-73.952424,40.850057]],[[-74.003226,40.760552],[-74.001921,40.762332],[-74.002165,40.76245],[-74.002194,40.76251],[-74.002174,40.762572],[-74.00211,40.762638],[-74.002032,40.76266],[-74.00195,40.762645],[-74.001757,40.762559],[-74.001726,40.762604],[-74.003839,40.763496],[-74.003908,40.763563],[-74.003895,40.763647],[-74.003733,40.763859],[-74.003662,40.763893],[-74.003579,40.763892],[-74.001453,40.762993],[-74.001165,40.763385],[-74.003241,40.764258],[-74.003276,40.764291],[-74.003291,40.764353],[-74.003194,40.764506]],[[-73.985269,40.786319],[-73.985246,40.786307],[-73.985215,40.786349],[-73.985239,40.786333],[-73.985269,40.786319]],[[-73.986841,40.785252],[-73.986806,40.785243],[-73.986806,40.785294],[-73.986841,40.785252]],[[-73.986283,40.785566],[-73.986216,40.785545],[-73.986056,40.785424],[-73.985903,40.785353],[-73.985972,40.785408],[-73.986,40.785466],[-73.986083,40.785517],[-73.986112,40.785577],[-73.986186,40.785622],[-73.986221,40.785702],[-73.986316,40.78575],[-73.986355,40.785837],[-73.98655,40.785602],[-73.986481,40.785632],[-73.986399,40.785634],[-73.986327,40.785607],[-73.986283,40.785566]],[[-73.954152,40.796985],[-73.953993,40.796866],[-73.953852,40.79682],[-73.953869,40.796886],[-73.953849,40.796974],[-73.953711,40.797129],[-73.953597,40.797174],[-73.953408,40.797203],[-73.953291,40.797161],[-73.953227,40.797089],[-73.953202,40.797015],[-73.953211,40.796898],[-73.952905,40.797031],[-73.95268,40.797019],[-73.952609,40.796997],[-73.95239,40.79704],[-73.952251,40.797016],[-73.952161,40.796944],[-73.95204,40.796892],[-73.951973,40.796774],[-73.951971,40.796678],[-73.952015,40.796568],[-73.952078,40.796504],[-73.951935,40.796491],[-73.951839,40.796457],[-73.951723,40.796351],[-73.951668,40.796005],[-73.951736,40.795787],[-73.951628,40.795752],[-73.95153,40.795681],[-73.951435,40.795536],[-73.95139,40.795412],[-73.951381,40.795302],[-73.951414,40.795146],[-73.951281,40.795219],[-73.951117,40.795355],[-73.951079,40.795622],[-73.951,40.795777],[-73.950923,40.795851],[-73.950691,40.795986],[-73.950323,40.79641],[-73.950207,40.7965],[-73.950269,40.79669],[-73.950323,40.796735],[-73.950383,40.796741],[-73.950517,40.79671],[-73.950624,40.796708],[-73.950719,40.796734],[-73.950779,40.796786],[-73.950885,40.796749],[-73.951105,40.796738],[-73.951248,40.796771],[-73.951384,40.79685],[-73.951615,40.796876],[-73.951692,40.796937],[-73.951721,40.797051],[-73.952361,40.797399],[-73.952649,40.797415],[-73.953118,40.797563],[-73.953213,40.797617],[-73.953379,40.797655],[-73.953666,40.797575],[-73.95395,40.79744],[-73.954083,40.797256],[-73.954153,40.797098],[-73.954152,40.796985]],[[-73.951674,40.794817],[-73.951715,40.794789],[-73.951747,40.794758],[-73.951686,40.794758],[-73.951674,40.794817]],[[-73.962686,40.782401],[-73.962613,40.782438],[-73.962529,40.782438],[-73.962226,40.782311],[-73.96218,40.782257],[-73.96218,40.782198],[-73.962076,40.782159],[-73.961788,40.78212],[-73.96168,40.782123],[-73.961438,40.782164],[-73.961208,40.782244],[-73.961011,40.782366],[-73.960928,40.782448],[-73.957978,40.786524],[-73.957933,40.786636],[-73.957981,40.787047],[-73.95795,40.787478],[-73.957886,40.78773],[-73.957633,40.788429],[-73.957654,40.788541],[-73.957707,40.788649],[-73.957757,40.788705],[-73.957899,40.788792],[-73.958107,40.78884],[-73.958282,40.788828],[-73.95862,40.788688],[-73.959049,40.788568],[-73.95928,40.788531],[-73.959524,40.788515],[-73.960045,40.788556],[-73.960437,40.788656],[-73.960645,40.78873],[-73.960755,40.78873],[-73.960908,40.78878],[-73.960951,40.788813],[-73.961095,40.788813],[-73.961177,40.788674],[-73.96128,40.78861],[-73.961419,40.788615],[-73.961596,40.788697],[-73.962012,40.788348],[-73.962272,40.788216],[-73.962428,40.788177],[-73.962764,40.788146],[-73.963229,40.788171],[-73.963884,40.7881],[-73.964379,40.788141],[-73.964474,40.788169],[-73.964654,40.788187],[-73.965073,40.78815],[-73.965406,40.788038],[-73.965587,40.787939],[-73.965932,40.787615],[-73.966043,40.787359],[-73.966479,40.785518],[-73.966524,40.785269],[-73.966513,40.785188],[-73.966464,40.78509],[-73.966206,40.784863],[-73.965768,40.784584],[-73.965458,40.784437],[-73.96411,40.783999],[-73.963818,40.783865],[-73.96359,40.783712],[-73.963413,40.783571],[-73.963166,40.783294],[-73.963008,40.783012],[-73.96289,40.782604],[-73.962805,40.782499],[-73.962686,40.782401]],[[-73.961539,40.794861],[-73.961592,40.794834],[-73.961594,40.794783],[-73.961519,40.794722],[-73.961434,40.794718],[-73.961341,40.794688],[-73.961424,40.794735],[-73.961539,40.794861]],[[-73.961197,40.794676],[-73.961107,40.794631],[-73.961031,40.794551],[-73.960845,40.794599],[-73.960803,40.794673],[-73.960725,40.794707],[-73.960546,40.794687],[-73.960457,40.794619],[-73.960286,40.794622],[-73.960145,40.794679],[-73.959995,40.794693],[-73.960072,40.794728],[-73.960105,40.794781],[-73.96024,40.794786],[-73.960392,40.794828],[-73.960547,40.794799],[-73.960758,40.794836],[-73.96083,40.794816],[-73.960914,40.79475],[-73.961197,40.794676]],[[-73.961143,40.819297],[-73.961163,40.819285],[-73.961158,40.81928],[-73.961143,40.819297]],[[-73.967512,40.774041],[-73.967519,40.773964],[-73.967468,40.77389],[-73.967494,40.773784],[-73.967472,40.773752],[-73.967425,40.773752],[-73.96733,40.773826],[-73.967274,40.77384],[-73.967201,40.773831],[-73.967107,40.773877],[-73.96673,40.774401],[-73.966734,40.774484],[-73.966792,40.774566],[-73.966766,40.774646],[-73.966782,40.774683],[-73.966829,40.774691],[-73.966919,40.774624],[-73.967038,40.774614],[-73.967127,40.774572],[-73.967233,40.774461],[-73.967373,40.774374],[-73.967434,40.77428],[-73.96745,40.774169],[-73.967512,40.774041]],[[-73.968527,40.779597],[-73.968469,40.779561],[-73.968302,40.77951],[-73.968116,40.779485],[-73.967939,40.779433],[-73.967747,40.779457],[-73.967864,40.779506],[-73.967927,40.779567],[-73.96795,40.779686],[-73.96787,40.779775],[-73.967969,40.779857],[-73.968075,40.779837],[-73.968174,40.77984],[-73.968212,40.779776],[-73.968348,40.779672],[-73.968527,40.779597]],[[-73.967649,40.779449],[-73.967563,40.779408],[-73.967518,40.779343],[-73.967519,40.779268],[-73.967577,40.779188],[-73.967386,40.779135],[-73.967278,40.779076],[-73.967147,40.779259],[-73.967171,40.779377],[-73.967296,40.779396],[-73.96745,40.779471],[-73.967649,40.779449]],[[-73.973652,40.777285],[-73.973672,40.777184],[-73.973735,40.777068],[-73.973748,40.77696],[-73.973674,40.776588],[-73.97358,40.776367],[-73.973585,40.776169],[-73.97347,40.775977],[-73.97348,40.775743],[-73.973609,40.775522],[-73.973575,40.775031],[-73.97355,40.774988],[-73.973526,40.774776],[-73.973492,40.774714],[-73.973461,40.774712],[-73.973508,40.774758],[-73.973515,40.774822],[-73.973384,40.774997],[-73.973435,40.775348],[-73.973415,40.775395],[-73.973302,40.775489],[-73.973255,40.77551],[-73.973174,40.775514],[-73.973084,40.775469],[-73.972959,40.775451],[-73.972486,40.775552],[-73.972126,40.775562],[-73.971964,40.775604],[-73.97179,40.775722],[-73.971652,40.775777],[-73.97154,40.775769],[-73.971414,40.775715],[-73.971179,40.775498],[-73.970969,40.775399],[-73.970927,40.775359],[-73.970886,40.77524],[-73.970929,40.774913],[-73.970872,40.774674],[-73.970693,40.774668],[-73.970517,40.774593],[-73.969944,40.774857],[-73.96968,40.774918],[-73.969271,40.774955],[-73.96905,40.775091],[-73.969121,40.775333],[-73.969298,40.77531],[-73.969416,40.775344],[-73.969489,40.775345],[-73.969599,40.775324],[-73.970079,40.774947],[-73.970345,40.774824],[-73.97047,40.774814],[-73.970567,40.774853],[-73.970633,40.774912],[-73.970661,40.774981],[-73.970654,40.775045],[-73.97042,40.775345],[-73.970282,40.775466],[-73.970321,40.775546],[-73.970307,40.775628],[-73.970263,40.775688],[-73.970174,40.77575],[-73.970066,40.775922],[-73.970276,40.775877],[-73.970316,40.775751],[-73.970404,40.775657],[-73.970488,40.775619],[-73.970589,40.775606],[-73.97076,40.775625],[-73.970981,40.775693],[-73.971226,40.775796],[-73.971354,40.775801],[-73.971437,40.775834],[-73.971546,40.775839],[-73.971679,40.775871],[-73.971767,40.775794],[-73.971886,40.775747],[-73.971967,40.775737],[-73.972049,40.775764],[-73.9722,40.775852],[-73.972276,40.775825],[-73.97237,40.77583],[-73.972528,40.775893],[-73.972616,40.775957],[-73.972653,40.776042],[-73.972624,40.776132],[-73.972561,40.776185],[-73.972418,40.776259],[-73.972326,40.776275],[-73.97223,40.776344],[-73.972193,40.776424],[-73.972055,40.776574],[-73.971997,40.776762],[-73.971809,40.777003],[-73.971803,40.777086],[-73.971744,40.777162],[-73.971766,40.777253],[-73.971739,40.777306],[-73.971647,40.777366],[-73.971499,40.77738],[-73.971613,40.777416],[-73.971724,40.77741],[-73.971795,40.777444],[-73.971847,40.777508],[-73.971862,40.77757],[-73.971851,40.777617],[-73.971803,40.777665],[-73.971788,40.777734],[-73.971938,40.777779],[-73.97206,40.777876],[-73.972086,40.77801],[-73.971898,40.778345],[-73.971917,40.778386],[-73.972109,40.778293],[-73.972203,40.778299],[-73.972266,40.778329],[-73.972378,40.77824],[-73.97261,40.778141],[-73.972649,40.77787],[-73.972584,40.777849],[-73.972519,40.777796],[-73.972468,40.777673],[-73.972481,40.777626],[-73.972534,40.777566],[-73.972506,40.777519],[-73.972516,40.777452],[-73.972613,40.777326],[-73.972719,40.777287],[-73.972803,40.777288],[-73.972885,40.777264],[-73.972973,40.777274],[-73.973093,40.777358],[-73.973117,40.777399],[-73.973114,40.777452],[-73.973249,40.777523],[-73.973302,40.777578],[-73.97345,40.777426],[-73.973652,40.777285]],[[-73.971358,40.779],[-73.971356,40.779001],[-73.971355,40.779004],[-73.971358,40.779]],[[-73.970837,40.774299],[-73.970813,40.774309],[-73.970827,40.774331],[-73.970855,40.774319],[-73.970837,40.774299]],[[-73.975491,40.765959],[-73.975411,40.765842],[-73.975139,40.765743],[-73.975004,40.765738],[-73.974918,40.765712],[-73.974857,40.76567],[-73.974478,40.765677],[-73.974355,40.765638],[-73.97426,40.765549],[-73.974154,40.765372],[-73.974092,40.765498],[-73.973951,40.765578],[-73.973891,40.765714],[-73.973887,40.765814],[-73.973919,40.765931],[-73.973902,40.7661],[-73.973844,40.766206],[-73.973698,40.766352],[-73.973776,40.766376],[-73.973831,40.766418],[-73.973844,40.766517],[-73.973689,40.766665],[-73.973686,40.766777],[-73.973723,40.76679],[-73.973768,40.766702],[-73.973845,40.766657],[-73.973901,40.766646],[-73.974077,40.766661],[-73.974193,40.766598],[-73.974153,40.76598],[-73.9742,40.765855],[-73.974302,40.765781],[-73.97445,40.765755],[-73.974891,40.765812],[-73.97503,40.765879],[-73.975253,40.766041],[-73.975299,40.766041],[-73.975369,40.765991],[-73.975491,40.765959]],[[-73.973916,40.767117],[-73.973916,40.767122],[-73.973921,40.767123],[-73.973916,40.767117]],[[-73.981006,40.759682],[-73.981,40.75968],[-73.980943,40.759759],[-73.980948,40.759761],[-73.981006,40.759682]],[[-73.959942,40.822728],[-73.959924,40.82278],[-73.959782,40.822949],[-73.959776,40.822997],[-73.959731,40.823062],[-73.959695,40.823094],[-73.959616,40.823117],[-73.959535,40.823103],[-73.958858,40.822814],[-73.958815,40.822786],[-73.958785,40.822727],[-73.958803,40.822664],[-73.959118,40.822242],[-73.959155,40.82221],[-73.959233,40.822187],[-73.959314,40.822201],[-73.960013,40.822502],[-73.960058,40.822555],[-73.960056,40.822619],[-73.959996,40.822699],[-73.959942,40.822728]],[[-74.017073,40.766526],[-74.01706,40.766432],[-74.017077,40.766388]],[[-73.958986,40.852822],[-73.959015,40.852718],[-73.958975,40.852417],[-73.959005,40.85236],[-73.959072,40.852322],[-73.959095,40.85223],[-73.959045,40.852154],[-73.95904,40.852108],[-73.959158,40.851877],[-73.959224,40.851845],[-73.959317,40.851842],[-73.959345,40.851803],[-73.959316,40.851648],[-73.959348,40.85158],[-73.959332,40.851516],[-73.959352,40.851452],[-73.959437,40.85139],[-73.959462,40.851328],[-73.95951,40.851289],[-73.959632,40.851259],[-73.959771,40.851329],[-73.959848,40.851477],[-73.959982,40.851206],[-73.960679,40.850172],[-73.961066,40.849413],[-73.96112,40.849184],[-73.961177,40.849142],[-73.961389,40.849054],[-73.961573,40.848893],[-73.963076,40.846775],[-73.963938,40.845948],[-73.964005,40.845688],[-73.964551,40.84485],[-73.964946,40.844313],[-73.96531,40.843745],[-73.9655,40.843386],[-73.96548,40.843034],[-73.96577,40.842527],[-73.96583,40.842488],[-73.965934,40.842484],[-73.966316,40.842581],[-73.966554,40.842746],[-73.966769,40.842723],[-73.967193,40.84232],[-73.96767,40.841632],[-73.967779,40.841069],[-73.967782,40.840928],[-73.966586,40.840484],[-73.966557,40.840446],[-73.966555,40.840381],[-73.966703,40.840161],[-73.966759,40.840116],[-73.966845,40.840103],[-73.966895,40.839992],[-73.967028,40.8398],[-73.967136,40.839773],[-73.967367,40.839823],[-73.967544,40.839642],[-73.967613,40.839615],[-73.968205,40.839602],[-73.968433,40.839632],[-73.96872,40.839697],[-73.968636,40.839646],[-73.968599,40.839584],[-73.968356,40.839504],[-73.968111,40.839308],[-73.968095,40.839218],[-73.967907,40.838913],[-73.967835,40.838651],[-73.967883,40.838569],[-73.968015,40.838511],[-73.968076,40.838507],[-73.968348,40.838532],[-73.968568,40.838595],[-73.969092,40.838625],[-73.969254,40.838658],[-73.969287,40.838624],[-73.969293,40.838546],[-73.969225,40.838419],[-73.96924,40.838378],[-73.969327,40.838288],[-73.969361,40.837732],[-73.969537,40.837001],[-73.967977,40.836516],[-73.96764,40.836189],[-73.967611,40.836129],[-73.967919,40.835437],[-73.9682,40.834932],[-73.968144,40.834428],[-73.968139,40.834128],[-73.967981,40.833846],[-73.967978,40.833765],[-73.968078,40.83364],[-73.968184,40.833583],[-73.968278,40.833496],[-73.968456,40.833289],[-73.968635,40.833031],[-73.968875,40.832818],[-73.969074,40.83276],[-73.969025,40.832536],[-73.96907,40.832299],[-73.969336,40.831749],[-73.969366,40.831376],[-73.969142,40.831325],[-73.96894,40.831171],[-73.968916,40.831094],[-73.969489,40.829777],[-73.969538,40.829605],[-73.96967,40.829343],[-73.969754,40.829115],[-73.969948,40.828804],[-73.969578,40.828673],[-73.9695,40.828606],[-73.969477,40.828432],[-73.969558,40.828281],[-73.969643,40.828229],[-73.96967,40.828119],[-73.969522,40.828058],[-73.969486,40.828001],[-73.969488,40.827958],[-73.969596,40.827776],[-73.969651,40.827729],[-73.96976,40.827716],[-73.969895,40.827761],[-73.97004,40.827531],[-73.970126,40.827478],[-73.970128,40.827392],[-73.970214,40.827252],[-73.970313,40.827191],[-73.970429,40.827195],[-73.97142,40.827551],[-73.971444,40.827521],[-73.9716,40.827314],[-73.97119,40.827186],[-73.971023,40.827089],[-73.970972,40.827035],[-73.970973,40.826968],[-73.971094,40.826684],[-73.97191,40.825421],[-73.971924,40.82533],[-73.972107,40.825086],[-73.972907,40.823808],[-73.972974,40.82377],[-73.973057,40.823766],[-73.973668,40.823975],[-73.973695,40.823959],[-73.973691,40.823921],[-73.973489,40.823746],[-73.973369,40.823735],[-73.973308,40.823697],[-73.973282,40.82364],[-73.973278,40.823449],[-73.973372,40.823344],[-73.973429,40.823311],[-73.973447,40.823176],[-73.973631,40.822688],[-73.973747,40.822574],[-73.974123,40.822041],[-73.974536,40.82141],[-73.974769,40.820969],[-73.974845,40.820919],[-73.974888,40.820858],[-73.975105,40.820476],[-73.975638,40.819917],[-73.97567,40.819837],[-73.975339,40.819712],[-73.975283,40.81964],[-73.975296,40.819577],[-73.975371,40.819478],[-73.975477,40.819451],[-73.975804,40.819566],[-73.975934,40.819307],[-73.976301,40.818899],[-73.976744,40.818216],[-73.976842,40.818158],[-73.977019,40.817894],[-73.977085,40.817858],[-73.97714,40.817852],[-73.977312,40.817903],[-73.97732,40.817891],[-73.977346,40.817745],[-73.977273,40.817501],[-73.977359,40.817308],[-73.976518,40.816977],[-73.976413,40.817184],[-73.976276,40.817257],[-73.976165,40.817264],[-73.976057,40.8172],[-73.976043,40.817137],[-73.976077,40.817074],[-73.975991,40.817024],[-73.975974,40.816941],[-73.976014,40.816875],[-73.976057,40.816845],[-73.976142,40.81683],[-73.976242,40.816863],[-73.97626,40.81684],[-73.976178,40.816814],[-73.976123,40.816741],[-73.976128,40.816699],[-73.976217,40.816543],[-73.976251,40.81651],[-73.976327,40.816485],[-73.976449,40.81651],[-73.976522,40.816572],[-73.976636,40.816625],[-73.976707,40.81678],[-73.977605,40.817134],[-73.977758,40.81706],[-73.977904,40.817035],[-73.977971,40.817044],[-73.978345,40.816575],[-73.978405,40.816531],[-73.978421,40.816466],[-73.97852,40.816325],[-73.978232,40.81621],[-73.978179,40.816132],[-73.978199,40.816067],[-73.978415,40.8158],[-73.978481,40.815768],[-73.97856,40.815767],[-73.979082,40.815956],[-73.979135,40.815851],[-73.97955,40.81555],[-73.979637,40.815428],[-73.979992,40.815143],[-73.980038,40.815084],[-73.980038,40.815044],[-73.979733,40.814815],[-73.979697,40.814763],[-73.979702,40.814704],[-73.979805,40.81449],[-73.979709,40.814241],[-73.979727,40.814121],[-73.979838,40.813985],[-73.979898,40.813947],[-73.980069,40.813916],[-73.980217,40.813933],[-73.980302,40.81396],[-73.980347,40.813862],[-73.980495,40.81377],[-73.980555,40.813687],[-73.980593,40.813561],[-73.9807,40.813479],[-73.980665,40.813311],[-73.980562,40.813259],[-73.98053,40.813202],[-73.978877,40.812545],[-73.978831,40.812499],[-73.978802,40.812415],[-73.978927,40.812202],[-73.979005,40.812148],[-73.979114,40.812134],[-73.979173,40.812145],[-73.981165,40.812896],[-73.981252,40.812672],[-73.981541,40.812333],[-73.98113,40.812114],[-73.981044,40.812042],[-73.98098,40.811952],[-73.980963,40.811874],[-73.980976,40.81181],[-73.981114,40.811651],[-73.981162,40.811416],[-73.981246,40.811282],[-73.980803,40.811114],[-73.980745,40.811073],[-73.980727,40.810994],[-73.980855,40.810781],[-73.980913,40.810733],[-73.980997,40.810718],[-73.981577,40.81092],[-73.98174,40.810863],[-73.982722,40.810323],[-73.982923,40.810166],[-73.983279,40.810028],[-73.983456,40.809936],[-73.983587,40.809639],[-73.983685,40.809481],[-73.981997,40.808832],[-73.981924,40.808769],[-73.981933,40.808685],[-73.982724,40.80751],[-73.982799,40.807484],[-73.982881,40.807494],[-73.984609,40.808126],[-73.984951,40.807603],[-73.985008,40.807557],[-73.985088,40.807542],[-73.985142,40.807552],[-73.985686,40.807744],[-73.985805,40.807627],[-73.986005,40.807591],[-73.986425,40.807013],[-73.983961,40.806006],[-73.983878,40.805909],[-73.983861,40.805848],[-73.984057,40.805549],[-73.984174,40.805522],[-73.98427,40.805459],[-73.984355,40.805457],[-73.985483,40.8059],[-73.985768,40.805462],[-73.985889,40.805322],[-73.985945,40.805284],[-73.986111,40.805245],[-73.987147,40.805365],[-73.987755,40.805551],[-73.988,40.805341],[-73.988387,40.80519],[-73.988707,40.804522],[-73.988853,40.80431],[-73.987459,40.80375],[-73.987412,40.803699],[-73.98741,40.803637],[-73.987557,40.80342],[-73.987634,40.803393],[-73.987717,40.803403],[-73.989127,40.803934],[-73.989451,40.803581],[-73.989521,40.803421],[-73.98971,40.803323],[-73.989816,40.803323],[-73.990396,40.8035],[-73.991058,40.802574],[-73.990958,40.802521],[-73.99074,40.802492],[-73.990639,40.802446],[-73.990595,40.802392],[-73.990595,40.80226],[-73.990698,40.802172],[-73.990799,40.80215],[-73.99086,40.802157],[-73.99091,40.802129],[-73.990987,40.802117],[-73.991061,40.802138],[-73.991195,40.80225],[-73.991305,40.802291],[-73.991369,40.802269],[-73.99147,40.802193],[-73.991642,40.801959],[-73.991742,40.801678],[-73.992144,40.801028],[-73.992223,40.800706],[-73.992182,40.800634],[-73.992194,40.800507],[-73.992236,40.800457],[-73.992317,40.800417],[-73.992353,40.800314],[-73.992361,40.800231],[-73.992251,40.800157],[-73.99222,40.800098],[-73.992274,40.799921],[-73.992463,40.799824],[-73.992908,40.799807],[-73.993323,40.799306],[-73.993756,40.798975],[-73.993874,40.798922],[-73.994021,40.798918],[-73.994055,40.798899],[-73.994329,40.798695],[-73.994379,40.798547],[-73.994378,40.798462],[-73.992431,40.797693],[-73.992292,40.797604],[-73.992069,40.797556],[-73.991943,40.797453],[-73.991832,40.797288],[-73.991809,40.797211],[-73.991828,40.797138],[-73.992209,40.796671],[-73.992329,40.796471],[-73.992535,40.79626],[-73.9927,40.795911],[-73.9927,40.795833],[-73.992781,40.795733],[-73.992831,40.795707],[-73.992907,40.795699],[-73.993005,40.79565],[-73.993269,40.795607],[-73.993885,40.795806],[-73.994569,40.795924],[-73.994827,40.796023],[-73.994933,40.795871],[-73.994625,40.795614],[-73.993436,40.795105],[-73.993381,40.795062],[-73.993364,40.795023],[-73.99339,40.794946],[-73.993594,40.794728],[-73.993809,40.794588],[-73.993876,40.794447],[-73.993987,40.794374],[-73.994132,40.794366],[-73.994197,40.794294],[-73.994229,40.794102],[-73.994199,40.79389],[-73.994125,40.793708],[-73.99428,40.793376],[-73.994564,40.793084],[-73.995459,40.792545],[-73.995542,40.792544],[-73.996436,40.792739],[-73.996486,40.792731],[-73.99658,40.792644],[-73.996657,40.792495],[-73.996568,40.791832],[-73.996086,40.791562],[-73.996024,40.791488],[-73.99611,40.79121],[-73.996174,40.791145],[-73.996279,40.791131],[-73.99717,40.791375],[-73.997583,40.791534],[-73.997752,40.791546],[-73.997799,40.791564],[-73.99784,40.79151],[-73.997938,40.791455],[-73.997835,40.791351],[-73.997761,40.790966],[-73.99782,40.790748],[-73.997936,40.790559],[-73.997122,40.790164],[-73.997081,40.79011],[-73.997084,40.790049],[-73.998458,40.788231],[-73.998508,40.788211],[-73.998592,40.788213],[-73.999261,40.788502],[-73.99927,40.788489],[-73.998639,40.788182],[-73.998586,40.788135],[-73.998573,40.788094],[-73.998593,40.788034],[-73.99906,40.787436],[-73.999158,40.787399],[-73.99926,40.787422],[-73.99791,40.786799],[-73.997845,40.786731],[-73.997862,40.786648],[-73.997943,40.786583],[-73.998053,40.78658],[-73.9992,40.787107],[-73.999335,40.786888],[-73.999376,40.786859],[-73.99946,40.78684],[-74.001162,40.784724],[-74.002115,40.783391],[-74.003124,40.782194],[-74.003194,40.782162],[-74.003275,40.782165],[-74.003811,40.782393],[-74.005251,40.780593],[-74.005328,40.780571],[-74.005408,40.780584],[-74.006138,40.780887],[-74.006349,40.780646],[-74.006376,40.780599],[-74.00532,40.780107],[-74.005292,40.780047],[-74.0053,40.780005],[-74.005509,40.779735],[-74.005581,40.779702],[-74.005665,40.779705],[-74.006684,40.780171],[-74.006741,40.780146],[-74.007078,40.779705],[-74.007166,40.77963],[-74.007507,40.779122],[-74.007649,40.778862],[-74.007822,40.778635],[-74.008086,40.778306],[-74.008381,40.778026],[-74.009171,40.777073],[-74.009242,40.777042],[-74.009349,40.777053],[-74.010328,40.777484],[-74.010658,40.777063],[-74.010645,40.776983],[-74.010667,40.776866],[-74.010871,40.77653],[-74.01096,40.776479],[-74.011061,40.776488],[-74.011117,40.776473],[-74.011449,40.776044],[-74.010502,40.775617],[-74.010437,40.775554],[-74.010447,40.775473],[-74.010856,40.774859],[-74.010868,40.774754],[-74.010842,40.774664],[-74.009669,40.774095],[-74.009615,40.774049],[-74.009603,40.773988],[-74.009894,40.77358],[-74.010299,40.77331],[-74.010214,40.773171],[-74.010196,40.773035],[-74.010519,40.772646],[-74.010748,40.772466],[-74.01162,40.772041],[-74.011452,40.771862],[-74.011338,40.771911],[-74.011228,40.771894],[-74.011121,40.771785],[-74.011098,40.771733],[-74.01083,40.771845],[-74.010775,40.771851],[-74.010698,40.771829],[-74.010526,40.771615],[-74.010514,40.771575],[-74.010532,40.771517],[-74.010588,40.771474],[-74.011352,40.771155],[-74.011463,40.771146],[-74.011549,40.7712],[-74.011677,40.771421],[-74.011796,40.771569],[-74.011885,40.771605],[-74.011947,40.771689],[-74.011941,40.771771],[-74.011834,40.771841],[-74.011897,40.771908],[-74.011968,40.771875],[-74.012289,40.771641],[-74.012463,40.771565],[-74.011837,40.771252],[-74.011815,40.771212],[-74.011822,40.771149],[-74.011925,40.771057],[-74.012035,40.771055],[-74.012468,40.771255],[-74.012458,40.771206],[-74.012492,40.771134],[-74.012554,40.771086],[-74.012611,40.771073],[-74.012726,40.771102],[-74.012843,40.771096],[-74.012957,40.771163],[-74.013024,40.771102],[-74.013134,40.771092],[-74.013546,40.771233],[-74.013852,40.770915],[-74.01395,40.770871],[-74.014007,40.770874],[-74.014142,40.770927],[-74.014218,40.771026],[-74.014286,40.770759],[-74.014266,40.770589],[-74.014289,40.77052],[-74.014526,40.770243],[-74.014801,40.769801],[-74.015017,40.769625],[-74.015216,40.769536],[-74.015326,40.769423],[-74.015309,40.769366],[-74.015331,40.769313],[-74.015093,40.76918],[-74.015061,40.769109],[-74.015078,40.769043],[-74.016899,40.766575],[-74.016983,40.766524],[-74.017073,40.766526]],[[-74.000633,40.802904],[-74.00056,40.802864],[-74.00045,40.802737],[-74.000373,40.80272],[-74.000291,40.80265],[-74.00017,40.80262],[-74.000023,40.80255],[-73.999992,40.802487],[-74.00002,40.802353],[-74.000094,40.802228],[-74.000439,40.802091],[-74.000519,40.80201],[-74.000585,40.80198],[-74.000614,40.801905],[-74.000719,40.801809],[-74.00092,40.801754],[-74.001088,40.801771],[-74.000576,40.801419],[-74.000323,40.801211],[-74.000098,40.801133],[-73.999867,40.801137],[-73.99971,40.801162],[-73.999586,40.801307],[-73.999553,40.801383],[-73.99956,40.801628],[-73.999535,40.801689],[-73.998859,40.802178],[-73.998781,40.802268],[-73.998674,40.802283],[-73.99847,40.802229],[-73.998092,40.802208],[-73.997938,40.802118],[-73.997889,40.802107],[-73.997835,40.80215],[-73.997655,40.802423],[-73.997569,40.802695],[-73.997544,40.802949],[-73.997386,40.803305],[-73.997375,40.8034],[-73.997431,40.803753],[-73.9975,40.803762],[-73.99757,40.803803],[-73.99766,40.80379],[-73.997886,40.803679],[-73.998042,40.803654],[-73.998109,40.803624],[-73.998323,40.803484],[-73.998641,40.803388],[-73.999316,40.803229],[-73.999892,40.8028],[-74.000031,40.802741],[-74.000197,40.802759],[-74.000599,40.80295],[-74.000633,40.802904]],[[-73.999327,40.787451],[-73.999904,40.787699],[-73.999917,40.787684],[-73.999418,40.787455],[-73.999327,40.787451]],[[-74.00277,40.76198],[-74.002847,40.761938],[-74.002931,40.761939],[-74.003223,40.762061],[-74.003269,40.762114],[-74.003273,40.762157],[-74.003216,40.762249],[-74.003145,40.762284],[-74.003062,40.762283],[-74.002761,40.762154],[-74.00269,40.762212],[-74.002579,40.762217],[-74.002255,40.762076],[-74.002206,40.762],[-74.002213,40.761958],[-74.002284,40.761865],[-74.002382,40.761828],[-74.002464,40.761842],[-74.00277,40.76198]],[[-74.003886,40.760922],[-74.003978,40.760967],[-74.004034,40.761058],[-74.003995,40.761154],[-74.003924,40.761193],[-74.003809,40.761184],[-74.003449,40.761031],[-74.003397,40.760957],[-74.003415,40.760893],[-74.003242,40.76082],[-74.003195,40.760766],[-74.003207,40.760682],[-74.003306,40.760586]],[[-74.003937,40.760852],[-74.003886,40.760922]],[[-74.010486,40.776138],[-74.010613,40.776214],[-74.010632,40.776325],[-74.010594,40.776381],[-74.010518,40.77642],[-74.01043,40.776424],[-74.010311,40.776381],[-74.010252,40.776423],[-74.010185,40.776439],[-74.010179,40.776548],[-74.01027,40.776593],[-74.010319,40.776666],[-74.010315,40.776733],[-74.010278,40.776787],[-74.010157,40.776833],[-74.009998,40.776788],[-74.00994,40.776827],[-74.009878,40.776841],[-74.009748,40.77681],[-74.00969,40.776733],[-74.009701,40.776645],[-74.009887,40.776399],[-74.010005,40.776349],[-74.010008,40.776245],[-74.010197,40.77599],[-74.010302,40.775947],[-74.010419,40.775968],[-74.01049,40.776041],[-74.010486,40.776138]]]}},{"type":"Feature","properties":{"i":1},"geometry":{"type":"MultiLineString","coordinates":[[[-74.004201,40.760963],[-74.004232,40.761089],[-74.004154,40.761244],[-74.003985,40.761336],[-74.003846,40.761348],[-74.003713,40.761316],[-74.003323,40.761147],[-74.003238,40.761068],[-74.003201,40.760977],[-74.003154,40.760956],[-74.002598,40.761726],[-74.002768,40.7618],[-74.002858,40.761784],[-74.002991,40.761795],[-74.003295,40.761916],[-74.003398,40.761982],[-74.003459,40.762073],[-74.003471,40.762174],[-74.00343,40.762271],[-74.003319,40.762382],[-74.003201,40.762429],[-74.003068,40.762438],[-74.00294,40.762407],[-74.002786,40.762343],[-74.002649,40.762373],[-74.002516,40.76236],[-74.002218,40.762236],[-74.002189,40.762276],[-74.002324,40.762359],[-74.002382,40.762451],[-74.00239,40.762552],[-74.00232,40.762682],[-74.003936,40.763364],[-74.004038,40.763431],[-74.0041,40.763522],[-74.00411,40.763624],[-74.004067,40.763721],[-74.003883,40.763958],[-74.003716,40.764038],[-74.003518,40.764035],[-74.00153,40.763198],[-74.001435,40.763326],[-74.003314,40.764113],[-74.003416,40.764179],[-74.003489,40.764319],[-74.003456,40.764452],[-74.003554,40.764557],[-74.003575,40.764663],[-74.003481,40.76485],[-74.003366,40.764954],[-74.003174,40.765014],[-74.003016,40.765005],[-74.002947,40.764984],[-74.001775,40.764489],[-74.001632,40.764479],[-74.001188,40.764301],[-74.001083,40.764234],[-74.001038,40.764175],[-73.999947,40.763712],[-73.999891,40.763743],[-73.999621,40.764111],[-74.001191,40.764766],[-74.002542,40.765352],[-74.002648,40.76548],[-74.002643,40.765632],[-74.002333,40.766044],[-74.002257,40.766095],[-74.002127,40.766143],[-74.001945,40.766148],[-74.001846,40.766128],[-73.999947,40.765307],[-73.999019,40.764928],[-73.998976,40.764988],[-73.999019,40.765065],[-73.999036,40.765183],[-73.999002,40.765299],[-73.998926,40.765399],[-74.001758,40.766595],[-74.001856,40.766659],[-74.001951,40.766785],[-74.001972,40.76694],[-74.001928,40.767043],[-74.001832,40.767159],[-74.001715,40.767223],[-74.0017,40.767334],[-74.001625,40.767445],[-74.001545,40.767517],[-74.001375,40.767587],[-74.00117,40.7676],[-74.000987,40.767553],[-73.998203,40.766382],[-73.998088,40.766377],[-73.997833,40.766729],[-74.000791,40.767975],[-74.000889,40.768034],[-74.000967,40.768119],[-74.001002,40.768238],[-74.000961,40.768372],[-74.000773,40.768634],[-74.000689,40.768712],[-74.000507,40.768769],[-74.000293,40.768754],[-73.997292,40.767482],[-73.996924,40.768001],[-73.999919,40.769257],[-74.000024,40.769325],[-74.000085,40.769418],[-74.000093,40.769522],[-74.000048,40.76962],[-73.999812,40.769918],[-73.999724,40.769992],[-73.999606,40.770035],[-73.999411,40.770031],[-73.997217,40.7691],[-73.99631,40.77035],[-73.996347,40.77045],[-73.996305,40.770598],[-73.996161,40.770781],[-73.996057,40.770844],[-73.99594,40.77087],[-73.995444,40.771558],[-73.997249,40.772306],[-73.997353,40.772371],[-73.997415,40.772462],[-73.997426,40.772564],[-73.997385,40.772662],[-73.997165,40.772961],[-73.997077,40.773039],[-73.996957,40.773086],[-73.996822,40.773093],[-73.996695,40.773061],[-73.996504,40.772977],[-73.996577,40.773119],[-73.99656,40.77322],[-73.996389,40.77345],[-73.996264,40.773518],[-73.996455,40.773605],[-73.996562,40.773733],[-73.996572,40.773835],[-73.99652,40.773945],[-73.996524,40.77402],[-73.996482,40.774117],[-73.996358,40.774272],[-73.996252,40.774334],[-73.996123,40.774361],[-73.995991,40.774349],[-73.994077,40.773531],[-73.993964,40.773721],[-73.993682,40.773999],[-73.992925,40.775091],[-73.992796,40.775192],[-73.992811,40.775325],[-73.992798,40.775468],[-73.992714,40.775649],[-73.991229,40.777685],[-73.991139,40.777765],[-73.991015,40.777811],[-73.990603,40.777833],[-73.989216,40.77976],[-73.989259,40.780212],[-73.98922,40.780352],[-73.988535,40.781335],[-73.988238,40.78195],[-73.986541,40.784407],[-73.986733,40.784522],[-73.986836,40.784522],[-73.986964,40.784554],[-73.987237,40.784686],[-73.98732,40.784749],[-73.987392,40.784883],[-73.987368,40.785034],[-73.987418,40.785097],[-73.98745,40.785188],[-73.987444,40.785277],[-73.987402,40.785364],[-73.98678,40.786113],[-73.986701,40.786175],[-73.986434,40.786312],[-73.986378,40.786387],[-73.986291,40.786448],[-73.986283,40.786536],[-73.986237,40.786625],[-73.986003,40.786837],[-73.985884,40.786881],[-73.985791,40.786892],[-73.984838,40.786856],[-73.982229,40.790587],[-73.982082,40.790835],[-73.981904,40.791041],[-73.980986,40.79233],[-73.980409,40.79318],[-73.976056,40.799317],[-73.975561,40.800063],[-73.972523,40.804407],[-73.972304,40.804705],[-73.972144,40.804846],[-73.971551,40.805721],[-73.969927,40.807906],[-73.969187,40.80884],[-73.968354,40.810098],[-73.967899,40.810802],[-73.967817,40.81096],[-73.967082,40.812035],[-73.966806,40.812485],[-73.966265,40.813248],[-73.965846,40.813782],[-73.965496,40.814272],[-73.965152,40.814854],[-73.964479,40.815846],[-73.964123,40.816294],[-73.96321,40.817319],[-73.962367,40.818179],[-73.962064,40.818525],[-73.962279,40.81841],[-73.962471,40.818385],[-73.962651,40.818443],[-73.962816,40.818597],[-73.962854,40.818696],[-73.962839,40.818798],[-73.962773,40.818888],[-73.96267,40.818956],[-73.96276,40.819022],[-73.962813,40.819106],[-73.962824,40.819206],[-73.962765,40.819331],[-73.962609,40.819465],[-73.962402,40.819511],[-73.962219,40.819468],[-73.961853,40.81928],[-73.961838,40.819388],[-73.961725,40.819511],[-73.960587,40.820193],[-73.960247,40.820568],[-73.960139,40.820623],[-73.95996,40.820641],[-73.959911,40.820677],[-73.958964,40.821909],[-73.958514,40.822454],[-73.958418,40.822679],[-73.958537,40.822776],[-73.958575,40.822904],[-73.959813,40.82344],[-73.959919,40.823563],[-73.959933,40.823661],[-73.959898,40.823756],[-73.957586,40.827256],[-73.957504,40.827336],[-73.957389,40.827386],[-73.957257,40.827399],[-73.957118,40.827369],[-73.956623,40.828086],[-73.956484,40.828193],[-73.956358,40.828223],[-73.956226,40.828215],[-73.955161,40.827811],[-73.954958,40.828098],[-73.95485,40.828165],[-73.954743,40.82819],[-73.954509,40.828488],[-73.954291,40.828652],[-73.954243,40.828718],[-73.953758,40.829475],[-73.953534,40.829861],[-73.951388,40.83303],[-73.951349,40.833164],[-73.951059,40.833675],[-73.95074,40.834111],[-73.950673,40.834244],[-73.950499,40.834465],[-73.950082,40.835767],[-73.950041,40.835992],[-73.950036,40.836157],[-73.949974,40.83631],[-73.94992,40.836602],[-73.949852,40.836744],[-73.949878,40.836858],[-73.949843,40.837075],[-73.949606,40.837682],[-73.949526,40.83797],[-73.949261,40.838719],[-73.948859,40.839704],[-73.94846,40.840466],[-73.947953,40.841526],[-73.946747,40.843437],[-73.946573,40.843777],[-73.946469,40.843923],[-73.946477,40.844179],[-73.946451,40.844358],[-73.94653,40.845042],[-73.946639,40.845621],[-73.946777,40.845744],[-73.946877,40.845908],[-73.946895,40.845979],[-73.946868,40.84612],[-73.946815,40.846199],[-73.946737,40.846258],[-73.946798,40.84642],[-73.946971,40.846595],[-73.947175,40.846965],[-73.947184,40.847207],[-73.947161,40.847366],[-73.947108,40.847515],[-73.952466,40.849774],[-73.952568,40.849839],[-73.95263,40.84993],[-73.952641,40.850031],[-73.952598,40.85013]],[[-73.994903,40.773068],[-73.994714,40.77299],[-73.994721,40.773053],[-73.994834,40.773103],[-73.994903,40.773068]],[[-73.961677,40.819051],[-73.961661,40.819032],[-73.961647,40.819002],[-73.961628,40.819024],[-73.961677,40.819051]],[[-73.953045,40.79715],[-73.952871,40.797183],[-73.952608,40.79716],[-73.952442,40.797188],[-73.952291,40.797182],[-73.952417,40.797247],[-73.952724,40.797275],[-73.952997,40.797355],[-73.953306,40.797479],[-73.953375,40.797488],[-73.953569,40.797442],[-73.953804,40.797328],[-73.953905,40.797184],[-73.953801,40.797267],[-73.953701,40.797305],[-73.953542,40.797342],[-73.953395,40.797353],[-73.953248,40.79732],[-73.953154,40.79727],[-73.953045,40.79715]],[[-73.951776,40.796777],[-73.951787,40.796606],[-73.951688,40.796562],[-73.951619,40.796506],[-73.951541,40.796412],[-73.951509,40.796326],[-73.951469,40.796013],[-73.951493,40.795863],[-73.951356,40.795758],[-73.951277,40.795636],[-73.951232,40.795763],[-73.951158,40.795869],[-73.951059,40.795961],[-73.950842,40.796085],[-73.950435,40.796545],[-73.950441,40.796568],[-73.950656,40.796559],[-73.950822,40.796605],[-73.951082,40.796585],[-73.951203,40.796599],[-73.951323,40.796631],[-73.951452,40.796696],[-73.951694,40.796738],[-73.951776,40.796777]],[[-73.962642,40.782587],[-73.962535,40.782592],[-73.962408,40.782561],[-73.962098,40.782426],[-73.961989,40.782298],[-73.961777,40.782272],[-73.961589,40.782289],[-73.961404,40.782338],[-73.961232,40.782416],[-73.961095,40.782531],[-73.958161,40.786583],[-73.958132,40.786655],[-73.958179,40.787039],[-73.958147,40.7875],[-73.958074,40.787779],[-73.957832,40.78843],[-73.957884,40.788581],[-73.957998,40.788661],[-73.958125,40.788689],[-73.958225,40.788683],[-73.958546,40.788548],[-73.958986,40.788425],[-73.95924,40.788383],[-73.959529,40.788365],[-73.959734,40.788369],[-73.960082,40.788408],[-73.960501,40.788513],[-73.960672,40.788573],[-73.960766,40.788576],[-73.960977,40.788638],[-73.961089,40.788523],[-73.961218,40.788466],[-73.961367,40.788454],[-73.961571,40.788506],[-73.961892,40.788227],[-73.962177,40.788083],[-73.962393,40.788029],[-73.962749,40.787995],[-73.963222,40.78802],[-73.963866,40.78795],[-73.964305,40.787981],[-73.964668,40.788036],[-73.965021,40.788004],[-73.965302,40.787909],[-73.965459,40.787823],[-73.96576,40.787536],[-73.965849,40.787326],[-73.966283,40.785493],[-73.966325,40.785282],[-73.966289,40.785163],[-73.966067,40.784971],[-73.965883,40.784849],[-73.965653,40.784708],[-73.965366,40.784571],[-73.964026,40.784136],[-73.963715,40.783994],[-73.963457,40.783824],[-73.963281,40.783686],[-73.963115,40.783522],[-73.962903,40.783232],[-73.962778,40.782947],[-73.962708,40.782666],[-73.962642,40.782587]],[[-73.96731,40.774001],[-73.967252,40.77399],[-73.966934,40.774431],[-73.966957,40.774459],[-73.967007,40.774449],[-73.967087,40.774358],[-73.967233,40.774263],[-73.96731,40.774001]],[[-73.973313,40.775654],[-73.973129,40.775661],[-73.972979,40.775608],[-73.972479,40.775703],[-73.972629,40.775763],[-73.972755,40.775845],[-73.972835,40.775957],[-73.97285,40.776079],[-73.972819,40.776176],[-73.972719,40.776282],[-73.972527,40.776385],[-73.972404,40.776428],[-73.972362,40.776504],[-73.972227,40.776653],[-73.972177,40.776825],[-73.972007,40.777043],[-73.97196,40.777191],[-73.971938,40.777341],[-73.972036,40.777462],[-73.97206,40.777564],[-73.972043,40.777651],[-73.972207,40.777769],[-73.972282,40.777919],[-73.97229,40.777989],[-73.972248,40.778126],[-73.972415,40.778051],[-73.972432,40.777947],[-73.972353,40.777878],[-73.972306,40.777806],[-73.972269,40.777664],[-73.972312,40.777547],[-73.972323,40.777417],[-73.972446,40.777239],[-73.972601,40.777157],[-73.972925,40.777111],[-73.973063,40.777139],[-73.973124,40.777169],[-73.973246,40.77726],[-73.973296,40.777331],[-73.97346,40.777212],[-73.973541,40.777032],[-73.973536,40.776847],[-73.97348,40.776621],[-73.973383,40.776387],[-73.973389,40.776216],[-73.973295,40.776068],[-73.973271,40.775983],[-73.973274,40.775765],[-73.973313,40.775654]],[[-73.970791,40.775474],[-73.97073,40.775391],[-73.970691,40.775287],[-73.970557,40.775457],[-73.970791,40.775474]],[[-73.969622,40.775078],[-73.969367,40.775099],[-73.969274,40.775161],[-73.969487,40.775188],[-73.969622,40.775078]],[[-73.974138,40.765686],[-73.974121,40.765667],[-73.974102,40.765712],[-73.974121,40.765697],[-73.974138,40.765686]],[[-73.960117,40.822819],[-73.959865,40.823178],[-73.959698,40.823259],[-73.959564,40.823266],[-73.959437,40.823235],[-73.958705,40.822916],[-73.958598,40.822788],[-73.958588,40.822687],[-73.95863,40.82259],[-73.958984,40.822126],[-73.959152,40.822045],[-73.959285,40.822038],[-73.959412,40.822069],[-73.960087,40.822358],[-73.960189,40.822424],[-73.960249,40.822515],[-73.960259,40.822617],[-73.960217,40.822714],[-73.960117,40.822819]],[[-74.016867,40.766397],[-74.016904,40.766315]],[[-73.958804,40.852745],[-73.958805,40.852543],[-73.958777,40.852402],[-73.958814,40.852308],[-73.958879,40.852243],[-73.958841,40.852143],[-73.958843,40.852087],[-73.958972,40.851817],[-73.959054,40.851745],[-73.959125,40.851713],[-73.959134,40.851493],[-73.959176,40.851383],[-73.959341,40.851204],[-73.959475,40.851128],[-73.959661,40.85111],[-73.959798,40.85115],[-73.960498,40.85011],[-73.960873,40.849374],[-73.960906,40.849201],[-73.960947,40.84911],[-73.961029,40.849037],[-73.961262,40.848935],[-73.961409,40.848806],[-73.9629,40.846705],[-73.963751,40.845885],[-73.963826,40.845623],[-73.964374,40.844781],[-73.964769,40.844243],[-73.965128,40.843683],[-73.965299,40.843361],[-73.965284,40.843006],[-73.965606,40.842442],[-73.965749,40.84235],[-73.965935,40.84233],[-73.966417,40.842451],[-73.96662,40.842587],[-73.966663,40.842582],[-73.967028,40.842235],[-73.967479,40.841585],[-73.967581,40.841013],[-73.96655,40.840648],[-73.966439,40.840585],[-73.966369,40.840495],[-73.966351,40.840391],[-73.96639,40.84029],[-73.966527,40.84009],[-73.966607,40.840014],[-73.966693,40.839974],[-73.966849,40.839725],[-73.966953,40.839656],[-73.967084,40.839623],[-73.967289,40.839648],[-73.967407,40.839533],[-73.967571,40.839467],[-73.968015,40.839454],[-73.96791,40.839337],[-73.967892,40.839256],[-73.967736,40.838999],[-73.967644,40.838705],[-73.967637,40.838651],[-73.967666,40.838545],[-73.96775,40.838457],[-73.967887,40.83839],[-73.968027,40.838356],[-73.968372,40.838383],[-73.968611,40.838445],[-73.969031,40.838468],[-73.969038,40.838359],[-73.969131,40.838234],[-73.969166,40.837705],[-73.969312,40.837094],[-73.967871,40.836644],[-73.967781,40.836581],[-73.967482,40.83628],[-73.967413,40.836138],[-73.967432,40.836037],[-73.967731,40.835387],[-73.967998,40.834907],[-73.967946,40.834443],[-73.967941,40.83416],[-73.967778,40.833859],[-73.967791,40.833714],[-73.967934,40.833535],[-73.968049,40.83347],[-73.968117,40.833407],[-73.968489,40.832928],[-73.968752,40.8327],[-73.968855,40.832659],[-73.968826,40.83254],[-73.968874,40.832276],[-73.969138,40.83172],[-73.969145,40.831488],[-73.969029,40.831449],[-73.968816,40.831293],[-73.968746,40.831214],[-73.968717,40.831121],[-73.968734,40.831027],[-73.969297,40.829738],[-73.969359,40.829535],[-73.969481,40.829295],[-73.969562,40.829075],[-73.969682,40.828876],[-73.969421,40.828773],[-73.969306,40.828644],[-73.969273,40.828501],[-73.969278,40.828417],[-73.969407,40.828182],[-73.969306,40.828074],[-73.969295,40.827922],[-73.969415,40.827713],[-73.969494,40.827631],[-73.969608,40.827578],[-73.969795,40.827568],[-73.969922,40.827403],[-73.970042,40.827176],[-73.970173,40.827075],[-73.970298,40.827038],[-73.970439,40.82704],[-73.970869,40.827186],[-73.970783,40.82708],[-73.970769,40.826974],[-73.970905,40.826638],[-73.971708,40.825391],[-73.971751,40.825255],[-73.971931,40.825016],[-73.972747,40.823718],[-73.972905,40.823628],[-73.973082,40.823617],[-73.973089,40.823404],[-73.973238,40.823233],[-73.973258,40.823131],[-73.973454,40.82262],[-73.973579,40.822491],[-73.973947,40.821971],[-73.974355,40.821347],[-73.9746,40.820891],[-73.974708,40.820794],[-73.974903,40.820441],[-73.975407,40.819908],[-73.975219,40.819832],[-73.975102,40.81971],[-73.975094,40.819559],[-73.975158,40.819447],[-73.97524,40.819365],[-73.975423,40.819302],[-73.975557,40.819309],[-73.975694,40.819356],[-73.975833,40.819135],[-73.976128,40.818825],[-73.976566,40.81815],[-73.976696,40.818043],[-73.976862,40.817802],[-73.97696,40.817737],[-73.977125,40.817702],[-73.977073,40.817532],[-73.977114,40.817382],[-73.976628,40.817191],[-73.976523,40.817314],[-73.976305,40.81741],[-73.976104,40.817408],[-73.976018,40.817377],[-73.975917,40.817311],[-73.975856,40.817221],[-73.975845,40.817126],[-73.975793,40.817058],[-73.975771,40.816957],[-73.975818,40.816831],[-73.975925,40.816732],[-73.975936,40.816659],[-73.97604,40.816475],[-73.976176,40.816367],[-73.976301,40.816335],[-73.976432,40.816341],[-73.97659,40.816399],[-73.976764,40.816505],[-73.976833,40.816587],[-73.976866,40.816673],[-73.977588,40.816958],[-73.97771,40.816913],[-73.977864,40.816887],[-73.978216,40.816457],[-73.97825,40.816389],[-73.978057,40.816289],[-73.97798,40.816143],[-73.978029,40.815989],[-73.978266,40.815699],[-73.978425,40.815623],[-73.97855,40.815613],[-73.978672,40.815638],[-73.978985,40.815753],[-73.979088,40.815662],[-73.979386,40.815463],[-73.979485,40.815331],[-73.979797,40.815079],[-73.97955,40.814882],[-73.979503,40.814795],[-73.979499,40.8147],[-73.979593,40.814489],[-73.979505,40.814219],[-73.979533,40.814089],[-73.979586,40.813996],[-73.979763,40.813833],[-73.979994,40.813773],[-73.980185,40.813776],[-73.980339,40.813672],[-73.980397,40.813517],[-73.980485,40.813429],[-73.980479,40.813403],[-73.980369,40.813309],[-73.978807,40.812689],[-73.97871,40.812633],[-73.978627,40.812515],[-73.978603,40.812409],[-73.978638,40.812305],[-73.978749,40.812135],[-73.978826,40.812057],[-73.978936,40.812007],[-73.97905,40.811987],[-73.979194,40.811991],[-73.981039,40.812683],[-73.981078,40.812598],[-73.98127,40.812365],[-73.981119,40.812302],[-73.980962,40.812201],[-73.980848,40.81209],[-73.980791,40.812],[-73.980764,40.811873],[-73.980781,40.811783],[-73.980804,40.811725],[-73.980925,40.811591],[-73.980982,40.811353],[-73.980659,40.811222],[-73.980547,40.811107],[-73.980532,40.810965],[-73.980675,40.810718],[-73.980812,40.810603],[-73.981012,40.810567],[-73.981145,40.810596],[-73.981577,40.810754],[-73.981641,40.810732],[-73.98259,40.81021],[-73.982805,40.810045],[-73.983289,40.80984],[-73.983423,40.809549],[-73.981907,40.808967],[-73.981802,40.808904],[-73.981736,40.808816],[-73.981719,40.808715],[-73.981755,40.808617],[-73.982512,40.807476],[-73.982593,40.807397],[-73.982773,40.807335],[-73.982905,40.807341],[-73.984518,40.807925],[-73.984809,40.807493],[-73.984967,40.807406],[-73.985163,40.807398],[-73.98562,40.807554],[-73.985757,40.807477],[-73.985877,40.807455],[-73.986154,40.807074],[-73.98389,40.806151],[-73.983789,40.806088],[-73.983678,40.805936],[-73.983663,40.805837],[-73.983697,40.80574],[-73.983842,40.805518],[-73.983929,40.805434],[-73.984208,40.805315],[-73.98441,40.805312],[-73.985395,40.805695],[-73.98559,40.805395],[-73.98576,40.805203],[-73.985856,40.805149],[-73.986131,40.80509],[-73.98718,40.805217],[-73.987698,40.805371],[-73.987879,40.805221],[-73.988227,40.805082],[-73.988585,40.804373],[-73.98739,40.803896],[-73.987288,40.803833],[-73.987224,40.803746],[-73.987218,40.803598],[-73.987344,40.803388],[-73.987425,40.803307],[-73.987608,40.803243],[-73.987742,40.80325],[-73.989058,40.80374],[-73.989271,40.803512],[-73.989362,40.80333],[-73.989453,40.803266],[-73.989636,40.803183],[-73.989828,40.803169],[-73.990306,40.80331],[-73.990774,40.802655],[-73.990615,40.802613],[-73.990461,40.802521],[-73.990393,40.802379],[-73.990408,40.802209],[-73.990478,40.802121],[-73.990609,40.802037],[-73.990939,40.801968],[-73.991124,40.801991],[-73.991302,40.802106],[-73.991457,40.801902],[-73.991562,40.801614],[-73.991953,40.800982],[-73.992013,40.800736],[-73.991982,40.800602],[-73.992004,40.800463],[-73.992061,40.800379],[-73.992145,40.800321],[-73.992154,40.800296],[-73.992059,40.800208],[-73.992022,40.800109],[-73.992057,40.799927],[-73.992111,40.799834],[-73.992208,40.799764],[-73.992399,40.799681],[-73.992654,40.799657],[-73.992798,40.799663],[-73.993181,40.7992],[-73.993651,40.798847],[-73.993807,40.79878],[-73.993951,40.798765],[-73.99415,40.798617],[-73.994172,40.798551],[-73.99234,40.797827],[-73.992217,40.79775],[-73.991951,40.797678],[-73.99177,40.797527],[-73.991652,40.797353],[-73.99161,40.797211],[-73.991643,40.797082],[-73.992041,40.79659],[-73.992166,40.796385],[-73.99236,40.796177],[-73.992494,40.795885],[-73.992515,40.795778],[-73.992593,40.795673],[-73.992692,40.795594],[-73.992953,40.795505],[-73.993153,40.795463],[-73.993305,40.795458],[-73.993947,40.795662],[-73.994536,40.795764],[-73.9945,40.795734],[-73.993286,40.795209],[-73.993181,40.79509],[-73.993175,40.794946],[-73.993228,40.794858],[-73.993432,40.794641],[-73.993633,40.794503],[-73.993667,40.794416],[-73.993734,40.794342],[-73.993849,40.794259],[-73.99401,40.794217],[-73.994029,40.7941],[-73.994004,40.793923],[-73.993931,40.793751],[-73.993933,40.793661],[-73.994139,40.79326],[-73.994443,40.792965],[-73.995283,40.792449],[-73.9954,40.792401],[-73.995597,40.792399],[-73.996406,40.792567],[-73.996454,40.792475],[-73.996378,40.791913],[-73.995921,40.791653],[-73.995846,40.791562],[-73.995828,40.79151],[-73.995836,40.791403],[-73.995918,40.79117],[-73.995975,40.791082],[-73.996128,40.790994],[-73.99632,40.790983],[-73.997237,40.791233],[-73.997643,40.791386],[-73.997563,40.790961],[-73.997626,40.790716],[-73.99768,40.790614],[-73.996986,40.790274],[-73.99691,40.790194],[-73.996881,40.790048],[-73.996923,40.789955],[-73.998248,40.788188],[-73.998375,40.788092],[-73.998422,40.787957],[-73.998848,40.787408],[-73.997753,40.786897],[-73.997652,40.786767],[-73.997646,40.786665],[-73.997692,40.78657],[-73.997752,40.786505],[-73.99786,40.786446],[-73.997989,40.786422],[-73.998121,40.786438],[-73.999113,40.78689],[-73.999218,40.786762],[-73.999333,40.786708],[-74.00099,40.784648],[-74.001953,40.783302],[-74.00298,40.78209],[-74.003146,40.782016],[-74.003275,40.782011],[-74.003398,40.782042],[-74.00374,40.782189],[-74.005045,40.780546],[-74.005188,40.780446],[-74.005313,40.780421],[-74.005443,40.780432],[-74.006073,40.780688],[-74.006105,40.780652],[-74.005259,40.780264],[-74.005126,40.780153],[-74.005093,40.780055],[-74.005112,40.779955],[-74.005361,40.779634],[-74.005531,40.779556],[-74.00573,40.779562],[-74.006647,40.779969],[-74.006907,40.779629],[-74.007001,40.779543],[-74.007326,40.779059],[-74.007477,40.778787],[-74.007652,40.778556],[-74.007916,40.778227],[-74.008219,40.777938],[-74.009026,40.77697],[-74.009194,40.776895],[-74.009389,40.776902],[-74.010258,40.777279],[-74.01045,40.777033],[-74.010472,40.776837],[-74.010372,40.776926],[-74.010254,40.776972],[-74.010118,40.776983],[-74.010017,40.776966],[-74.009904,40.776991],[-74.00981,40.776991],[-74.009683,40.776958],[-74.009588,40.776902],[-74.009527,40.776834],[-74.009491,40.776744],[-74.009492,40.776654],[-74.00953,40.776567],[-74.00971,40.776328],[-74.0098,40.776255],[-74.009835,40.776169],[-74.010007,40.775932],[-74.010108,40.775848],[-74.010228,40.775805],[-74.010368,40.775797],[-74.010533,40.775845],[-74.010636,40.775925],[-74.010696,40.776059],[-74.010803,40.776165],[-74.010835,40.776255],[-74.010825,40.776361],[-74.011,40.776326],[-74.011177,40.776097],[-74.010401,40.775747],[-74.010305,40.775683],[-74.010247,40.775596],[-74.010246,40.775451],[-74.010661,40.774817],[-74.010666,40.774758],[-74.009562,40.774223],[-74.009468,40.774155],[-74.009404,40.774018],[-74.009447,40.773876],[-74.009706,40.773523],[-74.009783,40.773451],[-74.010057,40.773275],[-74.010012,40.773176],[-74.010002,40.773002],[-74.010049,40.772917],[-74.010337,40.772579],[-74.01064,40.772339],[-74.011223,40.772054],[-74.011117,40.772019],[-74.011017,40.77194],[-74.010892,40.771989],[-74.010762,40.772001],[-74.010636,40.771976],[-74.01053,40.771917],[-74.010369,40.771719],[-74.010324,40.77163],[-74.010318,40.771534],[-74.010359,40.771443],[-74.010492,40.771342],[-74.011319,40.771002],[-74.01152,40.771001],[-74.011657,40.771063],[-74.011787,40.770943],[-74.011975,40.770897],[-74.012106,40.770914],[-74.01235,40.771024],[-74.01246,40.770953],[-74.012596,40.770922],[-74.012667,40.770924],[-74.012942,40.770966],[-74.013053,40.770939],[-74.013187,40.770946],[-74.013478,40.771047],[-74.013692,40.770826],[-74.013794,40.770756],[-74.013924,40.770722],[-74.014084,40.770736],[-74.014069,40.770603],[-74.014089,40.770489],[-74.014352,40.77017],[-74.014636,40.769717],[-74.014894,40.769507],[-74.015083,40.76942],[-74.015113,40.769391],[-74.014969,40.769303],[-74.014891,40.769206],[-74.014863,40.769073],[-74.014904,40.76897],[-74.016726,40.766501],[-74.016867,40.766397]],[[-74.000641,40.801668],[-74.000204,40.801336],[-74.000045,40.80128],[-73.999827,40.801297],[-73.999755,40.801399],[-73.999751,40.80168],[-73.999699,40.801774],[-73.999024,40.802268],[-73.998985,40.802324],[-73.998889,40.802395],[-73.998699,40.802436],[-73.998438,40.802379],[-73.998103,40.802362],[-73.997944,40.802322],[-73.997842,40.802475],[-73.997765,40.802722],[-73.997737,40.802984],[-73.997582,40.803335],[-73.997614,40.80363],[-73.997847,40.803527],[-73.99799,40.803502],[-73.99825,40.803343],[-73.998567,40.803247],[-73.999208,40.803097],[-73.999753,40.802692],[-73.999861,40.802637],[-73.999804,40.802548],[-73.999797,40.802442],[-73.999834,40.8023],[-73.999908,40.802165],[-73.999999,40.802091],[-74.000307,40.801971],[-74.000414,40.801882],[-74.00048,40.801787],[-74.000641,40.801668]],[[-74.010518,40.776732],[-74.010641,40.776559],[-74.010649,40.776539],[-74.01049,40.776577],[-74.010518,40.776732]],[[-74.012101,40.771569],[-74.012083,40.77156],[-74.012093,40.771575],[-74.012101,40.771569]]]}},{"type":"Feature","properties":{"i":2},"geometry":{"type":"MultiLineString","coordinates":[[[-74.004484,40.761082],[-74.004467,40.761184],[-74.004357,40.761359],[-74.004175,40.761482],[-74.004063,40.761519],[-74.003943,40.761539],[-74.003702,40.761521],[-74.003187,40.761308],[-74.002981,40.761598],[-74.003174,40.761647],[-74.003417,40.761748],[-74.003595,40.761862],[-74.003702,40.762019],[-74.003722,40.762196],[-74.003697,40.762283],[-74.00356,40.762471],[-74.003379,40.762581],[-74.003271,40.762613],[-74.00304,40.762629],[-74.002926,40.76261],[-74.002764,40.762553],[-74.002641,40.762564],[-74.002635,40.762595],[-74.004155,40.763247],[-74.004237,40.763312],[-74.004343,40.76347],[-74.004363,40.763558],[-74.004335,40.763735],[-74.004141,40.764011],[-74.00399,40.764144],[-74.003892,40.764191],[-74.003723,40.764231],[-74.003735,40.764405],[-74.003821,40.764581],[-74.003807,40.764767],[-74.003706,40.764938],[-74.003627,40.765027],[-74.003519,40.765107],[-74.00339,40.765164],[-74.003202,40.765205],[-74.002949,40.76519],[-74.0028,40.765142],[-74.00171,40.764681],[-74.001556,40.764662],[-74.001451,40.764628],[-74.001067,40.76447],[-74.000968,40.764418],[-74.000854,40.764317],[-74.000019,40.763963],[-73.999966,40.764035],[-74.002611,40.765155],[-74.002707,40.765206],[-74.00285,40.765346],[-74.002912,40.765517],[-74.002883,40.765693],[-74.002591,40.766098],[-74.00244,40.766231],[-74.002305,40.766297],[-74.002186,40.766329],[-74.002009,40.766343],[-74.001809,40.766321],[-74.001657,40.766273],[-73.999277,40.765252],[-73.999258,40.765319],[-74.001835,40.766404],[-74.001965,40.766474],[-74.002047,40.766533],[-74.00214,40.766639],[-74.002217,40.766818],[-74.002223,40.76696],[-74.002147,40.767139],[-74.002021,40.767286],[-74.00196,40.767329],[-74.00194,40.767395],[-74.001844,40.767541],[-74.001705,40.767665],[-74.001448,40.767771],[-74.001138,40.767791],[-74.000865,40.767721],[-73.998212,40.766605],[-73.998176,40.766654],[-74.000913,40.767807],[-74.001034,40.767874],[-74.00114,40.767963],[-74.001198,40.768041],[-74.001241,40.768151],[-74.001249,40.768311],[-74.001183,40.768464],[-74.00093,40.768799],[-74.000753,40.768909],[-74.000507,40.768962],[-74.000211,40.768936],[-73.997393,40.767745],[-73.997265,40.767925],[-74.00014,40.769141],[-74.000286,40.769283],[-74.000329,40.769368],[-74.000344,40.769549],[-74.000264,40.769719],[-74.000029,40.770017],[-73.999876,40.770145],[-73.999671,40.770221],[-73.999443,40.770233],[-73.999227,40.770178],[-73.997317,40.769363],[-73.996584,40.770367],[-73.996597,40.770524],[-73.996525,40.770692],[-73.996354,40.770906],[-73.99627,40.770968],[-73.99611,40.771034],[-73.995786,40.771481],[-73.99737,40.772137],[-73.99755,40.772251],[-73.997657,40.772409],[-73.997677,40.772586],[-73.997652,40.772673],[-73.997318,40.773128],[-73.997134,40.773238],[-73.997024,40.773271],[-73.996798,40.773284],[-73.996657,40.77349],[-73.996763,40.773598],[-73.996826,40.773769],[-73.996775,40.774044],[-73.996701,40.774213],[-73.996548,40.774398],[-73.996464,40.774459],[-73.996256,40.774538],[-73.996025,40.774551],[-73.995805,40.774495],[-73.994194,40.773802],[-73.993899,40.774099],[-73.993148,40.775182],[-73.993059,40.775273],[-73.993049,40.775488],[-73.992937,40.775739],[-73.99145,40.777778],[-73.991382,40.777853],[-73.991192,40.777965],[-73.991079,40.777997],[-73.990757,40.77802],[-73.989474,40.779802],[-73.989508,40.780283],[-73.989443,40.780442],[-73.988766,40.781415],[-73.988462,40.782041],[-73.986878,40.784332],[-73.987084,40.784385],[-73.987385,40.78453],[-73.987485,40.784598],[-73.987581,40.784705],[-73.987634,40.784819],[-73.98764,40.785004],[-73.987704,40.785201],[-73.987682,40.785348],[-73.987621,40.78546],[-73.986987,40.786223],[-73.986854,40.786328],[-73.986632,40.786443],[-73.986539,40.786539],[-73.986502,40.786649],[-73.986424,40.786758],[-73.986153,40.786991],[-73.985953,40.787066],[-73.985794,40.787084],[-73.984988,40.787054],[-73.982455,40.790672],[-73.982312,40.790914],[-73.98212,40.791141],[-73.981209,40.792421],[-73.980631,40.793271],[-73.976281,40.799406],[-73.975785,40.800153],[-73.972746,40.804497],[-73.972525,40.804798],[-73.972356,40.804954],[-73.971771,40.805816],[-73.970145,40.808003],[-73.969405,40.808938],[-73.968581,40.810182],[-73.968043,40.811047],[-73.967308,40.812121],[-73.967034,40.812567],[-73.966488,40.813338],[-73.966068,40.813874],[-73.96572,40.814362],[-73.965378,40.81494],[-73.964701,40.815938],[-73.964333,40.816402],[-73.963423,40.817422],[-73.962641,40.818221],[-73.962813,40.818295],[-73.962894,40.818357],[-73.96304,40.818507],[-73.963084,40.81859],[-73.963105,40.818769],[-73.96308,40.818857],[-73.963009,40.818965],[-73.963057,40.819056],[-73.963076,40.819223],[-73.963058,40.819299],[-73.962972,40.819441],[-73.962838,40.819572],[-73.962744,40.819628],[-73.962511,40.819696],[-73.962287,40.819694],[-73.962179,40.819668],[-73.961984,40.819581],[-73.961882,40.819662],[-73.960775,40.820325],[-73.960426,40.820703],[-73.960238,40.8208],[-73.960086,40.82083],[-73.959305,40.821847],[-73.959536,40.821902],[-73.960307,40.822241],[-73.960451,40.822381],[-73.960513,40.822551],[-73.96051,40.82264],[-73.960437,40.822808],[-73.960327,40.822931],[-73.960124,40.823231],[-73.960022,40.823329],[-73.960118,40.823427],[-73.960184,40.823591],[-73.960185,40.823677],[-73.960124,40.823842],[-73.957811,40.827342],[-73.95767,40.827481],[-73.957576,40.827532],[-73.95747,40.827568],[-73.957251,40.827591],[-73.956847,40.828175],[-73.956702,40.828311],[-73.956607,40.828361],[-73.956387,40.828414],[-73.956157,40.8284],[-73.95527,40.828069],[-73.955154,40.828219],[-73.955068,40.828284],[-73.954918,40.82835],[-73.954709,40.828606],[-73.954487,40.82878],[-73.953987,40.829555],[-73.95376,40.829948],[-73.95163,40.833093],[-73.951583,40.833237],[-73.951293,40.833748],[-73.950718,40.834565],[-73.950668,40.834788],[-73.950331,40.8358],[-73.950288,40.836173],[-73.95012,40.83676],[-73.950131,40.83687],[-73.950092,40.837107],[-73.94985,40.837734],[-73.949768,40.838027],[-73.949502,40.838776],[-73.949098,40.839768],[-73.948696,40.840535],[-73.948191,40.841591],[-73.946976,40.843518],[-73.946732,40.843964],[-73.946704,40.844353],[-73.946781,40.84502],[-73.946876,40.845526],[-73.947008,40.845666],[-73.947118,40.84585],[-73.94714,40.845925],[-73.947135,40.846119],[-73.947019,40.846312],[-73.947203,40.846519],[-73.947421,40.846922],[-73.947439,40.847194],[-73.947404,40.84742],[-73.952589,40.849606],[-73.952766,40.84972],[-73.952873,40.849877],[-73.952892,40.850053],[-73.952819,40.850223]],[[-73.951278,40.796417],[-73.951263,40.796371],[-73.951223,40.796106],[-73.951031,40.796215],[-73.950869,40.796404],[-73.951085,40.796393],[-73.951278,40.796417]],[[-73.966071,40.785272],[-73.96589,40.785109],[-73.965721,40.784996],[-73.965506,40.784864],[-73.96525,40.784742],[-73.963919,40.78431],[-73.963584,40.784158],[-73.963288,40.783967],[-73.963053,40.783778],[-73.962763,40.783448],[-73.962573,40.783103],[-73.962487,40.78278],[-73.962286,40.78273],[-73.962032,40.782624],[-73.961935,40.782573],[-73.96182,40.78247],[-73.961645,40.782477],[-73.96144,40.782539],[-73.961306,40.782637],[-73.958394,40.786658],[-73.958387,40.786733],[-73.958432,40.787029],[-73.958396,40.78753],[-73.958317,40.787833],[-73.958087,40.788434],[-73.958104,40.788482],[-73.958154,40.788497],[-73.958452,40.78837],[-73.958905,40.788243],[-73.959189,40.788195],[-73.95947,40.788174],[-73.959761,40.788178],[-73.960129,40.788219],[-73.96073,40.788381],[-73.960891,40.788405],[-73.961019,40.788325],[-73.961138,40.788284],[-73.961268,40.788263],[-73.961488,40.788277],[-73.961739,40.788074],[-73.961955,40.787957],[-73.962162,40.78788],[-73.962499,40.787819],[-73.962731,40.787803],[-73.963212,40.787828],[-73.963721,40.787767],[-73.963958,40.787759],[-73.964444,40.787802],[-73.964719,40.787845],[-73.964955,40.787818],[-73.96508,40.787782],[-73.965314,40.787664],[-73.965461,40.787527],[-73.965567,40.78738],[-73.966071,40.785272]],[[-73.972725,40.776511],[-73.972596,40.776572],[-73.972468,40.776728],[-73.972406,40.776906],[-73.972252,40.777117],[-73.972342,40.777051],[-73.97248,40.776987],[-73.972813,40.776925],[-73.973061,40.776934],[-73.973273,40.777015],[-73.973295,40.776963],[-73.973285,40.776873],[-73.973233,40.776663],[-73.973132,40.776412],[-73.973129,40.776257],[-73.973083,40.776182],[-73.97297,40.776355],[-73.972891,40.776422],[-73.972725,40.776511]],[[-74.016652,40.766276],[-74.016683,40.766222]],[[-73.958558,40.852641],[-73.958525,40.852382],[-73.9586,40.852207],[-73.958593,40.852061],[-73.958707,40.851794],[-73.958754,40.851719],[-73.958868,40.851616],[-73.958897,40.851406],[-73.958951,40.851295],[-73.959088,40.851136],[-73.959279,40.850992],[-73.959479,40.850926],[-73.959668,40.850918],[-73.960266,40.850031],[-73.960627,40.849325],[-73.960682,40.849092],[-73.960727,40.849015],[-73.960868,40.848888],[-73.961101,40.848782],[-73.9612,40.848696],[-73.962676,40.846616],[-73.963513,40.845804],[-73.963598,40.845539],[-73.963906,40.845056],[-73.964545,40.844154],[-73.964897,40.843605],[-73.965043,40.843328],[-73.965035,40.842972],[-73.965076,40.842872],[-73.965396,40.842334],[-73.96555,40.842216],[-73.965749,40.842148],[-73.965858,40.842136],[-73.966075,40.842158],[-73.966428,40.842245],[-73.966612,40.842323],[-73.966817,40.842128],[-73.967236,40.841525],[-73.967313,40.841127],[-73.96634,40.840775],[-73.966179,40.84064],[-73.966102,40.840467],[-73.966099,40.840376],[-73.966166,40.840201],[-73.966303,40.840001],[-73.966364,40.83993],[-73.966488,40.839844],[-73.966647,40.83961],[-73.966729,40.839543],[-73.966937,40.839452],[-73.967187,40.839433],[-73.967319,40.839342],[-73.967415,40.839304],[-73.967622,40.83927],[-73.967465,40.838985],[-73.967384,40.838651],[-73.967435,40.838467],[-73.967581,40.838314],[-73.967761,40.838224],[-73.968003,40.838165],[-73.968403,40.838192],[-73.968665,40.838255],[-73.968817,40.838261],[-73.968882,40.838168],[-73.968917,40.837671],[-73.969026,40.837213],[-73.967735,40.836806],[-73.967579,40.836697],[-73.96728,40.836396],[-73.967219,40.83632],[-73.96716,40.836149],[-73.967193,40.835973],[-73.967493,40.835324],[-73.967741,40.834875],[-73.967694,40.834461],[-73.967688,40.8342],[-73.967565,40.833981],[-73.967517,40.833815],[-73.967553,40.833648],[-73.967751,40.833402],[-73.967913,40.833293],[-73.968303,40.832798],[-73.968576,40.832563],[-73.96858,40.832464],[-73.968654,40.832157],[-73.968886,40.831684],[-73.968888,40.831608],[-73.968567,40.831365],[-73.968514,40.831292],[-73.968464,40.831131],[-73.968494,40.830966],[-73.969346,40.828967],[-73.969253,40.828917],[-73.969137,40.828816],[-73.969044,40.828637],[-73.969023,40.828415],[-73.969109,40.828203],[-73.969039,40.828054],[-73.969049,40.827877],[-73.969245,40.827556],[-73.969416,40.827436],[-73.969637,40.827375],[-73.969823,40.827081],[-73.969957,40.826957],[-73.970106,40.826884],[-73.970253,40.82685],[-73.970411,40.826843],[-73.970543,40.826862],[-73.970696,40.82652],[-73.971456,40.825344],[-73.971531,40.82516],[-73.971707,40.824926],[-73.972484,40.82368],[-73.972621,40.823539],[-73.972824,40.823447],[-73.972887,40.823273],[-73.972996,40.823154],[-73.973228,40.822534],[-73.973366,40.822386],[-73.973722,40.821882],[-73.974125,40.821267],[-73.974384,40.820791],[-73.974486,40.820698],[-73.974671,40.820365],[-73.975043,40.819969],[-73.974912,40.819854],[-73.974836,40.819687],[-73.974849,40.819511],[-73.97493,40.819363],[-73.975072,40.819221],[-73.975168,40.819169],[-73.97539,40.819112],[-73.975558,40.819115],[-73.975908,40.818729],[-73.976403,40.817987],[-73.976497,40.817915],[-73.976661,40.817685],[-73.976827,40.817573],[-73.976824,40.817484],[-73.976712,40.81744],[-73.976485,40.817561],[-73.976375,40.817595],[-73.976141,40.81761],[-73.975917,40.817555],[-73.975718,40.81743],[-73.975613,40.817274],[-73.975526,40.817039],[-73.975518,40.81695],[-73.975573,40.816777],[-73.975684,40.816643],[-73.975815,40.816387],[-73.975957,40.81625],[-73.976156,40.816164],[-73.976383,40.816142],[-73.976496,40.816155],[-73.976645,40.816201],[-73.976864,40.816317],[-73.977017,40.816441],[-73.977077,40.816539],[-73.977591,40.816742],[-73.977704,40.816717],[-73.977916,40.816452],[-73.977794,40.816333],[-73.977749,40.816247],[-73.977728,40.816156],[-73.977761,40.815974],[-73.978078,40.815572],[-73.978251,40.81547],[-73.97846,40.815422],[-73.978679,40.815436],[-73.978924,40.815517],[-73.979177,40.815351],[-73.979291,40.815207],[-73.979439,40.815078],[-73.979288,40.814914],[-73.979243,40.814753],[-73.979249,40.814671],[-73.979326,40.814482],[-73.979253,40.814224],[-73.979266,40.814116],[-73.979322,40.813964],[-73.979467,40.813789],[-73.97962,40.813674],[-73.979817,40.813608],[-73.980089,40.813575],[-73.980123,40.813553],[-73.980164,40.813444],[-73.97869,40.81286],[-73.978522,40.812761],[-73.978391,40.812586],[-73.978351,40.812401],[-73.978412,40.81222],[-73.978522,40.81205],[-73.978656,40.811915],[-73.978846,40.811827],[-73.979007,40.811797],[-73.979257,40.811805],[-73.980907,40.812419],[-73.980772,40.812327],[-73.980623,40.812178],[-73.980551,40.81206],[-73.98052,40.811949],[-73.980532,40.811749],[-73.980572,40.811648],[-73.980685,40.811515],[-73.980696,40.811457],[-73.980505,40.811374],[-73.980424,40.811317],[-73.980311,40.811175],[-73.980282,40.811094],[-73.980273,40.811011],[-73.980316,40.810847],[-73.980506,40.810559],[-73.980587,40.810491],[-73.980793,40.810399],[-73.981031,40.810375],[-73.981261,40.810425],[-73.981561,40.81054],[-73.982421,40.810066],[-73.982655,40.80989],[-73.983076,40.809718],[-73.983109,40.809644],[-73.981694,40.809091],[-73.981543,40.808957],[-73.98147,40.808789],[-73.981487,40.808613],[-73.981529,40.80853],[-73.982286,40.807389],[-73.982427,40.807252],[-73.982627,40.807165],[-73.982739,40.807144],[-73.982969,40.807155],[-73.984403,40.80767],[-73.984608,40.807376],[-73.984686,40.807312],[-73.984883,40.807224],[-73.984995,40.807204],[-73.985223,40.807212],[-73.985583,40.807329],[-73.985709,40.807288],[-73.985809,40.807151],[-73.983771,40.80632],[-73.983595,40.806211],[-73.983437,40.805994],[-73.983411,40.805822],[-73.983471,40.805655],[-73.983616,40.805432],[-73.983766,40.805287],[-73.98413,40.805132],[-73.984364,40.805112],[-73.984589,40.805161],[-73.985282,40.805434],[-73.985512,40.805133],[-73.985655,40.805019],[-73.98584,40.804948],[-73.986115,40.804899],[-73.987221,40.805027],[-73.987627,40.805141],[-73.987723,40.80507],[-73.988024,40.804945],[-73.988257,40.804459],[-73.987272,40.804066],[-73.987177,40.804018],[-73.98703,40.803886],[-73.986958,40.803722],[-73.986973,40.803549],[-73.987116,40.803305],[-73.987258,40.803163],[-73.98746,40.803073],[-73.987574,40.803053],[-73.987808,40.803064],[-73.988972,40.803493],[-73.98904,40.803425],[-73.989102,40.803286],[-73.989159,40.803216],[-73.989317,40.803104],[-73.989543,40.803004],[-73.989764,40.802972],[-73.989876,40.802981],[-73.990191,40.803068],[-73.99042,40.802748],[-73.990259,40.802637],[-73.990158,40.802477],[-73.990135,40.802322],[-73.99017,40.802144],[-73.990292,40.801991],[-73.990495,40.801866],[-73.990911,40.801777],[-73.991021,40.801775],[-73.991225,40.801816],[-73.991334,40.801532],[-73.991711,40.800922],[-73.991753,40.80075],[-73.991731,40.800646],[-73.99174,40.800489],[-73.991762,40.800408],[-73.991833,40.800295],[-73.991791,40.800212],[-73.991773,40.800035],[-73.99181,40.799886],[-73.991904,40.799724],[-73.992073,40.799602],[-73.992319,40.799498],[-73.992661,40.799466],[-73.993001,40.799065],[-73.993408,40.798751],[-73.993607,40.798641],[-73.993737,40.798596],[-73.992223,40.797997],[-73.992091,40.797925],[-73.991892,40.797874],[-73.991721,40.797779],[-73.991549,40.79762],[-73.991379,40.797335],[-73.991358,40.797212],[-73.991409,40.797011],[-73.991827,40.796487],[-73.991958,40.796275],[-73.992137,40.79608],[-73.992242,40.795847],[-73.992279,40.795709],[-73.992377,40.795573],[-73.992549,40.795435],[-73.992767,40.795355],[-73.993038,40.795288],[-73.99294,40.795149],[-73.992916,40.795067],[-73.99293,40.794899],[-73.992966,40.79482],[-73.993226,40.794529],[-73.993411,40.794393],[-73.993487,40.794269],[-73.993552,40.794208],[-73.993771,40.794074],[-73.993756,40.793965],[-73.993682,40.793781],[-73.993684,40.793625],[-73.993858,40.793256],[-73.993936,40.793146],[-73.994172,40.792902],[-73.994289,40.792812],[-73.995121,40.792302],[-73.995324,40.792218],[-73.995553,40.792199],[-73.996176,40.792325],[-73.996137,40.792016],[-73.995739,40.791786],[-73.995609,40.791629],[-73.995578,40.791539],[-73.995592,40.791353],[-73.995674,40.79112],[-73.995772,40.790967],[-73.995938,40.790852],[-73.996148,40.790792],[-73.99626,40.790785],[-73.996479,40.79082],[-73.997319,40.791051],[-73.99731,40.790954],[-73.997374,40.790694],[-73.996902,40.790466],[-73.996738,40.790349],[-73.99668,40.790274],[-73.996626,40.790108],[-73.996657,40.789938],[-73.998028,40.788093],[-73.998139,40.78799],[-73.998204,40.787859],[-73.998503,40.787474],[-73.997676,40.787092],[-73.997505,40.786973],[-73.997406,40.786812],[-73.99739,40.786724],[-73.997426,40.78655],[-73.997476,40.78647],[-73.997567,40.786375],[-73.997754,40.786272],[-73.997864,40.786243],[-73.998095,40.786236],[-73.998313,40.786296],[-73.999036,40.78663],[-73.999155,40.786561],[-74.000771,40.784552],[-74.00174,40.783199],[-74.002727,40.782025],[-74.002881,40.781901],[-74.003085,40.78183],[-74.003197,40.781817],[-74.003419,40.78184],[-74.003651,40.78193],[-74.004828,40.780447],[-74.004973,40.780324],[-74.004858,40.780152],[-74.004846,40.779977],[-74.004923,40.779811],[-74.005172,40.779506],[-74.005258,40.779446],[-74.005468,40.77937],[-74.005701,40.77936],[-74.00592,40.779419],[-74.006556,40.779705],[-74.006792,40.779432],[-74.007097,40.778978],[-74.007258,40.778691],[-74.0077,40.778127],[-74.008013,40.777826],[-74.008842,40.776839],[-74.009026,40.776738],[-74.009234,40.776697],[-74.009252,40.776587],[-74.009305,40.776479],[-74.009573,40.776152],[-74.009778,40.775849],[-74.009865,40.775757],[-74.010013,40.775667],[-74.009983,40.775566],[-74.010003,40.775398],[-74.010363,40.774839],[-74.009337,40.774332],[-74.009206,40.774194],[-74.009152,40.774029],[-74.009181,40.77386],[-74.009485,40.773429],[-74.009545,40.773362],[-74.009765,40.773211],[-74.009742,40.773041],[-74.009755,40.772961],[-74.009837,40.772812],[-74.010191,40.772411],[-74.010392,40.772248],[-74.010548,40.772155],[-74.010344,40.772046],[-74.010113,40.771754],[-74.010063,40.771591],[-74.010093,40.771426],[-74.010138,40.771349],[-74.010279,40.771221],[-74.010371,40.771174],[-74.011243,40.770819],[-74.011476,40.7708],[-74.011594,40.770818],[-74.011744,40.770742],[-74.011969,40.770705],[-74.012196,40.770734],[-74.01233,40.770788],[-74.012454,40.770748],[-74.012576,40.770731],[-74.01294,40.770762],[-74.013138,40.770746],[-74.013254,40.770761],[-74.013398,40.770806],[-74.013569,40.770645],[-74.013665,40.770591],[-74.013819,40.770544],[-74.013852,40.770422],[-74.014131,40.770076],[-74.014427,40.769609],[-74.014718,40.769369],[-74.014652,40.769267],[-74.014613,40.769149],[-74.014611,40.769056],[-74.014683,40.768877],[-74.016505,40.766407],[-74.016652,40.766276]],[[-74.000276,40.801676],[-74.000014,40.801481],[-73.999999,40.801718],[-73.999964,40.801803],[-73.999845,40.80194],[-74.000148,40.801813],[-74.000276,40.801676]],[[-73.999729,40.802028],[-73.999226,40.802389],[-73.999117,40.802501],[-73.998923,40.802596],[-73.998696,40.802628],[-73.998581,40.802619],[-73.998396,40.802569],[-73.998078,40.802553],[-73.998014,40.802757],[-73.997983,40.803029],[-73.997849,40.80333],[-73.998059,40.803202],[-73.998156,40.803165],[-73.998474,40.803069],[-73.999072,40.80293],[-73.999555,40.802571],[-73.999541,40.802505],[-73.999566,40.802323],[-73.999642,40.802142],[-73.999729,40.802028]]]}},{"type":"Feature","properties":{"i":3},"geometry":{"type":"MultiLineString","coordinates":[[[-74.004772,40.761204],[-74.004697,40.761378],[-74.004602,40.761499],[-74.004477,40.761603],[-74.004327,40.761684],[-74.004157,40.761741],[-74.003881,40.761771],[-74.003997,40.761954],[-74.004029,40.762087],[-74.004027,40.762222],[-74.00399,40.762354],[-74.003895,40.762511],[-74.003795,40.762621],[-74.003614,40.762742],[-74.004207,40.762992],[-74.004354,40.76307],[-74.004478,40.763167],[-74.004574,40.763281],[-74.004638,40.763407],[-74.004669,40.763541],[-74.004665,40.763676],[-74.004626,40.763808],[-74.004554,40.763932],[-74.004306,40.764236],[-74.004179,40.764328],[-74.004062,40.764384],[-74.004125,40.764546],[-74.004133,40.764688],[-74.004103,40.764829],[-74.003979,40.765044],[-74.003859,40.765179],[-74.003705,40.765293],[-74.003521,40.765375],[-74.003382,40.765415],[-74.003204,40.765437],[-74.003213,40.765635],[-74.003174,40.765767],[-74.003101,40.76589],[-74.002756,40.766323],[-74.0026,40.766431],[-74.002402,40.766517],[-74.002483,40.766653],[-74.002522,40.766794],[-74.002529,40.766984],[-74.002489,40.767125],[-74.002412,40.767256],[-74.002236,40.767451],[-74.002158,40.767593],[-74.002016,40.767758],[-74.0019,40.767846],[-74.001765,40.767916],[-74.001501,40.767999],[-74.001561,40.768223],[-74.001553,40.768344],[-74.001452,40.768575],[-74.001264,40.768838],[-74.001166,40.768948],[-74.001043,40.769041],[-74.000898,40.769115],[-74.000737,40.769166],[-74.000568,40.769192],[-74.000625,40.769307],[-74.000655,40.769443],[-74.000648,40.769581],[-74.000604,40.769715],[-74.000527,40.769839],[-74.000188,40.770243],[-74.00006,40.770332],[-73.999912,40.770401],[-73.999749,40.770447],[-73.999578,40.770468],[-73.999404,40.770464],[-73.999235,40.770435],[-73.999076,40.770382],[-73.997439,40.769683],[-73.996904,40.770412],[-73.996902,40.770551],[-73.996864,40.770683],[-73.996793,40.770806],[-73.996587,40.771058],[-73.996459,40.771151],[-73.996331,40.771213],[-73.996205,40.771389],[-73.997517,40.771932],[-73.997664,40.772008],[-73.997789,40.772105],[-73.997886,40.772218],[-73.997952,40.772344],[-73.997985,40.772477],[-73.997982,40.772613],[-73.997944,40.772745],[-73.997653,40.773169],[-73.997552,40.77328],[-73.997423,40.773374],[-73.997273,40.773447],[-73.997042,40.773504],[-73.997101,40.773619],[-73.997132,40.773751],[-73.997128,40.773886],[-73.99704,40.774205],[-73.996967,40.774329],[-73.99678,40.774551],[-73.996652,40.774644],[-73.996502,40.774715],[-73.996338,40.774763],[-73.996164,40.774786],[-73.995987,40.774782],[-73.995815,40.774753],[-73.995654,40.774698],[-73.994276,40.774105],[-73.994162,40.77422],[-73.993368,40.775349],[-73.993355,40.775513],[-73.993294,40.775698],[-73.993209,40.775848],[-73.991719,40.77789],[-73.991615,40.778004],[-73.991483,40.778101],[-73.991328,40.778174],[-73.991157,40.778223],[-73.990944,40.778246],[-73.989787,40.779854],[-73.989813,40.78031],[-73.989779,40.780434],[-73.989714,40.780551],[-73.989046,40.781511],[-73.988732,40.78215],[-73.987304,40.784215],[-73.987567,40.784342],[-73.98771,40.78444],[-73.987818,40.784549],[-73.987913,40.784711],[-73.987946,40.784823],[-73.987953,40.784969],[-73.988006,40.785139],[-73.988011,40.785247],[-73.987977,40.785413],[-73.987888,40.785575],[-73.987238,40.786357],[-73.987115,40.786466],[-73.986857,40.786609],[-73.986718,40.786842],[-73.986411,40.787132],[-73.986146,40.787261],[-73.98592,40.78731],[-73.985167,40.787295],[-73.98273,40.790776],[-73.982592,40.791009],[-73.982383,40.791262],[-73.981479,40.792531],[-73.980901,40.793382],[-73.976553,40.799514],[-73.976056,40.800263],[-73.973018,40.804606],[-73.972793,40.804912],[-73.972608,40.805092],[-73.972039,40.80593],[-73.97041,40.808121],[-73.96967,40.809057],[-73.968858,40.810284],[-73.968317,40.811152],[-73.967583,40.812225],[-73.967312,40.812667],[-73.966759,40.813449],[-73.966337,40.813986],[-73.965993,40.81447],[-73.965652,40.815045],[-73.964971,40.816049],[-73.964587,40.816532],[-73.963682,40.817547],[-73.963077,40.818168],[-73.963311,40.818398],[-73.963379,40.818525],[-73.963412,40.818659],[-73.96341,40.818795],[-73.963344,40.818977],[-73.963381,40.819116],[-73.963382,40.819243],[-73.963355,40.81936],[-73.963225,40.819573],[-73.963051,40.81974],[-73.962908,40.819825],[-73.962728,40.819892],[-73.962564,40.819926],[-73.962394,40.819936],[-73.962225,40.819922],[-73.962029,40.819871],[-73.961003,40.820486],[-73.960643,40.820868],[-73.96051,40.820952],[-73.960287,40.821032],[-73.959752,40.821727],[-73.960361,40.821987],[-73.960507,40.822064],[-73.960629,40.822162],[-73.960725,40.822275],[-73.960789,40.822401],[-73.960819,40.822534],[-73.960815,40.822669],[-73.960776,40.8228],[-73.960704,40.822923],[-73.960588,40.823057],[-73.960399,40.823336],[-73.960455,40.823439],[-73.960489,40.823566],[-73.960491,40.823697],[-73.96046,40.823825],[-73.960399,40.823946],[-73.958086,40.827447],[-73.957992,40.82756],[-73.957871,40.827657],[-73.957728,40.827734],[-73.957445,40.827811],[-73.957022,40.828395],[-73.9569,40.82849],[-73.956755,40.828565],[-73.956594,40.828618],[-73.956422,40.828646],[-73.956247,40.828648],[-73.956074,40.828625],[-73.955383,40.828373],[-73.955262,40.828465],[-73.955133,40.828529],[-73.954952,40.828749],[-73.954729,40.828931],[-73.954033,40.830054],[-73.951924,40.833168],[-73.951868,40.833324],[-73.951577,40.833837],[-73.951013,40.834652],[-73.950634,40.835839],[-73.950594,40.836193],[-73.950434,40.836777],[-73.950431,40.836961],[-73.950395,40.837146],[-73.950146,40.837796],[-73.94981,40.838809],[-73.949388,40.839844],[-73.948983,40.840617],[-73.948481,40.84167],[-73.947255,40.843616],[-73.94704,40.844023],[-73.947012,40.844348],[-73.947087,40.844993],[-73.947168,40.845424],[-73.947351,40.845671],[-73.947444,40.845893],[-73.947457,40.846047],[-73.947434,40.846172],[-73.947382,40.84629],[-73.947485,40.846426],[-73.947721,40.84687],[-73.947743,40.847003],[-73.947736,40.847293],[-73.952738,40.849402],[-73.952884,40.849478],[-73.953007,40.849575],[-73.953103,40.849688],[-73.953168,40.849813],[-73.9532,40.849945],[-73.953197,40.85008],[-73.95316,40.850211],[-73.953088,40.850336]],[[-73.965748,40.785336],[-73.965327,40.785054],[-73.965108,40.78495],[-73.96379,40.784521],[-73.96329,40.784282],[-73.962877,40.78398],[-73.962611,40.783714],[-73.962359,40.783346],[-73.962213,40.782959],[-73.961884,40.782828],[-73.961684,40.78271],[-73.961598,40.78274],[-73.958695,40.786722],[-73.958738,40.787017],[-73.958709,40.787498],[-73.958627,40.787853],[-73.958537,40.788093],[-73.958807,40.788022],[-73.959127,40.787967],[-73.959444,40.787941],[-73.959721,40.787943],[-73.960185,40.78799],[-73.960813,40.788153],[-73.961042,40.788063],[-73.961224,40.788032],[-73.961362,40.78803],[-73.961554,40.787888],[-73.961808,40.787752],[-73.96207,40.787658],[-73.962293,40.78761],[-73.962708,40.787571],[-73.9632,40.787594],[-73.963814,40.787526],[-73.964386,40.78756],[-73.964706,40.787612],[-73.96494,40.787574],[-73.965095,40.787499],[-73.965152,40.787448],[-73.965264,40.787331],[-73.965303,40.787232],[-73.965748,40.785336]],[[-74.016392,40.766144],[-74.016415,40.76611]],[[-73.958221,40.8525],[-73.95822,40.852359],[-73.958283,40.852176],[-73.958288,40.852029],[-73.958335,40.851888],[-73.958489,40.8516],[-73.958573,40.851512],[-73.958599,40.85135],[-73.95868,40.851185],[-73.958833,40.851005],[-73.958978,40.850878],[-73.959107,40.850798],[-73.959253,40.850738],[-73.959476,40.850692],[-73.959986,40.849936],[-73.960328,40.849265],[-73.960391,40.849016],[-73.96046,40.8489],[-73.960555,40.848796],[-73.960674,40.848707],[-73.960905,40.848598],[-73.960947,40.848562],[-73.962404,40.846507],[-73.963224,40.845706],[-73.963321,40.845438],[-73.963632,40.84495],[-73.964272,40.844046],[-73.964616,40.843511],[-73.964733,40.843289],[-73.964733,40.84293],[-73.964794,40.842779],[-73.965142,40.842203],[-73.965248,40.842106],[-73.965375,40.842024],[-73.96552,40.841962],[-73.965677,40.841921],[-73.965842,40.841903],[-73.966008,40.841908],[-73.966531,40.842026],[-73.966762,40.841726],[-73.96694,40.841453],[-73.966979,40.841267],[-73.966315,40.841034],[-73.966158,40.840963],[-73.966022,40.84087],[-73.965914,40.840758],[-73.965838,40.840632],[-73.965797,40.840497],[-73.965793,40.840358],[-73.965825,40.840221],[-73.965893,40.840092],[-73.966031,40.839893],[-73.966123,40.839785],[-73.966243,40.839691],[-73.966401,40.83947],[-73.966525,40.839368],[-73.966674,40.839287],[-73.966841,40.83923],[-73.967062,40.8392],[-73.967205,40.839125],[-73.967097,40.838795],[-73.967076,40.838652],[-73.967096,40.838509],[-73.967154,40.838372],[-73.967249,40.838247],[-73.967375,40.83814],[-73.967529,40.838056],[-73.967785,40.837962],[-73.967975,40.837933],[-73.968169,40.837935],[-73.968585,40.837988],[-73.968615,40.837629],[-73.96868,40.837358],[-73.967714,40.837059],[-73.96757,40.837003],[-73.967442,40.836928],[-73.967035,40.836537],[-73.966942,40.836422],[-73.966881,40.836295],[-73.966854,40.836162],[-73.966861,40.836027],[-73.966903,40.835896],[-73.967203,40.835247],[-73.96743,40.834836],[-73.967382,40.834249],[-73.967231,40.833949],[-73.96721,40.833821],[-73.967222,40.833693],[-73.967265,40.833568],[-73.967406,40.833364],[-73.96753,40.833241],[-73.967665,40.833155],[-73.967798,40.833],[-73.967937,40.832793],[-73.968274,40.832464],[-73.968366,40.832076],[-73.968553,40.831695],[-73.968314,40.831496],[-73.968233,40.831386],[-73.96818,40.831267],[-73.968157,40.831142],[-73.968165,40.831016],[-73.968202,40.830893],[-73.96899,40.829049],[-73.968837,40.828888],[-73.968735,40.82865],[-73.968712,40.828441],[-73.968776,40.828208],[-73.968736,40.82809],[-73.968726,40.827955],[-73.96875,40.827822],[-73.968809,40.827695],[-73.968997,40.827418],[-73.969115,40.827318],[-73.969256,40.827237],[-73.969424,40.827177],[-73.969557,40.826964],[-73.969689,40.826829],[-73.969837,40.826733],[-73.969979,40.826672],[-73.970142,40.826629],[-73.970328,40.826609],[-73.970419,40.826418],[-73.971165,40.825265],[-73.971185,40.825184],[-73.971265,40.825044],[-73.971435,40.824818],[-73.972206,40.823581],[-73.972296,40.823466],[-73.972413,40.823367],[-73.972551,40.823289],[-73.972614,40.823166],[-73.972711,40.823053],[-73.972953,40.822429],[-73.973107,40.822259],[-73.97345,40.821774],[-73.973846,40.821169],[-73.974122,40.820669],[-73.974224,40.820569],[-73.974388,40.820274],[-73.974505,40.820122],[-73.974653,40.819978],[-73.974573,40.819849],[-73.974532,40.819719],[-73.974525,40.819585],[-73.974552,40.819452],[-73.974654,40.819262],[-73.974747,40.819146],[-73.974869,40.819047],[-73.975014,40.818967],[-73.975176,40.818911],[-73.975387,40.818879],[-73.975641,40.818614],[-73.976064,40.817961],[-73.976163,40.817842],[-73.975931,40.817813],[-73.975767,40.817758],[-73.975599,40.817672],[-73.975477,40.817575],[-73.975382,40.817462],[-73.975317,40.817337],[-73.975223,40.817076],[-73.975212,40.816941],[-73.975236,40.816807],[-73.975294,40.816679],[-73.975402,40.816534],[-73.975542,40.81628],[-73.975636,40.816169],[-73.975756,40.816073],[-73.975899,40.815997],[-73.976058,40.815943],[-73.976228,40.815913],[-73.976402,40.815909],[-73.976574,40.81593],[-73.976737,40.815975],[-73.976922,40.816056],[-73.977172,40.816214],[-73.977312,40.816369],[-73.977536,40.816458],[-73.977454,40.816311],[-73.977422,40.816173],[-73.977428,40.816033],[-73.977471,40.815896],[-73.97755,40.81577],[-73.977848,40.815416],[-73.97797,40.81533],[-73.978111,40.815262],[-73.978265,40.815215],[-73.978428,40.81519],[-73.978595,40.815189],[-73.978875,40.815244],[-73.978924,40.815216],[-73.979048,40.815066],[-73.978955,40.814884],[-73.978936,40.81476],[-73.978946,40.814636],[-73.979005,40.814472],[-73.978946,40.814229],[-73.978986,40.813998],[-73.97904,40.81387],[-73.979215,40.813656],[-73.97932,40.813561],[-73.979517,40.813452],[-73.978547,40.813066],[-73.978294,40.812917],[-73.978197,40.812819],[-73.978105,40.812671],[-73.978055,40.812533],[-73.978044,40.812391],[-73.978071,40.81225],[-73.978247,40.811947],[-73.978336,40.811837],[-73.97845,40.811742],[-73.978586,40.811665],[-73.978738,40.811608],[-73.978902,40.811574],[-73.979145,40.811558],[-73.979333,40.811579],[-73.979512,40.81163],[-73.980207,40.811893],[-73.98023,40.811707],[-73.980298,40.811546],[-73.980096,40.811371],[-73.980023,40.811257],[-73.979979,40.811134],[-73.979966,40.811008],[-73.979983,40.810882],[-73.980031,40.81076],[-73.980259,40.810421],[-73.980381,40.810318],[-73.980528,40.810236],[-73.980693,40.810178],[-73.980871,40.810147],[-73.981053,40.810143],[-73.981233,40.810167],[-73.981533,40.810269],[-73.982216,40.809891],[-73.982521,40.80968],[-73.981654,40.809347],[-73.981505,40.809275],[-73.981377,40.809182],[-73.981275,40.809072],[-73.981204,40.808949],[-73.981165,40.808818],[-73.981161,40.808683],[-73.981191,40.808551],[-73.981255,40.808425],[-73.982012,40.807284],[-73.982106,40.807172],[-73.982226,40.807076],[-73.982369,40.806998],[-73.982528,40.806944],[-73.982698,40.806913],[-73.982873,40.806908],[-73.983046,40.806929],[-73.98321,40.806975],[-73.984263,40.80736],[-73.984364,40.807234],[-73.984483,40.807137],[-73.984624,40.80706],[-73.984793,40.807002],[-73.983625,40.806526],[-73.983482,40.806453],[-73.983359,40.806361],[-73.983214,40.806187],[-73.983145,40.806066],[-73.983108,40.805937],[-73.983104,40.805805],[-73.983134,40.805675],[-73.983341,40.805329],[-73.983439,40.80521],[-73.983568,40.805109],[-73.983871,40.804965],[-73.984035,40.804911],[-73.98421,40.804881],[-73.984389,40.804879],[-73.984565,40.804904],[-73.984731,40.804954],[-73.985154,40.805121],[-73.985354,40.80491],[-73.985472,40.804831],[-73.985753,40.804725],[-73.986096,40.804666],[-73.9863,40.804674],[-73.987272,40.804797],[-73.987567,40.80487],[-73.987777,40.804778],[-73.987877,40.804571],[-73.986985,40.8042],[-73.986861,40.804108],[-73.986762,40.804],[-73.986692,40.80388],[-73.986654,40.803751],[-73.986649,40.80362],[-73.986676,40.80349],[-73.98684,40.803204],[-73.986933,40.803088],[-73.987054,40.802989],[-73.987198,40.802909],[-73.98736,40.802853],[-73.987533,40.802822],[-73.987712,40.802817],[-73.987887,40.802839],[-73.988054,40.802887],[-73.98883,40.803179],[-73.988913,40.803076],[-73.989022,40.802983],[-73.989278,40.802846],[-73.98943,40.802787],[-73.989594,40.802751],[-73.989764,40.802739],[-73.990006,40.802768],[-73.989921,40.802662],[-73.989861,40.802535],[-73.989834,40.802402],[-73.989837,40.802198],[-73.989881,40.802065],[-73.989958,40.801942],[-73.990066,40.801833],[-73.990219,40.801723],[-73.990357,40.801657],[-73.990715,40.80157],[-73.991003,40.801543],[-73.991416,40.80085],[-73.991441,40.800748],[-73.991422,40.800616],[-73.991435,40.800464],[-73.991499,40.800282],[-73.991464,40.800142],[-73.991468,40.800007],[-73.991566,40.799707],[-73.991653,40.79959],[-73.991769,40.799488],[-73.992025,40.799348],[-73.992221,40.799277],[-73.992482,40.799241],[-73.992782,40.798902],[-73.993142,40.798623],[-73.992081,40.798204],[-73.991943,40.798135],[-73.991757,40.798084],[-73.991619,40.79802],[-73.991414,40.797871],[-73.991222,40.797653],[-73.991079,40.797384],[-73.991051,40.797213],[-73.991069,40.797073],[-73.991123,40.796924],[-73.991567,40.796361],[-73.991706,40.796142],[-73.991864,40.795966],[-73.991993,40.795625],[-73.992064,40.795515],[-73.99223,40.795337],[-73.992375,40.795243],[-73.992627,40.795147],[-73.992606,40.794968],[-73.992632,40.794842],[-73.992688,40.794722],[-73.992976,40.794394],[-73.993151,40.794254],[-73.993233,40.794138],[-73.993434,40.793972],[-73.993378,40.793819],[-73.993383,40.793582],[-73.99357,40.793173],[-73.993689,40.793008],[-73.993925,40.792764],[-73.994101,40.792627],[-73.994925,40.792122],[-73.99507,40.792047],[-73.995232,40.791995],[-73.995403,40.791968],[-73.995546,40.791966],[-73.995404,40.791838],[-73.995321,40.791711],[-73.995274,40.791574],[-73.995266,40.791432],[-73.995378,40.79106],[-73.995438,40.790938],[-73.995526,40.790828],[-73.995641,40.790731],[-73.995777,40.790654],[-73.99593,40.790596],[-73.996095,40.790562],[-73.996265,40.790552],[-73.996435,40.790567],[-73.996676,40.790627],[-73.996489,40.790485],[-73.996402,40.790373],[-73.996345,40.79025],[-73.99632,40.79012],[-73.996327,40.78999],[-73.996366,40.789863],[-73.996437,40.789744],[-73.998085,40.787554],[-73.997375,40.787211],[-73.997257,40.787111],[-73.997167,40.786995],[-73.997108,40.786868],[-73.997083,40.786734],[-73.997093,40.7866],[-73.997137,40.78647],[-73.997214,40.786348],[-73.997342,40.786216],[-73.997474,40.786127],[-73.997626,40.78606],[-73.997793,40.786016],[-73.997967,40.785997],[-73.998143,40.786005],[-73.998313,40.786039],[-73.99898,40.786331],[-74.000506,40.784435],[-74.001481,40.783073],[-74.002468,40.781899],[-74.002573,40.781797],[-74.002702,40.781712],[-74.00285,40.781646],[-74.003011,40.781603],[-74.00318,40.781584],[-74.003351,40.781589],[-74.003535,40.781625],[-74.0046,40.780291],[-74.004535,40.780077],[-74.004542,40.779944],[-74.004584,40.779814],[-74.004839,40.77946],[-74.004943,40.779351],[-74.005074,40.77926],[-74.005225,40.77919],[-74.005392,40.779144],[-74.005567,40.779123],[-74.005744,40.779129],[-74.005916,40.779161],[-74.006451,40.779387],[-74.006532,40.779304],[-74.006818,40.778879],[-74.006992,40.778575],[-74.007438,40.778006],[-74.007763,40.777691],[-74.008512,40.776784],[-74.008618,40.776679],[-74.008747,40.776592],[-74.008963,40.776508],[-74.009034,40.776369],[-74.00951,40.775736],[-74.009677,40.775571],[-74.009677,40.77546],[-74.009709,40.775333],[-74.009964,40.774922],[-74.009126,40.774502],[-74.009014,40.774404],[-74.008928,40.774292],[-74.008871,40.77417],[-74.008845,40.774042],[-74.008851,40.773913],[-74.00889,40.773787],[-74.008958,40.773668],[-74.009217,40.773315],[-74.009308,40.773214],[-74.009441,40.773114],[-74.009456,40.77291],[-74.009504,40.772794],[-74.009867,40.772348],[-74.010076,40.772162],[-74.009858,40.771891],[-74.009779,40.771728],[-74.009756,40.771602],[-74.009764,40.771475],[-74.009803,40.771351],[-74.00987,40.771235],[-74.009965,40.77113],[-74.010084,40.771041],[-74.010223,40.770969],[-74.010986,40.77065],[-74.011151,40.770596],[-74.011326,40.770569],[-74.011523,40.77057],[-74.011788,40.770487],[-74.011962,40.770471],[-74.012137,40.770481],[-74.012344,40.770531],[-74.012552,40.770498],[-74.012947,40.770523],[-74.01316,40.770513],[-74.013293,40.770531],[-74.013362,40.770472],[-74.013553,40.770374],[-74.013654,40.770205],[-74.013862,40.769962],[-74.014173,40.769478],[-74.014352,40.76932],[-74.014308,40.769176],[-74.014306,40.769035],[-74.014342,40.768895],[-74.014414,40.768765],[-74.016238,40.766292],[-74.016392,40.766144]],[[-73.998449,40.802831],[-73.998316,40.802799],[-73.998313,40.802866],[-73.99836,40.802852],[-73.998449,40.802831]]]}}]}