{"type":"FeatureCollection","features":[{"type":"Feature","geometry":{"type":"Polygon","coordinates":[[[-74.00172955597594,40.77379530720717],[-74.00188010146375,40.77386629912594],[-74.00202076920661,40.77394816686179],[-74.00215020452461,40.77404012202183],[-74.002267160892,40.77414127906704],[-74.00237051194158,40.774250663838934],[-74.0024592623127,40.77436722293982],[-74.00253255723844,40.7744898338761],[-74.00258969077956,40.77461731586721],[-74.00263011262565,40.774748441216],[-74.00265343339817,40.77488194713126],[-74.00265942840392,40.77501654788834],[-74.00264803980296,40.77515094721104],[-74.00261937716961,40.77528385075534],[-74.00257371644113,40.77541397857483],[-74.00251149726427,40.77554007744784],[-74.00243331876459,40.77566093294725],[-73.95776451261531,40.83686009656944],[-73.95767096489838,40.83697450741915],[-73.95756310188054,40.837081403253755],[-73.95744196231418,40.83717975456977],[-73.95730871283259,40.83726861415086],[-73.9571646367147,40.83734712619148],[-73.957011121526,40.837414534540365],[-73.95684964575416,40.83747018998403],[-73.95668176456843,40.8375135565004],[-73.95650909483979,40.8375442164221],[-73.95633329956641,40.83756187445983],[-73.95615607185451,40.83756636054678],[-73.95597911860881,40.837557631476834],[-73.95580414409012,40.8375357713208],[-73.95563283349838,40.837500990616604],[-73.95546683673943,40.837453624341165],[-73.95530775253198,40.83739412868359],[-73.94994389118963,40.835132798727464],[-73.9499934,40.8349385],[-73.9500261,40.8348415],[-73.95005,40.8347812],[-73.9500745,40.8347157],[-73.9500962,40.8346597],[-73.9501097,40.8346029],[-73.9501226,40.8345331],[-73.9501292,40.8344737],[-73.9501551,40.8344141],[-73.950201,40.8343293],[-73.9502622,40.8342732],[-73.9502851,40.8342316],[-73.9502983,40.8341973],[-73.9503245,40.8341664],[-73.9503621,40.8341332],[-73.9503885,40.8340907],[-73.9504079,40.8340434],[-73.9504219,40.8340085],[-73.9505025,40.8338989],[-73.9507417,40.8335752],[-73.9508311,40.8334107],[-73.9509333,40.8332484],[-73.9510305,40.8330664],[-73.9510589,40.8329458],[-73.9522913,40.8311318],[-73.9525781,40.8307109],[-73.9532286,40.8297426],[-73.953446,40.8293651],[-73.9539383,40.8285984],[-73.9540117,40.8284971],[-73.9540424,40.8284686],[-73.9541707,40.8283938],[-73.9542378,40.8283281],[-73.9543076,40.8282282],[-73.9543766,40.8281581],[-73.9544739,40.8280194],[-73.9545332,40.8279188],[-73.9545637,40.8278744],[-73.9546149,40.8278598],[-73.9545942,40.8278884],[-73.9546914,40.8279332],[-73.9550126,40.8274618],[-73.9563188,40.8279644],[-73.9569686,40.8270244],[-73.9572789,40.8271388],[-73.9580261,40.826011],[-73.959591,40.8236389],[-73.9581498,40.8230204],[-73.9582337,40.8228973],[-73.9579453,40.8227757],[-73.9581149,40.8225569],[-73.9581513,40.8224949],[-73.9581714,40.8224351],[-73.9581787,40.8223733],[-73.9582766,40.8222451],[-73.9586676,40.8217773],[-73.9596787,40.8204618],[-73.9596995,40.8204718],[-73.9598263,40.8203005],[-73.960004,40.8203832],[-73.9603322,40.8200144],[-73.9604312,40.8199545],[-73.9604069,40.8199354],[-73.9605236,40.8198029],[-73.9611551,40.8190851],[-73.9611707,40.8190724],[-73.961188,40.8190591],[-73.9613417,40.8188804],[-73.9615417,40.8186479],[-73.9615715,40.8186124],[-73.9619779,40.8181562],[-73.9620853,40.8180299],[-73.96292,40.8171787],[-73.9631297,40.8169283],[-73.9634745,40.8165576],[-73.963839,40.8161481],[-73.9641769,40.8157223],[-73.9643967,40.8154139],[-73.9648452,40.8147366],[-73.9651916,40.8141507],[-73.9653507,40.8139514],[-73.9655445,40.8136568],[-73.9659625,40.8131246],[-73.966189,40.8128034],[-73.9664009,40.8124913],[-73.9664954,40.812374],[-73.9666125,40.8121854],[-73.9667745,40.8119184],[-73.9671013,40.8114583],[-73.9675109,40.8108425],[-73.9675863,40.8106939],[-73.967742,40.8104686],[-73.9680455,40.8099837],[-73.9684911,40.8093033],[-73.9685318,40.8092369],[-73.9688905,40.8087075],[-73.9690198,40.8085609],[-73.9690772,40.8084921],[-73.9696305,40.8077745],[-73.9703797,40.8067654],[-73.9712526,40.8055926],[-73.9715529,40.8051561],[-73.9718476,40.8047142],[-73.9718962,40.8046591],[-73.9719616,40.8046141],[-73.9720047,40.8045774],[-73.9722195,40.8042852],[-73.9733677,40.8026374],[-73.9740534,40.8016588],[-73.9752586,40.79994],[-73.9758665,40.7990343],[-73.9764437,40.7982386],[-73.9769366,40.797513],[-73.977426,40.7968137],[-73.9788245,40.7948573],[-73.9801074,40.7930555],[-73.9803555,40.7926999],[-73.9804271,40.7925844],[-73.980479,40.7925006],[-73.9806832,40.792207],[-73.9816105,40.7909057],[-73.98166,40.7908502],[-73.9817689,40.7907281],[-73.9819211,40.7904706],[-73.9820776,40.7902533],[-73.9825791,40.7895387],[-73.982699,40.7893638],[-73.9831259,40.7887706],[-73.9832848,40.7885399],[-73.9835893,40.7880976],[-73.9840943,40.7873648],[-73.984363,40.7869822],[-73.9844804,40.7868151],[-73.9846368,40.7865799],[-73.9858145,40.7866234],[-73.9859411,40.7865033],[-73.9859378,40.7864645],[-73.985896,40.7864392],[-73.9857464,40.7865808],[-73.9847885,40.7865437],[-73.9847162,40.7864723],[-73.9850224,40.7860274],[-73.9851209,40.7860664],[-73.9851367,40.7860727],[-73.9851668,40.7860292],[-73.9852174,40.7860498],[-73.9852126,40.7860572],[-73.985673,40.7862512],[-73.9856386,40.7862971],[-73.9856858,40.7863173],[-73.9857683,40.7862071],[-73.9857212,40.7861869],[-73.9856875,40.7862319],[-73.9852258,40.7860365],[-73.9851755,40.7860166],[-73.9851901,40.7859954],[-73.9852022,40.7859776],[-73.9850878,40.7859324],[-73.9854479,40.785419],[-73.9860968,40.7860627],[-73.9860291,40.7862355],[-73.9860735,40.786245],[-73.9861258,40.7862447],[-73.9861675,40.7861284],[-73.9864987,40.7859571],[-73.9871243,40.78521],[-73.9870743,40.7851874],[-73.9864552,40.785925],[-73.9861756,40.7860704],[-73.9855613,40.7854565],[-73.9859123,40.7850648],[-73.9866694,40.7854369],[-73.9867629,40.7853256],[-73.9867443,40.7853172],[-73.9866669,40.785409],[-73.9859319,40.7850455],[-73.9860205,40.7849449],[-73.9859993,40.7849357],[-73.9861909,40.7846973],[-73.9869257,40.7850248],[-73.9868626,40.78511],[-73.9868762,40.7851154],[-73.9868943,40.7851226],[-73.9870421,40.7849187],[-73.9870188,40.7849085],[-73.9869498,40.7850015],[-73.9861841,40.7846631],[-73.985956,40.7849517],[-73.9859701,40.7849604],[-73.9855448,40.7854424],[-73.9854782,40.7853757],[-73.9857527,40.7849775],[-73.9859158,40.7847408],[-73.9860918,40.7844976],[-73.9869408,40.7832625],[-73.9876405,40.7822486],[-73.9878942,40.7818869],[-73.9879357,40.7818277],[-73.9880025,40.7816773],[-73.988018,40.7816431],[-73.9880405,40.7815946],[-73.9880798,40.7815131],[-73.9881472,40.781378],[-73.9882223,40.7812276],[-73.9889166,40.7802304],[-73.9889073,40.7801288],[-73.9889065,40.7801162],[-73.9889051,40.7801052],[-73.988885,40.7798859],[-73.9914208,40.7797557],[-73.9915503,40.7795765],[-73.9913547,40.7795926],[-73.9913278,40.7796382],[-73.9912787,40.7796384],[-73.9912548,40.7796671],[-73.991165,40.7796747],[-73.9910571,40.7796513],[-73.9909548,40.7796375],[-73.9908577,40.7796496],[-73.9907562,40.779677],[-73.9906599,40.7796853],[-73.9905426,40.7796789],[-73.9904075,40.779669],[-73.9902849,40.7796731],[-73.9901865,40.7796951],[-73.9900795,40.7797116],[-73.9899479,40.7797017],[-73.9898499,40.7796749],[-73.9897266,40.7796741],[-73.9895952,40.7796963],[-73.9895059,40.7797315],[-73.9894116,40.7797453],[-73.9893137,40.7797391],[-73.9892657,40.7797282],[-73.9892222,40.7797068],[-73.9888616,40.7797199],[-73.9903936,40.7775806],[-73.9909283,40.7775591],[-73.9913311,40.7770032],[-73.9917931,40.7763657],[-73.9918607,40.7762723],[-73.9918772,40.7762496],[-73.9920229,40.7760529],[-73.992121,40.7759205],[-73.9923551,40.7756067],[-73.9924111,40.7755264],[-73.992457,40.7754402],[-73.9924698,40.7753484],[-73.9924596,40.7752634],[-73.9924516,40.7751938],[-73.9924589,40.7751125],[-73.9924744,40.7750394],[-73.992512,40.7749771],[-73.9926232,40.7749669],[-73.9929799,40.7744635],[-73.9931068,40.7742835],[-73.9932521,40.7740613],[-73.9933192,40.7739678],[-73.9933877,40.773864],[-73.9934922,40.7737536],[-73.993585,40.7736624],[-73.9936354,40.7736194],[-73.9936896,40.7735645],[-73.9937283,40.7735013],[-73.9937518,40.7734494],[-73.9937575,40.773382],[-73.9938188,40.7733468],[-73.99385,40.7733033],[-73.9938717,40.7732498],[-73.9939457,40.7731851],[-73.9960986,40.7741013],[-73.9961839,40.7739879],[-73.9961179,40.7739598],[-73.9961454,40.773924],[-73.9960973,40.7739027],[-73.9961451,40.7738376],[-73.9961911,40.7738577],[-73.9962316,40.7738033],[-73.995054,40.7733017],[-73.9950111,40.773361],[-73.9950878,40.7733931],[-73.9950176,40.7734848],[-73.9942903,40.7731645],[-73.9943801,40.7730436],[-73.9940286,40.7728912],[-73.9940005,40.772899],[-73.9939688,40.7729454],[-73.993895,40.7729587],[-73.994237,40.7724949],[-73.9961294,40.7732796],[-73.9962345,40.7731387],[-73.9944522,40.7723825],[-73.9947747,40.7719351],[-73.9959701,40.7724514],[-73.9965127,40.7726807],[-73.9968652,40.7728343],[-73.9970852,40.7725347],[-73.9949779,40.7716623],[-73.995022,40.7716115],[-73.9950076,40.771599],[-73.9949377,40.7715309],[-73.9949353,40.7715085],[-73.9949358,40.7714928],[-73.9949441,40.7714759],[-73.9949592,40.7714617],[-73.9949785,40.7714521],[-73.9950023,40.7714494],[-73.9951239,40.7714594],[-73.9953107,40.7711977],[-73.99537160065184,40.77111564167714],[-74.00172955597594,40.77379530720717]]]},"properties":{"name":"Hudson River"}},{"type":"Feature","geometry":{"type":"Polygon","coordinates":[[[-73.9840605,40.7732636],[-73.9839595,40.7733994],[-73.9839083,40.7733775],[-73.98352818470882,40.773214864600774],[-73.98362648521586,40.773080230242094],[-73.9840605,40.7732636]]]},"properties":{}},{"type":"Feature","geometry":{"type":"Polygon","coordinates":[[[-73.9923932,40.7752201],[-73.9924101,40.7753372],[-73.9923904,40.7754415],[-73.9923202,40.7755628],[-73.9921993,40.7754798],[-73.99216,40.7753819],[-73.992178,40.7752576],[-73.9923342,40.7750924],[-73.9924101,40.7750349],[-73.9923932,40.7752201]]]},"properties":{}},{"type":"Feature","geometry":{"type":"Polygon","coordinates":[[[-73.9828619,40.7759353],[-73.9828583,40.7759399],[-73.9828528,40.7759432],[-73.9828461,40.775945],[-73.982839,40.7759449],[-73.9828325,40.7759429],[-73.9828275,40.7759398],[-73.9828239,40.7759351],[-73.9828226,40.7759299],[-73.9828238,40.7759246],[-73.9828273,40.77592],[-73.9828326,40.7759165],[-73.9828385,40.7759147],[-73.9828455,40.7759145],[-73.9828523,40.7759161],[-73.9828579,40.7759193],[-73.9828617,40.7759238],[-73.9828633,40.775929],[-73.9828619,40.7759353]]]},"properties":{}},{"type":"Feature","geometry":{"type":"Polygon","coordinates":[[[-73.9845241,40.7858395],[-73.984492,40.7858448],[-73.9844591,40.7858436],[-73.9844278,40.7858362],[-73.9844,40.7858229],[-73.9843777,40.7858046],[-73.9843623,40.7857826],[-73.9843549,40.7857583],[-73.984356,40.7857334],[-73.9843654,40.7857096],[-73.9843827,40.7856884],[-73.9844119,40.7856684],[-73.9844479,40.7856562],[-73.984487,40.785653],[-73.9845256,40.7856589],[-73.9845599,40.7856736],[-73.9845867,40.7856954],[-73.9846033,40.7857225],[-73.9846081,40.7857521],[-73.9846008,40.7857814],[-73.9845819,40.7858076],[-73.9845533,40.7858281],[-73.9845241,40.7858395]]]},"properties":{}},{"type":"Feature","geometry":{"type":"Polygon","coordinates":[[[-73.9863691,40.7835562],[-73.9863509,40.7835604],[-73.986341,40.7835687],[-73.9863185,40.7835521],[-73.9862871,40.7835241],[-73.9862695,40.78349],[-73.9862612,40.7834479],[-73.9862656,40.7834133],[-73.9862832,40.7833757],[-73.9863163,40.7833436],[-73.9863586,40.783322],[-73.9864137,40.7833061],[-73.9864462,40.7833015],[-73.9864858,40.7833019],[-73.9865216,40.7833082],[-73.9865216,40.7833228],[-73.9865277,40.7833357],[-73.9865398,40.7833436],[-73.9863889,40.7835587],[-73.9863691,40.7835562]]]},"properties":{}},{"type":"Feature","geometry":{"type":"Polygon","coordinates":[[[-73.9846173,40.783272],[-73.9846128,40.7832704],[-73.984608,40.783271],[-73.9846045,40.7832737],[-73.9845944,40.7832701],[-73.9845958,40.7832656],[-73.9845966,40.7832612],[-73.9845957,40.7832557],[-73.9845971,40.7832499],[-73.9846007,40.7832443],[-73.9846064,40.7832397],[-73.9846132,40.7832366],[-73.984617,40.7832344],[-73.9846201,40.7832312],[-73.9846306,40.7832347],[-73.9846304,40.7832385],[-73.9846319,40.7832419],[-73.984637,40.7832443],[-73.9846173,40.783272]]]},"properties":{}},{"type":"Feature","geometry":{"type":"Polygon","coordinates":[[[-73.9499934,40.8349385],[-73.9500261,40.8348415],[-73.95005,40.8347812],[-73.9500745,40.8347157],[-73.9500962,40.8346597],[-73.9501097,40.8346029],[-73.9501226,40.8345331],[-73.9501292,40.8344737],[-73.9501551,40.8344141],[-73.950201,40.8343293],[-73.9502622,40.8342732],[-73.9502851,40.8342316],[-73.9502983,40.8341973],[-73.9503245,40.8341664],[-73.9503621,40.8341332],[-73.9503885,40.8340907],[-73.9504079,40.8340434],[-73.9504219,40.8340085],[-73.9505025,40.8338989],[-73.9507417,40.8335752],[-73.9508311,40.8334107],[-73.9509333,40.8332484],[-73.9510305,40.8330664],[-73.9510589,40.8329458],[-73.9522913,40.8311318],[-73.9525781,40.8307109],[-73.9532286,40.8297426],[-73.953446,40.8293651],[-73.9539383,40.8285984],[-73.9540117,40.8284971],[-73.9540424,40.8284686],[-73.9541707,40.8283938],[-73.9542378,40.8283281],[-73.9543076,40.8282282],[-73.9543766,40.8281581],[-73.9544739,40.8280194],[-73.9545332,40.8279188],[-73.9545637,40.8278744],[-73.9546149,40.8278598],[-73.9545942,40.8278884],[-73.9546914,40.8279332],[-73.9550126,40.8274618],[-73.9563188,40.8279644],[-73.9569686,40.8270244],[-73.9572789,40.8271388],[-73.9580261,40.826011],[-73.959591,40.8236389],[-73.9581498,40.8230204],[-73.9582337,40.8228973],[-73.9579453,40.8227757],[-73.9581149,40.8225569],[-73.9581513,40.8224949],[-73.9581714,40.8224351],[-73.9581787,40.8223733],[-73.9582766,40.8222451],[-73.9586676,40.8217773],[-73.9596787,40.8204618],[-73.9596995,40.8204718],[-73.9598263,40.8203005],[-73.960004,40.8203832],[-73.9603322,40.8200144],[-73.9604312,40.8199545],[-73.9604069,40.8199354],[-73.9605236,40.8198029],[-73.9611551,40.8190851],[-73.9611707,40.8190724],[-73.961188,40.8190591],[-73.9613417,40.8188804],[-73.9615417,40.8186479],[-73.9615715,40.8186124],[-73.9619779,40.8181562],[-73.9620853,40.8180299],[-73.96292,40.8171787],[-73.9631297,40.8169283],[-73.9634745,40.8165576],[-73.963839,40.8161481],[-73.9641769,40.8157223],[-73.9643967,40.8154139],[-73.9648452,40.8147366],[-73.9651916,40.8141507],[-73.9653507,40.8139514],[-73.9655445,40.8136568],[-73.9659625,40.8131246],[-73.966189,40.8128034],[-73.9664009,40.8124913],[-73.9664954,40.812374],[-73.9666125,40.8121854],[-73.9667745,40.8119184],[-73.9671013,40.8114583],[-73.9675109,40.8108425],[-73.9675863,40.8106939],[-73.967742,40.8104686],[-73.9680455,40.8099837],[-73.9684911,40.8093033],[-73.9685318,40.8092369],[-73.9688905,40.8087075],[-73.9690198,40.8085609],[-73.9690772,40.8084921],[-73.9696305,40.8077745],[-73.9703797,40.8067654],[-73.9712526,40.8055926],[-73.9715529,40.8051561],[-73.9718476,40.8047142],[-73.9718962,40.8046591],[-73.9719616,40.8046141],[-73.9720047,40.8045774],[-73.9722195,40.8042852],[-73.9733677,40.8026374],[-73.9740534,40.8016588],[-73.9752586,40.79994],[-73.9758665,40.7990343],[-73.9764437,40.7982386],[-73.9769366,40.797513],[-73.977426,40.7968137],[-73.9788245,40.7948573],[-73.9801074,40.7930555],[-73.9803555,40.7926999],[-73.9804271,40.7925844],[-73.980479,40.7925006],[-73.9806832,40.792207],[-73.9816105,40.7909057],[-73.98166,40.7908502],[-73.9817689,40.7907281],[-73.98940343466741,40.793512719855904],[-73.95776451261531,40.83686009656944],[-73.95767096489838,40.83697450741915],[-73.95756310188054,40.837081403253755],[-73.95744196231418,40.83717975456977],[-73.95730871283259,40.83726861415086],[-73.9571646367147,40.83734712619148],[-73.957011121526,40.837414534540365],[-73.95684964575416,40.83747018998403],[-73.95668176456843,40.8375135565004],[-73.95650909483979,40.8375442164221],[-73.95633329956641,40.83756187445983],[-73.95615607185451,40.83756636054678],[-73.95597911860881,40.837557631476834],[-73.95580414409012,40.8375357713208],[-73.95563283349838,40.837500990616604],[-73.95546683673943,40.837453624341165],[-73.95530775253198,40.83739412868359],[-73.94994389118963,40.835132798727464],[-73.9499934,40.8349385]]]},"properties":{}},{"type":"Feature","geometry":{"type":"Polygon","coordinates":[[[-73.9817689,40.7907281],[-73.9819211,40.7904706],[-73.9820776,40.7902533],[-73.9825791,40.7895387],[-73.982699,40.7893638],[-73.9831259,40.7887706],[-73.9832848,40.7885399],[-73.9835893,40.7880976],[-73.9840943,40.7873648],[-73.984363,40.7869822],[-73.9844804,40.7868151],[-73.9846368,40.7865799],[-73.9858145,40.7866234],[-73.9859411,40.7865033],[-73.9859378,40.7864645],[-73.985896,40.7864392],[-73.9857464,40.7865808],[-73.9847885,40.7865437],[-73.9847162,40.7864723],[-73.9850224,40.7860274],[-73.9851209,40.7860664],[-73.9851367,40.7860727],[-73.9851668,40.7860292],[-73.9852174,40.7860498],[-73.9852126,40.7860572],[-73.985673,40.7862512],[-73.9856386,40.7862971],[-73.9856858,40.7863173],[-73.9857683,40.7862071],[-73.9857212,40.7861869],[-73.9856875,40.7862319],[-73.9852258,40.7860365],[-73.9851755,40.7860166],[-73.9851901,40.7859954],[-73.9852022,40.7859776],[-73.9850878,40.7859324],[-73.9854479,40.785419],[-73.9860968,40.7860627],[-73.9860291,40.7862355],[-73.9860735,40.786245],[-73.9861258,40.7862447],[-73.9861675,40.7861284],[-73.9864987,40.7859571],[-73.9871243,40.78521],[-73.9870743,40.7851874],[-73.9864552,40.785925],[-73.9861756,40.7860704],[-73.9855613,40.7854565],[-73.9859123,40.7850648],[-73.9866694,40.7854369],[-73.9867629,40.7853256],[-73.9867443,40.7853172],[-73.9866669,40.785409],[-73.9859319,40.7850455],[-73.9860205,40.7849449],[-73.9859993,40.7849357],[-73.9861909,40.7846973],[-73.9869257,40.7850248],[-73.9868626,40.78511],[-73.9868762,40.7851154],[-73.9868943,40.7851226],[-73.9870421,40.7849187],[-73.9870188,40.7849085],[-73.9869498,40.7850015],[-73.9861841,40.7846631],[-73.985956,40.7849517],[-73.9859701,40.7849604],[-73.9855448,40.7854424],[-73.9854782,40.7853757],[-73.9857527,40.7849775],[-73.9859158,40.7847408],[-73.9860918,40.7844976],[-73.9869408,40.7832625],[-73.9876405,40.7822486],[-73.9878942,40.7818869],[-73.9879357,40.7818277],[-73.9880025,40.7816773],[-73.988018,40.7816431],[-73.9880405,40.7815946],[-73.9880798,40.7815131],[-73.9881472,40.781378],[-73.9882223,40.7812276],[-73.9889166,40.7802304],[-73.9889073,40.7801288],[-73.9889065,40.7801162],[-73.9889051,40.7801052],[-73.988885,40.7798859],[-73.9914208,40.7797557],[-73.9915503,40.7795765],[-73.9913547,40.7795926],[-73.9913278,40.7796382],[-73.9912787,40.7796384],[-73.9912548,40.7796671],[-73.991165,40.7796747],[-73.9910571,40.7796513],[-73.9909548,40.7796375],[-73.9908577,40.7796496],[-73.9907562,40.779677],[-73.9906599,40.7796853],[-73.9905426,40.7796789],[-73.9904075,40.779669],[-73.9902849,40.7796731],[-73.9901865,40.7796951],[-73.9900795,40.7797116],[-73.9899479,40.7797017],[-73.9898499,40.7796749],[-73.9897266,40.7796741],[-73.9895952,40.7796963],[-73.9895059,40.7797315],[-73.9894116,40.7797453],[-73.9893137,40.7797391],[-73.9892657,40.7797282],[-73.9892222,40.7797068],[-73.9888616,40.7797199],[-73.9903936,40.7775806],[-73.9909283,40.7775591],[-73.9913311,40.7770032],[-73.9917931,40.7763657],[-73.9918607,40.7762723],[-73.9918772,40.7762496],[-73.9920229,40.7760529],[-73.992121,40.7759205],[-73.9923551,40.7756067],[-73.9924111,40.7755264],[-73.992457,40.7754402],[-73.9924698,40.7753484],[-73.9924596,40.7752634],[-73.9924516,40.7751938],[-73.9924589,40.7751125],[-73.9924744,40.7750394],[-73.992512,40.7749771],[-73.9926232,40.7749669],[-73.9929799,40.7744635],[-73.9931068,40.7742835],[-73.9932521,40.7740613],[-73.9933192,40.7739678],[-73.9933877,40.773864],[-73.9934922,40.7737536],[-73.993585,40.7736624],[-73.9936354,40.7736194],[-73.9936896,40.7735645],[-73.9937283,40.7735013],[-73.9937518,40.7734494],[-73.9937575,40.773382],[-73.9938188,40.7733468],[-73.99385,40.7733033],[-73.9938717,40.7732498],[-73.9939457,40.7731851],[-73.9960986,40.7741013],[-73.9961839,40.7739879],[-73.9961179,40.7739598],[-73.9961454,40.773924],[-73.9960973,40.7739027],[-73.9961451,40.7738376],[-73.9961911,40.7738577],[-73.9962316,40.7738033],[-73.995054,40.7733017],[-73.9950111,40.773361],[-73.9950878,40.7733931],[-73.9950176,40.7734848],[-73.9942903,40.7731645],[-73.9943801,40.7730436],[-73.9940286,40.7728912],[-73.9940005,40.772899],[-73.9939688,40.7729454],[-73.993895,40.7729587],[-73.994237,40.7724949],[-73.9961294,40.7732796],[-73.9962345,40.7731387],[-73.9944522,40.7723825],[-73.9947747,40.7719351],[-73.9959701,40.7724514],[-73.9965127,40.7726807],[-73.9968652,40.7728343],[-73.9970852,40.7725347],[-73.9949779,40.7716623],[-73.995022,40.7716115],[-73.9950076,40.771599],[-73.9949377,40.7715309],[-73.9949353,40.7715085],[-73.9949358,40.7714928],[-73.9949441,40.7714759],[-73.9949592,40.7714617],[-73.9949785,40.7714521],[-73.9950023,40.7714494],[-73.9951239,40.7714594],[-73.9953107,40.7711977],[-73.99537160065184,40.77111564167714],[-74.00172955597594,40.77379530720717],[-74.00188010146375,40.77386629912594],[-74.00202076920661,40.77394816686179],[-74.00215020452461,40.77404012202183],[-74.002267160892,40.77414127906704],[-74.00237051194158,40.774250663838934],[-74.0024592623127,40.77436722293982],[-74.00253255723844,40.7744898338761],[-74.00258969077956,40.77461731586721],[-74.00263011262565,40.774748441216],[-74.00265343339817,40.77488194713126],[-74.00265942840392,40.77501654788834],[-74.00264803980296,40.77515094721104],[-74.00261937716961,40.77528385075534],[-74.00257371644113,40.77541397857483],[-74.00251149726427,40.77554007744784],[-74.00243331876459,40.77566093294725],[-73.98940343466741,40.793512719855904],[-73.9817689,40.7907281]]]},"properties":{}}]}