{"type":"FeatureCollection","features":[{"type":"Feature","geometry":{"type":"Polygon","coordinates":[[[-73.984607,40.7854707],[-73.9845679,40.7854618],[-73.9845222,40.7854568],[-73.9844722,40.7854558],[-73.9844181,40.78546],[-73.9843677,40.7854686],[-73.9843224,40.7854818],[-73.9842772,40.7854975],[-73.9842471,40.7855078],[-73.9842179,40.7855155],[-73.9841956,40.7855178],[-73.9841783,40.7855137],[-73.9843082,40.7853278],[-73.9843775,40.7852363],[-73.984466,40.7852373],[-73.9845373,40.7852461],[-73.9845873,40.7852648],[-73.9846285,40.7852975],[-73.9846447,40.7853357],[-73.9846441,40.7853726],[-73.9846453,40.7854223],[-73.9846503,40.7854638],[-73.9846429,40.7854811],[-73.984607,40.7854707]]]},"properties":{}},{"type":"Feature","geometry":{"type":"Polygon","coordinates":[[[-73.9840587,40.7860895],[-73.9839752,40.7860798],[-73.9839123,40.7860546],[-73.9838789,40.7860315],[-73.9838553,40.7859831],[-73.9839405,40.7858538],[-73.9840606,40.7856773],[-73.9840817,40.7856926],[-73.9840941,40.7857196],[-73.9840965,40.7857474],[-73.9841023,40.7857916],[-73.9841124,40.7858254],[-73.9841266,40.7858579],[-73.9841463,40.7858955],[-73.9841689,40.7859276],[-73.9842023,40.7859582],[-73.9842384,40.785985],[-73.9842793,40.7860085],[-73.9842377,40.7860263],[-73.9841799,40.7860538],[-73.9841221,40.7860843],[-73.9840587,40.7860895]]]},"properties":{}},{"type":"Feature","geometry":{"type":"Polygon","coordinates":[[[-73.9845478,40.7862006],[-73.9845074,40.7862496],[-73.9844557,40.7863041],[-73.9844072,40.7863463],[-73.9843651,40.7863757],[-73.9843053,40.7863971],[-73.9842309,40.7864081],[-73.9842018,40.78641],[-73.9842665,40.7863555],[-73.9843433,40.7862986],[-73.9843844,40.7862672],[-73.984424,40.7862403],[-73.9844805,40.7862146],[-73.984533,40.7861945],[-73.9845959,40.78617],[-73.9845478,40.7862006]]]},"properties":{}},{"type":"Feature","geometry":{"type":"Polygon","coordinates":[[[-73.984716,40.7861963],[-73.9847572,40.7862257],[-73.984775,40.7862441],[-73.984775,40.7862624],[-73.9847394,40.7862998],[-73.984678,40.7863842],[-73.9846036,40.7864981],[-73.9845608,40.7865207],[-73.9845147,40.7865158],[-73.9844888,40.7864963],[-73.9844145,40.786481],[-73.9843805,40.7864822],[-73.9843708,40.7864785],[-73.9844104,40.7864057],[-73.9844646,40.7863469],[-73.9845462,40.7862753],[-73.9846275,40.7862142],[-73.9846837,40.7861775],[-73.984716,40.7861963]]]},"properties":{}}]}